{
"type": "FeatureCollection",
"name": "macro",
"crs": { "type": "name", "properties": { "name": "urn:ogc:def:crs:OGC:1.3:CRS84" } },
"features": [
{ "type": "Feature", "properties": { "Macro": "Macrorregião 3", "Regioes_de": "Norte, Leste" }, "geometry": { "type": "Polygon", "coordinates": [ [ [ -47.310135530356092, -16.049994863839505 ], [ -47.888224869800759, -16.049874006163137 ], [ -47.885253120670008, -16.047201093365533 ], [ -47.881592454446185, -16.046064485754247 ], [ -47.880736011434095, -16.044100771542848 ], [ -47.879110376078501, -16.042913679409303 ], [ -47.878902292122724, -16.041634993233693 ], [ -47.876473527868825, -16.040384738181654 ], [ -47.875743000811788, -16.039300685869186 ], [ -47.873898481055754, -16.038863560345312 ], [ -47.873026922092372, -16.039357441365684 ], [ -47.87258932397139, -16.038555403606502 ], [ -47.868495932088685, -16.037419662696209 ], [ -47.869579146709412, -16.034986712325409 ], [ -47.870697991209269, -16.034400656905994 ], [ -47.871770153857064, -16.031932452507981 ], [ -47.872582125771018, -16.031665256714145 ], [ -47.873536290214673, -16.028645931536577 ], [ -47.874877518052983, -16.027247918582571 ], [ -47.874913332086734, -16.024926104649772 ], [ -47.877143552493159, -16.020776661219173 ], [ -47.8768970961017, -16.018108351544516 ], [ -47.874983535426189, -16.015342546055859 ], [ -47.87154498933446, -16.013865424171772 ], [ -47.870539061269199, -16.012764942850364 ], [ -47.871531248703874, -16.01239933417985 ], [ -47.87244000151329, -16.010893109749329 ], [ -47.873847420815011, -16.010765632328908 ], [ -47.875545505298263, -16.007723390120503 ], [ -47.878426277548613, -16.000147344652625 ], [ -47.877926992117061, -15.996818741246102 ], [ -47.878340003348725, -15.993887198350984 ], [ -47.880432910874077, -15.990287828468778 ], [ -47.880959870704579, -15.986446612903626 ], [ -47.884046994958844, -15.980528166935425 ], [ -47.884728332965864, -15.977835297526156 ], [ -47.88754766494236, -15.976654893897217 ], [ -47.889341281662816, -15.972080748314321 ], [ -47.890157909544882, -15.971082906114361 ], [ -47.891505505540259, -15.971272561573091 ], [ -47.892388103001856, -15.969338810201828 ], [ -47.887466888432002, -15.967536783181796 ], [ -47.887713919745245, -15.958809814107369 ], [ -47.887252596219298, -15.957468855810506 ], [ -47.889735045591195, -15.951573617450926 ], [ -47.892064508276945, -15.948926339716413 ], [ -47.895879335284988, -15.946298925184747 ], [ -47.896729258324754, -15.944534138209635 ], [ -47.896305709854815, -15.942431966879703 ], [ -47.897704222360503, -15.939880165098824 ], [ -47.89873909594084, -15.935227881574908 ], [ -47.901863432905756, -15.932224209124881 ], [ -47.906160230318243, -15.924278753739296 ], [ -47.906912883779036, -15.921776088646565 ], [ -47.906685039581944, -15.91839732947772 ], [ -47.90584504472271, -15.916746437539787 ], [ -47.907888676959786, -15.912583069164031 ], [ -47.905296601682188, -15.911590203299081 ], [ -47.904271333787172, -15.912107359956458 ], [ -47.901716458643797, -15.911243543548469 ], [ -47.89847915853192, -15.912126546197241 ], [ -47.896068056054823, -15.911348779329712 ], [ -47.893083298420457, -15.911731256051336 ], [ -47.889759027016026, -15.911106897203773 ], [ -47.884662812543986, -15.913434170277203 ], [ -47.882329985667496, -15.913515329194695 ], [ -47.893668911950797, -15.900669081704814 ], [ -47.880100758797781, -15.884940959185252 ], [ -47.856078218082367, -15.873173779212978 ], [ -47.856981519016315, -15.871238264878498 ], [ -47.851155720718296, -15.868691651152217 ], [ -47.856258133565781, -15.858794186804799 ], [ -47.853565783844594, -15.856626151908108 ], [ -47.850631899601389, -15.857152478196921 ], [ -47.842915704585771, -15.861606904475575 ], [ -47.845054082135867, -15.862811532981688 ], [ -47.843012144121417, -15.86620693472701 ], [ -47.830739967970906, -15.859290877574377 ], [ -47.820473105520712, -15.864016791997788 ], [ -47.815644513544861, -15.850111686987123 ], [ -47.795673526576117, -15.823860700913404 ], [ -47.78656545221488, -15.805573746984157 ], [ -47.785855310626587, -15.802230997918485 ], [ -47.783917714627343, -15.797855797311341 ], [ -47.78450970350125, -15.797079563178478 ], [ -47.784378517130421, -15.79384074178722 ], [ -47.785417505893093, -15.79356291779426 ], [ -47.785876250355862, -15.790665716037042 ], [ -47.787768114920631, -15.790633078318523 ], [ -47.787780969812346, -15.788608949474348 ], [ -47.789145569119427, -15.790673540721167 ], [ -47.786789691472734, -15.781960216837495 ], [ -47.79518960413256, -15.781215958521456 ], [ -47.797893878090832, -15.782745336646592 ], [ -47.801265881477889, -15.786785051258088 ], [ -47.803157728974668, -15.787416786337996 ], [ -47.804710384298261, -15.786484639470967 ], [ -47.805756590125924, -15.78347934739624 ], [ -47.808208929766131, -15.780726728114443 ], [ -47.81301342443448, -15.772842899233908 ], [ -47.812685131520631, -15.769463562934366 ], [ -47.808911459030703, -15.765373001311703 ], [ -47.808479093596247, -15.764078370840814 ], [ -47.813148017216875, -15.758133147379992 ], [ -47.810510716256289, -15.757293576752074 ], [ -47.807410479293821, -15.758738376380315 ], [ -47.789831854148716, -15.761483933335725 ], [ -47.786599162394232, -15.761343674744438 ], [ -47.783933188108108, -15.760476726058137 ], [ -47.784928584324987, -15.759679265108332 ], [ -47.78517236283858, -15.758105000105598 ], [ -47.786406677683367, -15.757694923693517 ], [ -47.785500178747007, -15.755908369832483 ], [ -47.784686547644718, -15.755954622223934 ], [ -47.78521693005645, -15.752327629149786 ], [ -47.787010032042254, -15.752185207974067 ], [ -47.786293966962972, -15.749434412111833 ], [ -47.791512428670451, -15.748074080504921 ], [ -47.790911826749593, -15.745713246425488 ], [ -47.783987772439716, -15.743202385999341 ], [ -47.791017794715444, -15.725136599943594 ], [ -47.7938954695747, -15.721855420410682 ], [ -47.834970321493408, -15.693837295559597 ], [ -47.838308587751648, -15.692894295694298 ], [ -47.851550042500456, -15.692534902810314 ], [ -47.858080561952349, -15.689219323017086 ], [ -47.883660077091243, -15.667802579609285 ], [ -47.956570863353036, -15.614323868752797 ], [ -48.002398334029074, -15.579602298028542 ], [ -48.006149755249417, -15.578124022015542 ], [ -48.010216942376971, -15.578186658757444 ], [ -48.013492935623091, -15.579495787041989 ], [ -48.016998852666177, -15.582402411304397 ], [ -48.024878075736183, -15.573009039308928 ], [ -48.034708559977545, -15.565676179085704 ], [ -48.035378337565177, -15.563910610924021 ], [ -48.033623281028291, -15.559140029578158 ], [ -48.034187811997235, -15.556224556543548 ], [ -48.035910906476317, -15.554202592715249 ], [ -48.042151617739449, -15.550373513266273 ], [ -48.043310881935511, -15.548835840687644 ], [ -48.043877172704093, -15.54663974022011 ], [ -48.042098511136487, -15.541809492213838 ], [ -48.033479399665858, -15.533905372870537 ], [ -48.0317780057891, -15.531453868720748 ], [ -48.032412489467532, -15.530609168779002 ], [ -48.035226497129337, -15.531493560233796 ], [ -48.037912545168801, -15.527666368803478 ], [ -48.038971224104181, -15.525110853153461 ], [ -48.03976077945854, -15.519417662834671 ], [ -48.0394179104809, -15.516630349943958 ], [ -48.03415016899357, -15.504774630253889 ], [ -48.034776041421686, -15.50241218527359 ], [ -47.418406916742349, -15.501819583604121 ], [ -47.41840690955582, -15.545077398533568 ], [ -47.41724120264255, -15.54622828060775 ], [ -47.416087066030144, -15.546306130416001 ], [ -47.414031655981368, -15.548223243950254 ], [ -47.412142312089287, -15.547120695220682 ], [ -47.408244422358493, -15.547894709938145 ], [ -47.406943421078594, -15.546818179996183 ], [ -47.405740425097875, -15.546717168399683 ], [ -47.402287901220326, -15.547773520190084 ], [ -47.402163735183443, -15.549269376721728 ], [ -47.402845080376991, -15.549635789528853 ], [ -47.4012892692718, -15.55035099903675 ], [ -47.400645657811765, -15.551543858635455 ], [ -47.399130126265604, -15.550920738534071 ], [ -47.398139819903129, -15.553297611738994 ], [ -47.399137299313146, -15.553529865313275 ], [ -47.399446064649339, -15.557105460355945 ], [ -47.396904777422961, -15.557574827402492 ], [ -47.39583522977096, -15.558511162861462 ], [ -47.395239164342286, -15.557863229438055 ], [ -47.393788603449039, -15.558245740687406 ], [ -47.394208459843163, -15.558949771377593 ], [ -47.393497551991935, -15.561715368791253 ], [ -47.39143538391729, -15.562526029461472 ], [ -47.390120503666246, -15.566311032134339 ], [ -47.390836780747925, -15.566711040046647 ], [ -47.389451291118924, -15.56744918111778 ], [ -47.38820385098952, -15.567523867795202 ], [ -47.386711508554107, -15.566639317811708 ], [ -47.386208724184527, -15.567082969637738 ], [ -47.385488278919922, -15.566199330719172 ], [ -47.384476105766808, -15.567379487546573 ], [ -47.383660724746349, -15.566824946995188 ], [ -47.380646876968122, -15.566691588396786 ], [ -47.380092139432413, -15.567639215117898 ], [ -47.380481657922758, -15.568549139101597 ], [ -47.379457879434476, -15.569166084310108 ], [ -47.37927481715262, -15.573490055555258 ], [ -47.376829753866218, -15.576558537712835 ], [ -47.374999921565085, -15.577223094737009 ], [ -47.374172166251576, -15.576541827470942 ], [ -47.373058845492409, -15.577537044569899 ], [ -47.37264908256882, -15.577103972207617 ], [ -47.37032111108644, -15.578314850026258 ], [ -47.370010889581174, -15.577866537611465 ], [ -47.368539779725808, -15.579304633040366 ], [ -47.365987580663671, -15.578079959263594 ], [ -47.362056906018267, -15.577711746202858 ], [ -47.361414712998062, -15.58013567157928 ], [ -47.359766856915606, -15.579318498781053 ], [ -47.359398030219509, -15.580288849095716 ], [ -47.358263174148043, -15.580126861019592 ], [ -47.357339624289281, -15.580768411033867 ], [ -47.356819731505112, -15.579649951488125 ], [ -47.356034419792159, -15.579577904949405 ], [ -47.353680815781459, -15.579966184622808 ], [ -47.353464343357551, -15.580580359470982 ], [ -47.350453928940347, -15.580149974244078 ], [ -47.349678818495768, -15.580629868783571 ], [ -47.349094149094782, -15.579103967354941 ], [ -47.347711681398394, -15.579499098583527 ], [ -47.347038483924464, -15.579014977815055 ], [ -47.344637149727781, -15.581292363605669 ], [ -47.341533357233416, -15.582432799695953 ], [ -47.340582083568357, -15.583681057034449 ], [ -47.336279714804476, -15.585782055039735 ], [ -47.335116524072312, -15.587349407287018 ], [ -47.331861736456794, -15.587233026636023 ], [ -47.33012238786096, -15.585976820762006 ], [ -47.32773935324493, -15.588991410874785 ], [ -47.325648764271314, -15.588600873460331 ], [ -47.325295094849018, -15.589058972014767 ], [ -47.325171555836199, -15.588356899576459 ], [ -47.324458493824913, -15.588973717831953 ], [ -47.324882884016276, -15.587750121853576 ], [ -47.323919142633379, -15.587146864884069 ], [ -47.323603391099219, -15.587500391140951 ], [ -47.322825849813476, -15.586205241437666 ], [ -47.318614090519048, -15.587146824216012 ], [ -47.318606046105671, -15.588534215513592 ], [ -47.317096133521609, -15.590644494872171 ], [ -47.317360174434754, -15.593515955915544 ], [ -47.316168251088229, -15.594186995030956 ], [ -47.315811669327772, -15.596896798537294 ], [ -47.317922597057731, -15.597032892443861 ], [ -47.317998484936304, -15.597800155617515 ], [ -47.319794635804186, -15.597363661579934 ], [ -47.320494169187285, -15.598154700078281 ], [ -47.32158885170093, -15.598041190334975 ], [ -47.321853933761496, -15.598734104086343 ], [ -47.322603676680778, -15.598535138526584 ], [ -47.322990839788446, -15.601050215583163 ], [ -47.323661215654063, -15.600961823902709 ], [ -47.322878012287077, -15.603233306087537 ], [ -47.323652782270173, -15.603840970737277 ], [ -47.323156261853079, -15.604435108703777 ], [ -47.324425577756266, -15.606059380082735 ], [ -47.324032569311051, -15.606493088724386 ], [ -47.324767793658701, -15.606420372425569 ], [ -47.325305359897762, -15.607320487229083 ], [ -47.325447488647079, -15.607929929850091 ], [ -47.324848527948234, -15.608033424742301 ], [ -47.325124046635764, -15.609649616234446 ], [ -47.325654703931974, -15.610474120957372 ], [ -47.32623324322946, -15.610255379243494 ], [ -47.326049853062521, -15.611080240579287 ], [ -47.326705213588163, -15.610987817168661 ], [ -47.327611133111162, -15.61291900668845 ], [ -47.328726078922671, -15.613276233859386 ], [ -47.327762563016918, -15.613441075051664 ], [ -47.328427345971569, -15.614275004327492 ], [ -47.32789845027164, -15.614516473897062 ], [ -47.328483410726768, -15.614499238995736 ], [ -47.329192755509403, -15.615973045793591 ], [ -47.328397874043731, -15.617397924675162 ], [ -47.328854026866914, -15.61835564291089 ], [ -47.329609103982342, -15.617820198891431 ], [ -47.330649515676427, -15.620322411033134 ], [ -47.33045950672247, -15.621452258137964 ], [ -47.331102599854596, -15.62251948014662 ], [ -47.330079681952355, -15.623553691243181 ], [ -47.331450900944752, -15.625733778104509 ], [ -47.331042939143309, -15.626390575870831 ], [ -47.332232703838216, -15.626895056832241 ], [ -47.332106732187597, -15.62788645770269 ], [ -47.332643746861081, -15.628080641028088 ], [ -47.331852590708884, -15.628206073451244 ], [ -47.332874506091265, -15.628693407069491 ], [ -47.332764548707225, -15.629450529595106 ], [ -47.333930806287768, -15.629623106465321 ], [ -47.333231392380597, -15.6309922995616 ], [ -47.333741264457764, -15.631451793981748 ], [ -47.332878581747707, -15.631426735756774 ], [ -47.333236620575555, -15.632826948263926 ], [ -47.332564308840503, -15.633025386579751 ], [ -47.331777735892892, -15.635236907199181 ], [ -47.330760887008715, -15.635751818177292 ], [ -47.331612269810819, -15.636750648630795 ], [ -47.330786745912484, -15.637161129290307 ], [ -47.331323311428321, -15.63810759235322 ], [ -47.329522687848645, -15.639707059522884 ], [ -47.330480092515529, -15.641378521746237 ], [ -47.329395313029565, -15.642097772365391 ], [ -47.329954749652536, -15.642653881953775 ], [ -47.329244854202628, -15.642983997886333 ], [ -47.329808073631256, -15.643787412018165 ], [ -47.329372038578867, -15.644325267339998 ], [ -47.330453547298873, -15.645251542876272 ], [ -47.330846803679115, -15.64444489493385 ], [ -47.331008060255769, -15.645259040113604 ], [ -47.330383856897456, -15.646034573205251 ], [ -47.329078466449069, -15.645513862976603 ], [ -47.327848070953863, -15.647271219652907 ], [ -47.327304301847768, -15.647031356127901 ], [ -47.327529191485887, -15.648225268025341 ], [ -47.326959701816577, -15.64919463657046 ], [ -47.328502072328476, -15.649383272234699 ], [ -47.327748752317738, -15.650472991159432 ], [ -47.328620350807, -15.650170612671563 ], [ -47.329202506721813, -15.650696720815699 ], [ -47.328776872363797, -15.651591220925408 ], [ -47.328105075363389, -15.651340125163042 ], [ -47.327974602254898, -15.652086557236119 ], [ -47.327106164937128, -15.651892625047749 ], [ -47.326609922099451, -15.652682295651994 ], [ -47.327280600697314, -15.654605448890564 ], [ -47.328605251923705, -15.654777313418533 ], [ -47.32891298689227, -15.6559870456902 ], [ -47.329613229046132, -15.655774319281118 ], [ -47.32907982290515, -15.656410255802184 ], [ -47.328169680401999, -15.656116314524178 ], [ -47.329252820462564, -15.656959858998105 ], [ -47.32807124301317, -15.657757223920411 ], [ -47.329652529441496, -15.657395539260843 ], [ -47.329769567346602, -15.657855205336846 ], [ -47.327803245919512, -15.659107652573654 ], [ -47.327830677773342, -15.66051233262184 ], [ -47.328617314501344, -15.661276235499617 ], [ -47.32741033898391, -15.66084349488065 ], [ -47.32675674095286, -15.661469969359313 ], [ -47.327111877324022, -15.663466639867549 ], [ -47.328655620461689, -15.663637984026627 ], [ -47.327509408786703, -15.664236129672874 ], [ -47.328128172845979, -15.665314589974551 ], [ -47.326888372888071, -15.664848887758419 ], [ -47.326508226521078, -15.665572068311103 ], [ -47.326879909859777, -15.666045759237313 ], [ -47.32761560941622, -15.66562110818364 ], [ -47.328665677101291, -15.666886539892406 ], [ -47.327162743528667, -15.66766174011069 ], [ -47.326112360534943, -15.669366448364826 ], [ -47.327799460418895, -15.670940984362282 ], [ -47.326769342519661, -15.671609079020776 ], [ -47.327757001546999, -15.672708248012409 ], [ -47.327198623139431, -15.675282615663781 ], [ -47.328283626305904, -15.675889520677995 ], [ -47.328457201480035, -15.676879980887724 ], [ -47.327882978587496, -15.67755743418045 ], [ -47.329128826902213, -15.676997187605327 ], [ -47.328572555942308, -15.678646016882471 ], [ -47.327890536113983, -15.678562652592863 ], [ -47.32903187083528, -15.67897167152911 ], [ -47.328982140999472, -15.679911160309281 ], [ -47.330023434839156, -15.679852138758118 ], [ -47.330279801444824, -15.680507874480764 ], [ -47.330700055792626, -15.67969630783907 ], [ -47.331778866871836, -15.680264023931997 ], [ -47.33166029823748, -15.683068604195809 ], [ -47.331376681237664, -15.683632857481649 ], [ -47.329831525050061, -15.684015959987761 ], [ -47.32967701751614, -15.683598442567172 ], [ -47.329157822722955, -15.684747579472811 ], [ -47.328696206346223, -15.684197504451808 ], [ -47.329170162880011, -15.683367153641962 ], [ -47.328135044059586, -15.683337530070094 ], [ -47.328376999891475, -15.68604136988526 ], [ -47.327689853377827, -15.687330329665189 ], [ -47.329810405657732, -15.687927533268955 ], [ -47.328143454985593, -15.688895865005698 ], [ -47.327763615842436, -15.688471542556531 ], [ -47.32582246161634, -15.688962745405128 ], [ -47.32560973516717, -15.688449314190823 ], [ -47.323215524610681, -15.689440429536257 ], [ -47.322770840578734, -15.688621887091292 ], [ -47.32173399519634, -15.689128027212673 ], [ -47.321324083152412, -15.686761774428135 ], [ -47.320961181743932, -15.687707542499831 ], [ -47.320288060626815, -15.687151229474903 ], [ -47.320363184937399, -15.687940461939739 ], [ -47.319469449264595, -15.688238212918963 ], [ -47.319741796000855, -15.689029352490898 ], [ -47.318458156460451, -15.689180673026346 ], [ -47.318492511630168, -15.690234721984103 ], [ -47.317802317132774, -15.690261923861735 ], [ -47.31767781692259, -15.691583924860872 ], [ -47.318431134238388, -15.692282177013237 ], [ -47.316790025402028, -15.691970996729571 ], [ -47.317598395071691, -15.693251343392609 ], [ -47.316482606640442, -15.693573924479702 ], [ -47.315900668117919, -15.69512429049475 ], [ -47.314829043560977, -15.694402257619279 ], [ -47.313489520725064, -15.694910596476003 ], [ -47.313868571147403, -15.696008233766552 ], [ -47.31285802035169, -15.696038268881088 ], [ -47.312494371544901, -15.697273820409134 ], [ -47.313793256393993, -15.698318610413429 ], [ -47.31303322596807, -15.699891770236507 ], [ -47.314290875450681, -15.700577136982639 ], [ -47.313522064891174, -15.701567121035799 ], [ -47.314421707885288, -15.702391860490868 ], [ -47.314416722235464, -15.703451656838437 ], [ -47.313503359272012, -15.703579726425565 ], [ -47.314321144184184, -15.704151536510889 ], [ -47.313888758088474, -15.704766620341273 ], [ -47.314851620020697, -15.704900780611794 ], [ -47.313306689310238, -15.706173698078567 ], [ -47.314634476555277, -15.706154210384005 ], [ -47.313003368662976, -15.706991670216832 ], [ -47.313783262636449, -15.707332733900079 ], [ -47.313561703053097, -15.707901636483351 ], [ -47.314157163017271, -15.707792238217385 ], [ -47.313950962828635, -15.709488608653256 ], [ -47.314639260982482, -15.709068540458684 ], [ -47.315529480649268, -15.709951610379679 ], [ -47.315013916846453, -15.710554730097137 ], [ -47.31409595361044, -15.710280624771222 ], [ -47.313835075665409, -15.711038205908023 ], [ -47.315108422309287, -15.7118298121622 ], [ -47.315016951355481, -15.712819062715063 ], [ -47.315976736557872, -15.712952175664006 ], [ -47.315385139349409, -15.713442397702464 ], [ -47.315246521216238, -15.715366278945478 ], [ -47.315971008001299, -15.716301340356038 ], [ -47.316887329116966, -15.716072971552917 ], [ -47.317784239435987, -15.717168784414698 ], [ -47.318550149335437, -15.716964901379001 ], [ -47.318778928678732, -15.718120051983805 ], [ -47.319697834247478, -15.717797089498257 ], [ -47.319420674337927, -15.719208793395799 ], [ -47.320905577824476, -15.718609503219723 ], [ -47.320265185926417, -15.720516350070277 ], [ -47.321054974842738, -15.72132365893207 ], [ -47.320814758149254, -15.72299855934452 ], [ -47.319786471914881, -15.723130627130312 ], [ -47.319465373608146, -15.723915892224424 ], [ -47.318930200481006, -15.723654327475543 ], [ -47.318109763742129, -15.724926792217193 ], [ -47.319493666048025, -15.726679016198469 ], [ -47.318446519684258, -15.726714573007047 ], [ -47.317971285746125, -15.727721568887471 ], [ -47.318845332144541, -15.728222013067599 ], [ -47.317790613881243, -15.72874306563353 ], [ -47.317445022109979, -15.729659906556304 ], [ -47.317933875406119, -15.731014645057128 ], [ -47.317031430566644, -15.731406034509208 ], [ -47.318490706016455, -15.731813843208636 ], [ -47.318253648697812, -15.732950654808901 ], [ -47.319281078837719, -15.732164447514844 ], [ -47.319288173731827, -15.73537990819093 ], [ -47.317676067902738, -15.734187080499762 ], [ -47.317498647040864, -15.73588953079306 ], [ -47.316717062438023, -15.735556091882447 ], [ -47.31726932960671, -15.736805618388173 ], [ -47.315605722464056, -15.736289444061018 ], [ -47.315478920770133, -15.737201704675186 ], [ -47.314645064997535, -15.73713315233223 ], [ -47.313645603904007, -15.738105334694763 ], [ -47.314598102871109, -15.738999251711489 ], [ -47.314108004509983, -15.739727845506575 ], [ -47.314961624117139, -15.740032441280782 ], [ -47.313493313412202, -15.740372456137267 ], [ -47.314160661056981, -15.741558580424249 ], [ -47.31303945308963, -15.742057209433106 ], [ -47.313449200741857, -15.742693809760731 ], [ -47.315241248105515, -15.742830287283205 ], [ -47.313673496593566, -15.744881864197362 ], [ -47.314412431881664, -15.745219407671764 ], [ -47.314247361956632, -15.74652703144605 ], [ -47.314883967455764, -15.746402434330109 ], [ -47.31449589704966, -15.747884659439871 ], [ -47.316206205807305, -15.747705768137694 ], [ -47.316457076520066, -15.745954148995272 ], [ -47.317366138349932, -15.74747613336967 ], [ -47.317092531277325, -15.748320712543347 ], [ -47.319034387985973, -15.749645735250112 ], [ -47.317912502688891, -15.750620027871177 ], [ -47.318632044248311, -15.751042438023699 ], [ -47.318434210069924, -15.752243868782696 ], [ -47.319073239223691, -15.751891787823093 ], [ -47.320034720445328, -15.753269091397931 ], [ -47.319418944182694, -15.754716263503465 ], [ -47.320372575925369, -15.75543807981505 ], [ -47.322588424185568, -15.754450958481788 ], [ -47.322142840041707, -15.755612788462008 ], [ -47.3210521038271, -15.755957317066484 ], [ -47.321185150608883, -15.757119318256741 ], [ -47.322850031562609, -15.758557497522636 ], [ -47.32372811948148, -15.758040181907154 ], [ -47.324610505838969, -15.759904823577687 ], [ -47.323956730839811, -15.760843712401371 ], [ -47.324340016818716, -15.761971894324924 ], [ -47.325972822526907, -15.761017560501195 ], [ -47.325396032249287, -15.762004343864614 ], [ -47.326251630845015, -15.762505317448737 ], [ -47.325697215804482, -15.763077617204221 ], [ -47.326350724004001, -15.763115035034975 ], [ -47.327009652637948, -15.764267045411151 ], [ -47.326420360506511, -15.765215467907089 ], [ -47.327322693954898, -15.765363518360953 ], [ -47.326547031944735, -15.766328067652909 ], [ -47.328294565989431, -15.765657807771975 ], [ -47.328635871898477, -15.766925928154686 ], [ -47.329341903694342, -15.766981389453486 ], [ -47.329859162618092, -15.769240063103407 ], [ -47.328336281954591, -15.769668537917699 ], [ -47.328931389779179, -15.770280832674972 ], [ -47.327469260381704, -15.772190007806634 ], [ -47.328546461679935, -15.772275073973624 ], [ -47.328808818251922, -15.773495347670782 ], [ -47.329496616044153, -15.772578403728035 ], [ -47.329833469004335, -15.7732441047719 ], [ -47.329063769112707, -15.7741458679355 ], [ -47.33136129758843, -15.773663793123708 ], [ -47.33133289465578, -15.774448308796076 ], [ -47.330277288856976, -15.775120953267839 ], [ -47.331078273476699, -15.775425572892853 ], [ -47.330921653105221, -15.780111983892391 ], [ -47.331575588902822, -15.779295407300308 ], [ -47.332641427411012, -15.780143727724811 ], [ -47.332972196081776, -15.781562510563761 ], [ -47.334120714630409, -15.781151897188941 ], [ -47.334593938138937, -15.782016424369607 ], [ -47.336226784271311, -15.781404332746749 ], [ -47.336740730208284, -15.782595066006797 ], [ -47.336500809060524, -15.783315062032859 ], [ -47.335536110971852, -15.783578303920029 ], [ -47.336006449990002, -15.784108770021867 ], [ -47.335286046946209, -15.785350669025732 ], [ -47.336657649519239, -15.784694380856267 ], [ -47.336824397497217, -15.786187212993839 ], [ -47.337126393129438, -15.785035310691837 ], [ -47.337673123082709, -15.784963548412396 ], [ -47.337433332190663, -15.786764159676006 ], [ -47.339083531079375, -15.788274713708219 ], [ -47.338730080846005, -15.790665665900972 ], [ -47.340068123258327, -15.790723537610312 ], [ -47.338849249554968, -15.791354030352901 ], [ -47.339948480238903, -15.792588633445385 ], [ -47.33917707803981, -15.792983270188456 ], [ -47.340054922515236, -15.794534754667097 ], [ -47.339477346211737, -15.794996667930391 ], [ -47.340271842300155, -15.795071942155591 ], [ -47.340635764194793, -15.794285762809659 ], [ -47.341226839482069, -15.795495112042355 ], [ -47.341367446485286, -15.794090447321992 ], [ -47.341665484140357, -15.795016676114862 ], [ -47.342445918899628, -15.794954033298024 ], [ -47.342118438062805, -15.795606955133161 ], [ -47.342666946680346, -15.796522608959515 ], [ -47.342010151545203, -15.798119177624296 ], [ -47.344081362061495, -15.795960891271392 ], [ -47.344515006696923, -15.797263006024258 ], [ -47.345185272069749, -15.797290555758901 ], [ -47.344879617599382, -15.798719468364467 ], [ -47.346012288968083, -15.79797990038238 ], [ -47.34464333642515, -15.800117257724594 ], [ -47.34509338250102, -15.801818045100539 ], [ -47.345518008949298, -15.80066987241621 ], [ -47.34596021991927, -15.801014716897354 ], [ -47.345511798895743, -15.802960626627343 ], [ -47.346744588401172, -15.803988117642811 ], [ -47.347546000618962, -15.802826730782778 ], [ -47.347894375370977, -15.804007796482784 ], [ -47.348668661162144, -15.803383713472604 ], [ -47.349605091065456, -15.803877586091494 ], [ -47.349497797186231, -15.805444762386832 ], [ -47.348078097016256, -15.805901920174453 ], [ -47.349388624929752, -15.806204336973533 ], [ -47.348490362646238, -15.806822552749976 ], [ -47.348458096059545, -15.808141237062662 ], [ -47.348907029122778, -15.808501584562492 ], [ -47.349308338001237, -15.807798030549137 ], [ -47.350249713130175, -15.807808619600651 ], [ -47.350076923083599, -15.810237601651432 ], [ -47.351096748086306, -15.810612757438591 ], [ -47.351018741980297, -15.811480664576836 ], [ -47.35169368128755, -15.811248095032846 ], [ -47.353026709303961, -15.813782835911573 ], [ -47.35213240859084, -15.814671729651421 ], [ -47.352834839040739, -15.81508762860506 ], [ -47.354411111073148, -15.814027348242739 ], [ -47.354610468794263, -15.815634040764809 ], [ -47.355231853239225, -15.816060431285726 ], [ -47.353058114406295, -15.816940961530525 ], [ -47.352966970439248, -15.818145195319255 ], [ -47.3534343414237, -15.818444420121704 ], [ -47.355177001209668, -15.817037531784809 ], [ -47.356168122344108, -15.818804510723842 ], [ -47.354838250109289, -15.82037604322362 ], [ -47.356966442560683, -15.819746989172438 ], [ -47.355833719988013, -15.821162371864176 ], [ -47.354589565895921, -15.821449731639831 ], [ -47.355394286608906, -15.823427525859776 ], [ -47.357991146313701, -15.822053725755639 ], [ -47.358184845546845, -15.82272272734464 ], [ -47.357100375081345, -15.823000048055491 ], [ -47.357094204553654, -15.823816130339832 ], [ -47.358353190729403, -15.824010857953967 ], [ -47.359383671548017, -15.823492121766451 ], [ -47.359533364112011, -15.822905596399501 ], [ -47.358780691786592, -15.82286029011523 ], [ -47.359892590512665, -15.821500880795268 ], [ -47.360678734065573, -15.821434136507728 ], [ -47.36033679664088, -15.823672995380981 ], [ -47.363040069875922, -15.8248691548329 ], [ -47.362293660604657, -15.827388433664964 ], [ -47.364152133891999, -15.827930939852932 ], [ -47.366264976830145, -15.827360964947545 ], [ -47.367451578556931, -15.828606939724528 ], [ -47.366700171059428, -15.830115630996831 ], [ -47.365926828499312, -15.830314854397162 ], [ -47.365862247715235, -15.831924444048013 ], [ -47.366600939559881, -15.831842171098618 ], [ -47.365646076226945, -15.832968804693035 ], [ -47.366572272522539, -15.833503994003635 ], [ -47.364886307210782, -15.834054750129084 ], [ -47.366288742659307, -15.834610621842476 ], [ -47.366164537096537, -15.835162984137639 ], [ -47.36539494410443, -15.835154466337258 ], [ -47.366047844144504, -15.837533718769752 ], [ -47.367072831765157, -15.835569236821945 ], [ -47.368033374247318, -15.835669423590723 ], [ -47.367830385535832, -15.837460501621631 ], [ -47.366867802979648, -15.837406810527446 ], [ -47.366952910267983, -15.83856423342149 ], [ -47.367524142668948, -15.83905221695867 ], [ -47.368153793411153, -15.838122825426785 ], [ -47.367989579580581, -15.840130085681986 ], [ -47.370397916144917, -15.841359326875908 ], [ -47.368782648246018, -15.841591637948419 ], [ -47.368270779213972, -15.842377089836027 ], [ -47.369618990555317, -15.845046642599787 ], [ -47.3708289844121, -15.84583693686878 ], [ -47.36901901026863, -15.846241609967505 ], [ -47.368886765682397, -15.847351896910304 ], [ -47.370645891587529, -15.847271025021101 ], [ -47.371293301124574, -15.848170471598294 ], [ -47.370690917844506, -15.848946904514991 ], [ -47.368773191681022, -15.848825118447429 ], [ -47.369382882755936, -15.850048763967379 ], [ -47.367925075153295, -15.85193154454879 ], [ -47.368104901703504, -15.853351428616874 ], [ -47.370899891132424, -15.854867174784134 ], [ -47.369637189524653, -15.855347675220717 ], [ -47.369380406999007, -15.857474819436501 ], [ -47.370691941025612, -15.860088235523634 ], [ -47.369843306169969, -15.861443664216788 ], [ -47.371468549860097, -15.862310774883069 ], [ -47.371637307369376, -15.863017746700869 ], [ -47.372448265983685, -15.862478707409947 ], [ -47.374406051618948, -15.864261059463272 ], [ -47.373297283521644, -15.865417823704544 ], [ -47.370792317877147, -15.864976020798254 ], [ -47.371601940696642, -15.867033018733794 ], [ -47.371275860333341, -15.868202340346542 ], [ -47.373305309070396, -15.869238314880805 ], [ -47.372545387340629, -15.870793214585095 ], [ -47.371527189186899, -15.870775759460678 ], [ -47.371863370207251, -15.872410779872604 ], [ -47.373985313977535, -15.872958132539747 ], [ -47.372078638888681, -15.873569163250082 ], [ -47.372054295442794, -15.874250278410189 ], [ -47.37377504262404, -15.875803973836179 ], [ -47.373527565746414, -15.877142085072609 ], [ -47.374935195253912, -15.877780114785562 ], [ -47.374522016935614, -15.878473493708048 ], [ -47.375585211701924, -15.878922887833028 ], [ -47.374921958578192, -15.879369224861891 ], [ -47.376739494739731, -15.881414770079516 ], [ -47.37725976301968, -15.881595221975205 ], [ -47.377661054830142, -15.880617911237604 ], [ -47.378552091963826, -15.881157213059502 ], [ -47.379535392365398, -15.880460113354989 ], [ -47.38068926217818, -15.881362577675848 ], [ -47.380158713578119, -15.881957416133918 ], [ -47.377834338051819, -15.882107675964491 ], [ -47.376958691753885, -15.882924821291457 ], [ -47.378787019376929, -15.884246137161364 ], [ -47.378036310768721, -15.885696636975108 ], [ -47.379011216413964, -15.886684248775939 ], [ -47.378310393948425, -15.888197598090363 ], [ -47.377698621477009, -15.887262139673679 ], [ -47.376982032679926, -15.888068838215728 ], [ -47.3780476349312, -15.891618292746022 ], [ -47.376618631808135, -15.891269137077472 ], [ -47.376486636953558, -15.892368994864858 ], [ -47.375748409537906, -15.892727450214148 ], [ -47.376573062968724, -15.893658533983299 ], [ -47.375689233018562, -15.895145148941594 ], [ -47.377465126876778, -15.896234874583577 ], [ -47.374689515905175, -15.896982480325855 ], [ -47.375737915418753, -15.898178470252709 ], [ -47.375610604380064, -15.899791346334958 ], [ -47.37377611251754, -15.899310826626344 ], [ -47.372404915983019, -15.899983759516362 ], [ -47.37487755754865, -15.906902253258499 ], [ -47.372197372813041, -15.906477439637221 ], [ -47.370914886709457, -15.907873820041578 ], [ -47.36815504745929, -15.908410590989073 ], [ -47.367247786751577, -15.908045474315657 ], [ -47.365561096499384, -15.909327810749552 ], [ -47.365846445451069, -15.910111136017282 ], [ -47.366707753738744, -15.910323949022523 ], [ -47.365942091774315, -15.910820335589483 ], [ -47.367007203545441, -15.911584577600978 ], [ -47.368281439521461, -15.910782406901602 ], [ -47.36783195579094, -15.912464308051202 ], [ -47.366250716075008, -15.912698444612575 ], [ -47.367836133855334, -15.91462953969741 ], [ -47.368051950509084, -15.916587835219596 ], [ -47.369274511796689, -15.917474188668205 ], [ -47.368172853864856, -15.918049154149438 ], [ -47.36924379929544, -15.918452307747994 ], [ -47.367275064095175, -15.919913612251865 ], [ -47.367679389516347, -15.920725387151228 ], [ -47.36644361490923, -15.921109279161353 ], [ -47.364769486697966, -15.919383147998737 ], [ -47.363902246834478, -15.919828774140369 ], [ -47.362006245527823, -15.921889005473945 ], [ -47.362359957170952, -15.924323176837822 ], [ -47.36121062025709, -15.925766386179927 ], [ -47.36273760801808, -15.928167826831494 ], [ -47.362107202691028, -15.92928486194843 ], [ -47.364425874813591, -15.929933099836012 ], [ -47.362499531111588, -15.93178851753165 ], [ -47.364839316338269, -15.931387898353069 ], [ -47.364703170368756, -15.930652892360877 ], [ -47.365418562609882, -15.93047330079569 ], [ -47.366220892007576, -15.931161558758326 ], [ -47.365096558801341, -15.933500735026296 ], [ -47.368058383344831, -15.933040347433417 ], [ -47.369061546395649, -15.935218858367532 ], [ -47.371910344011781, -15.935206532005662 ], [ -47.373457582494211, -15.936705739433179 ], [ -47.373006051503168, -15.93870534244888 ], [ -47.371254311546309, -15.936183107489345 ], [ -47.369950233536557, -15.936246257535869 ], [ -47.370961734749841, -15.938790518095395 ], [ -47.372003556798916, -15.93872916464905 ], [ -47.372611913875623, -15.940478736380449 ], [ -47.372043599202712, -15.94087896857909 ], [ -47.370556776914704, -15.940376886308373 ], [ -47.369024548382356, -15.941173036646964 ], [ -47.370375680146687, -15.941670522544577 ], [ -47.370759068533538, -15.942926248551842 ], [ -47.369830477329401, -15.943062436179096 ], [ -47.36999792060341, -15.945057304653488 ], [ -47.368450520424226, -15.946948310435587 ], [ -47.370528180844268, -15.947167280031186 ], [ -47.370603067101293, -15.945827805503418 ], [ -47.371409518867836, -15.946672487109209 ], [ -47.370560124935771, -15.950999823353349 ], [ -47.372434943968024, -15.953639406497295 ], [ -47.371825811645223, -15.955810980951881 ], [ -47.375062962636768, -15.956525356741665 ], [ -47.374386881570793, -15.958541721627185 ], [ -47.373634534435503, -15.958108644614448 ], [ -47.373051170286622, -15.95889402510449 ], [ -47.373230156013726, -15.960144839392886 ], [ -47.374310815825794, -15.960051756249701 ], [ -47.376113218069733, -15.961561317420831 ], [ -47.378558567918716, -15.96223565068652 ], [ -47.377522993652441, -15.962909802901159 ], [ -47.376836184905336, -15.965002901689811 ], [ -47.375409152686018, -15.966364797387365 ], [ -47.376147004605883, -15.96879206989162 ], [ -47.379223518858325, -15.968311631595144 ], [ -47.377060759234787, -15.97174086642225 ], [ -47.378949944125068, -15.973668246912123 ], [ -47.377718036765245, -15.974947653338925 ], [ -47.378919985310347, -15.977893412546287 ], [ -47.376414181537683, -15.978277714996715 ], [ -47.375560743390217, -15.980393205182057 ], [ -47.373859336937031, -15.979958144238394 ], [ -47.373741803161892, -15.981198869658789 ], [ -47.376462686969766, -15.982353363757767 ], [ -47.375777454765988, -15.983870010885701 ], [ -47.376506041462008, -15.98575236160738 ], [ -47.373211773788071, -15.994032605036006 ], [ -47.370617248804685, -15.995287091671438 ], [ -47.37037024264427, -16.000303087372583 ], [ -47.369113234558789, -16.002484124651652 ], [ -47.365451753563001, -16.001510041627245 ], [ -47.364572029812003, -16.00468815719297 ], [ -47.361825522458972, -16.006586667189367 ], [ -47.360386718716164, -16.006612377531084 ], [ -47.359697147649555, -16.008286536329638 ], [ -47.356622427332738, -16.00876742603684 ], [ -47.353648821384297, -16.007464812290749 ], [ -47.348518288573466, -16.007467682510907 ], [ -47.346502435838246, -16.009060235588407 ], [ -47.345492850731461, -16.01131712265061 ], [ -47.339949604031318, -16.013248352569697 ], [ -47.340636790070846, -16.019197842124054 ], [ -47.33682292066689, -16.018292646208089 ], [ -47.336094240546075, -16.019908420364093 ], [ -47.330640925985676, -16.02326115299633 ], [ -47.330257079458036, -16.024910183400618 ], [ -47.328979944618602, -16.025936149897856 ], [ -47.328392609017847, -16.027604844497713 ], [ -47.321543889224337, -16.030538113843924 ], [ -47.317983923245542, -16.035971945441155 ], [ -47.310940666090737, -16.03626705132049 ], [ -47.311661717718152, -16.040779825230619 ], [ -47.310135530356092, -16.049994863839505 ] ] ] } },
{ "type": "Feature", "properties": { "Macro": "Macrorregião 1", "Regioes_de": "Oeste, Sudoeste" }, "geometry": { "type": "Polygon", "coordinates": [ [ [ -48.010885139828012, -15.841126605905638 ], [ -48.006407219596369, -15.850212328865826 ], [ -48.001951257783517, -15.848312397510631 ], [ -47.999866921084298, -15.846424755010354 ], [ -47.99875671658085, -15.848650917120091 ], [ -48.000644679762338, -15.8504196667746 ], [ -47.996089218752005, -15.855008523061663 ], [ -47.996463391322344, -15.855366185929602 ], [ -47.995211478481146, -15.856704200383149 ], [ -47.994561506948905, -15.856597061733597 ], [ -47.990883182541538, -15.860187132956455 ], [ -47.990560266942985, -15.859868925676793 ], [ -47.986659948167663, -15.864370723261368 ], [ -47.98654475540215, -15.864780642279264 ], [ -47.991947484032281, -15.866216616012631 ], [ -47.991427212159067, -15.868017641578623 ], [ -47.993872149681337, -15.869001704010314 ], [ -47.992097244868233, -15.876511181732775 ], [ -48.01291710205124, -15.878170584624019 ], [ -48.043846230234138, -15.873831293933165 ], [ -48.046167595505914, -15.874558330202554 ], [ -48.055897760387928, -15.880835572403614 ], [ -48.060338534384258, -15.882447681974877 ], [ -48.042767997669962, -15.937143767260713 ], [ -48.038221701272143, -15.945430191709772 ], [ -48.040738043181406, -15.949194244672162 ], [ -48.043932216074815, -15.951648447983626 ], [ -48.049302378979263, -15.953271457036795 ], [ -48.053734488724679, -15.952711764576321 ], [ -48.077323474636195, -15.938918725480052 ], [ -48.080230117468417, -15.939255206203226 ], [ -48.08283156756432, -15.941675601498606 ], [ -48.091247984970856, -15.935028742939013 ], [ -48.092145612145472, -15.933517013390809 ], [ -48.094372341698701, -15.932246647409817 ], [ -48.096325784877884, -15.932860056594233 ], [ -48.102176778224681, -15.937240553728572 ], [ -48.1037978133077, -15.94199037978861 ], [ -48.105092026018994, -15.942943981590966 ], [ -48.105523817429983, -15.944379343686299 ], [ -48.106448367113664, -15.944603836345834 ], [ -48.107306646282197, -15.946661916583432 ], [ -48.111994972614639, -15.951309655130061 ], [ -48.114254247232303, -15.95113020384332 ], [ -48.116016195644058, -15.952094782419099 ], [ -48.116366426315444, -15.952980606790534 ], [ -48.117329982645394, -15.952695332299978 ], [ -48.11882432652726, -15.953751750024475 ], [ -48.120071515128387, -15.953678598477152 ], [ -48.12026232807451, -15.954757934782501 ], [ -48.121176623489227, -15.954717433627087 ], [ -48.121182060093325, -15.95535146077745 ], [ -48.122050827092799, -15.955712388798259 ], [ -48.122286804636467, -15.953041894552657 ], [ -48.123869857152648, -15.949657619984512 ], [ -48.125472100378239, -15.948031364240004 ], [ -48.125682650209477, -15.946989366821104 ], [ -48.12642581386762, -15.946954935359404 ], [ -48.126694234067777, -15.942205279552566 ], [ -48.127504827067767, -15.94275440728849 ], [ -48.130652866979759, -15.942781273772127 ], [ -48.134514065921088, -15.945214153520597 ], [ -48.144591214064739, -15.942976871926026 ], [ -48.147206624878478, -15.943534266321009 ], [ -48.153374875335842, -15.94714045991358 ], [ -48.153139364017804, -15.934443990864262 ], [ -48.153385267945367, -15.93379662184492 ], [ -48.155644292831383, -15.936990861321103 ], [ -48.156790614999139, -15.937128048060757 ], [ -48.160098293621957, -15.940169928716733 ], [ -48.163110166903181, -15.946853896178032 ], [ -48.172782186531805, -15.946273298650564 ], [ -48.173009688470763, -15.947079758557214 ], [ -48.176282972397985, -15.94626448669451 ], [ -48.179123439038165, -15.946676468978966 ], [ -48.181716128763419, -15.945941028386205 ], [ -48.187067192586611, -15.945725725798823 ], [ -48.186572302611751, -15.94956029794762 ], [ -48.186928103736221, -15.953431233524498 ], [ -48.18851141047562, -15.956853918862338 ], [ -48.192064338154161, -15.960705524195919 ], [ -48.19235444817685, -15.963136274214071 ], [ -48.193133412394012, -15.963897630097801 ], [ -48.195563975973414, -15.962686726447068 ], [ -48.198581769152362, -15.963980375896533 ], [ -48.200689515049575, -15.962270866334563 ], [ -48.20472287970837, -15.96424893093498 ], [ -48.211137216451306, -15.965148155770388 ], [ -48.212312273030051, -15.966208314856761 ], [ -48.213842947476962, -15.965947017215749 ], [ -48.214705398421685, -15.96733729144864 ], [ -48.217945754602155, -15.968354011901415 ], [ -48.218527050829259, -15.969523056560236 ], [ -48.21903235676983, -15.969040859899595 ], [ -48.219886541417303, -15.969697016714651 ], [ -48.220740587724222, -15.969444866204029 ], [ -48.221472811698831, -15.970646639149724 ], [ -48.223148708692882, -15.970720167094443 ], [ -48.223869890576019, -15.969784495491052 ], [ -48.2247365123986, -15.970128562473901 ], [ -48.22520526229701, -15.971326568436655 ], [ -48.225963696416656, -15.970850715251631 ], [ -48.226440345201354, -15.97147295361558 ], [ -48.226912523070894, -15.970959030602664 ], [ -48.228521270997454, -15.971239840837443 ], [ -48.229475928616196, -15.970493868450506 ], [ -48.232617019161154, -15.971974443253709 ], [ -48.235838911369285, -15.971875273509909 ], [ -48.238173028226527, -15.972560755248679 ], [ -48.238451544592152, -15.971761403735046 ], [ -48.240223569406446, -15.970840086410076 ], [ -48.23997483219248, -15.971852988206281 ], [ -48.241213354746058, -15.971662574159252 ], [ -48.243198509353078, -15.973051887209014 ], [ -48.244458286944592, -15.973322333523919 ], [ -48.246085303010773, -15.972317347473844 ], [ -48.24565792502279, -15.973237731323193 ], [ -48.247322845502374, -15.975627566289157 ], [ -48.253473819560206, -15.975878809983177 ], [ -48.253938809110835, -15.976221980417995 ], [ -48.253359641890967, -15.976437046418161 ], [ -48.253684281356541, -15.97721808531441 ], [ -48.256496251639284, -15.977099024798763 ], [ -48.257966553010881, -15.977715815071308 ], [ -48.258508066447313, -15.977235841226909 ], [ -48.257983372167956, -15.976287322666186 ], [ -48.259062891119605, -15.976437028282186 ], [ -48.259702047834153, -15.974195000792832 ], [ -48.257980590085523, -15.972829614005333 ], [ -48.260573131588757, -15.968881913738294 ], [ -48.260224693954662, -15.966800057154535 ], [ -48.257710964346252, -15.964912851413571 ], [ -48.25736991266043, -15.963551516730719 ], [ -48.255976768486889, -15.96319884142717 ], [ -48.257644016501381, -15.961358498011441 ], [ -48.25519649991594, -15.962215311042957 ], [ -48.255234416905772, -15.96058235739722 ], [ -48.25632110351507, -15.959854817036581 ], [ -48.254573449096135, -15.959034066909856 ], [ -48.254672812648018, -15.957093197937811 ], [ -48.253301597248878, -15.955855074905758 ], [ -48.251373235032439, -15.955544344125862 ], [ -48.252138048088909, -15.948842264456466 ], [ -48.253439506611301, -15.948524285542996 ], [ -48.253566516714372, -15.946880196359327 ], [ -48.253138661720968, -15.946401453746162 ], [ -48.250775161869093, -15.948122049177945 ], [ -48.250163503483719, -15.947679861359507 ], [ -48.250850866491348, -15.943815463086482 ], [ -48.252029959200669, -15.944869483177833 ], [ -48.252902720109908, -15.944210444759772 ], [ -48.252191599357957, -15.941317326756323 ], [ -48.252704457435122, -15.940212066207355 ], [ -48.25132596208892, -15.937633774997483 ], [ -48.252310220094579, -15.93584021659054 ], [ -48.254584634918047, -15.936819972051177 ], [ -48.255754650151424, -15.932282493722305 ], [ -48.257998823190846, -15.932237198210903 ], [ -48.258822057283517, -15.931318246590561 ], [ -48.258920552164525, -15.929482294191761 ], [ -48.26124844369685, -15.928854564595916 ], [ -48.260795051396535, -15.927992186777429 ], [ -48.264216589684992, -15.928424920236409 ], [ -48.265113151457669, -15.93157385884361 ], [ -48.268200125693284, -15.933145402488748 ], [ -48.269780441042791, -15.931705787816101 ], [ -48.271272750240549, -15.932000408345038 ], [ -48.273886333880988, -15.93110078346195 ], [ -48.275878392040973, -15.931594621407767 ], [ -48.276384074375649, -15.931216450608042 ], [ -48.274636807130591, -15.927847623619533 ], [ -48.27706308933935, -15.926644173099225 ], [ -48.276716170756409, -15.925627784484639 ], [ -48.275787195971645, -15.925857405983589 ], [ -48.276000021235497, -15.924902117973176 ], [ -48.275247947188056, -15.924494263336838 ], [ -48.276915049675473, -15.923971959821184 ], [ -48.275322986158692, -15.923380893647824 ], [ -48.276257712856214, -15.922839413250617 ], [ -48.275186019128995, -15.921918503454542 ], [ -48.274299127720354, -15.923090603032268 ], [ -48.274197020713579, -15.922445796727796 ], [ -48.273049866705868, -15.922285849571979 ], [ -48.272782536162154, -15.92168570106171 ], [ -48.272131227936761, -15.92222194703845 ], [ -48.271645879866846, -15.921116347232564 ], [ -48.273139493418398, -15.920010309410531 ], [ -48.27190477343342, -15.920263821330124 ], [ -48.270082656762256, -15.919521641701426 ], [ -48.27103092735932, -15.917573710996685 ], [ -48.269891664153064, -15.917594173517328 ], [ -48.269547932792747, -15.91691072834675 ], [ -48.270412039332534, -15.916960457261434 ], [ -48.270089807351916, -15.91627176015473 ], [ -48.270754546289119, -15.916043718096613 ], [ -48.270065542957774, -15.913623517420749 ], [ -48.26930867460166, -15.913079031164461 ], [ -48.270464549454154, -15.912190645454233 ], [ -48.269645367661731, -15.9115011363505 ], [ -48.270192674333416, -15.910429350290546 ], [ -48.272141744513796, -15.910776263704419 ], [ -48.274671712967596, -15.90937446344134 ], [ -48.275039238903155, -15.907534535167727 ], [ -48.277252402098959, -15.907413343470679 ], [ -48.276371503351569, -15.906053004379608 ], [ -48.274818324310168, -15.905233997910219 ], [ -48.27417719309863, -15.903310859233571 ], [ -48.276364898937601, -15.90285862019676 ], [ -48.275829155380251, -15.901532168592112 ], [ -48.276665344975946, -15.899969751479421 ], [ -48.275808071920537, -15.899174917761188 ], [ -48.274685251477237, -15.900024927450053 ], [ -48.273769535826069, -15.899120313492755 ], [ -48.274165452117863, -15.897641836144752 ], [ -48.27586894984902, -15.897360536717652 ], [ -48.27599561859229, -15.896735956999363 ], [ -48.275253179874582, -15.895595173697041 ], [ -48.272870133580454, -15.895577750097285 ], [ -48.273590738745177, -15.894223234471681 ], [ -48.2754271413243, -15.893686187202043 ], [ -48.276435898184396, -15.892520283699122 ], [ -48.275276149796397, -15.890606821955242 ], [ -48.273723207011919, -15.890264684440417 ], [ -48.273871655409252, -15.887745973945339 ], [ -48.27167209809673, -15.883762227949493 ], [ -48.271935430239118, -15.88287037677784 ], [ -48.273349479107637, -15.882092603069987 ], [ -48.274028402443179, -15.878984572317 ], [ -48.275000609549302, -15.878899717805005 ], [ -48.274930813146668, -15.880534137451848 ], [ -48.275470962042178, -15.880664671678236 ], [ -48.275688172881246, -15.877895820383943 ], [ -48.274863071191106, -15.876467682972889 ], [ -48.27710670703798, -15.875823545449204 ], [ -48.277632263700006, -15.872575583847979 ], [ -48.278403403591035, -15.871878769831749 ], [ -48.277101463571661, -15.871570135016638 ], [ -48.275973056505613, -15.869899125930914 ], [ -48.278144655551543, -15.868560766992042 ], [ -48.280369515710667, -15.869070279974752 ], [ -48.279131449501257, -15.867267063847626 ], [ -48.280504175866703, -15.866884011822583 ], [ -48.279048872767078, -15.86346411982222 ], [ -48.280192670668889, -15.862657709873714 ], [ -48.278887215541808, -15.861796010897249 ], [ -48.279244980383496, -15.860040247581111 ], [ -48.280289676143163, -15.8604659688609 ], [ -48.280256386375363, -15.861576970782274 ], [ -48.28152926769193, -15.859956236249761 ], [ -48.281499714915711, -15.858403016643974 ], [ -48.280288271178058, -15.85814268661322 ], [ -48.280551016720558, -15.85688465452901 ], [ -48.281608653610213, -15.85747003388817 ], [ -48.281795451985339, -15.855825245090438 ], [ -48.283540473442187, -15.855986371035868 ], [ -48.282349658616724, -15.85475421949014 ], [ -48.284348164883816, -15.853789968916582 ], [ -48.284063700772691, -15.853160579933297 ], [ -48.28265731633018, -15.853627476730695 ], [ -48.282402506504887, -15.853131269765486 ], [ -48.283070491953531, -15.850705385374635 ], [ -48.28412304078541, -15.84975015286307 ], [ -48.284434791223291, -15.846822472914877 ], [ -48.285303379458028, -15.846439182439196 ], [ -48.284847853658924, -15.844973134353603 ], [ -48.285889454722437, -15.844490141966771 ], [ -48.285284566939353, -15.842808852789322 ], [ -48.28326948136538, -15.84211373864526 ], [ -48.28516045929296, -15.840094946296164 ], [ -48.284637524813249, -15.837838038789069 ], [ -48.285120235429481, -15.83675095304662 ], [ -48.281882716128671, -15.831828287097578 ], [ -48.280874663547756, -15.827967316375918 ], [ -48.281587293469386, -15.827029484481878 ], [ -48.280533805898038, -15.82569884780108 ], [ -48.280630831135234, -15.823763916120784 ], [ -48.278341236580111, -15.821979203119604 ], [ -48.276419255097132, -15.819206871535563 ], [ -48.276258942649847, -15.8179316091129 ], [ -48.271755447382056, -15.815412642007853 ], [ -48.271222876674287, -15.812797511239163 ], [ -48.269928470825199, -15.813493986394873 ], [ -48.269830798800989, -15.811942036138273 ], [ -48.268228357047718, -15.812915150407749 ], [ -48.26804455185912, -15.80866461781519 ], [ -48.267202697487235, -15.808171215841725 ], [ -48.266795622322974, -15.809457054427572 ], [ -48.266177260708943, -15.808987597380032 ], [ -48.266749792972128, -15.80684578550475 ], [ -48.264657876288531, -15.808885825159251 ], [ -48.264076895370103, -15.806614003239915 ], [ -48.263388944864268, -15.806889383107233 ], [ -48.262133497152433, -15.805851219129874 ], [ -48.2620195494519, -15.806484887060364 ], [ -48.261225986713065, -15.806485875873836 ], [ -48.261133148523392, -15.805501854549345 ], [ -48.259687595737866, -15.803995889950723 ], [ -48.258767157643241, -15.804056257573675 ], [ -48.259095331081149, -15.802894148497302 ], [ -48.257530415550555, -15.803034452678542 ], [ -48.256597910386724, -15.801747313042039 ], [ -48.250321622245075, -15.802110392085249 ], [ -48.248996042160684, -15.800674191684397 ], [ -48.248769434943739, -15.801389138642957 ], [ -48.249422299949529, -15.801755061233692 ], [ -48.248497194208689, -15.802397559373423 ], [ -48.248058580093115, -15.800722122848846 ], [ -48.249070240308207, -15.799645167733376 ], [ -48.248812178581595, -15.798718066339136 ], [ -48.247405785155934, -15.798717170840829 ], [ -48.246705004012902, -15.799540850411107 ], [ -48.247084430829347, -15.800244433123918 ], [ -48.246478930395234, -15.80028034872841 ], [ -48.245928803013555, -15.799339854113409 ], [ -48.246757435082763, -15.797828360887943 ], [ -48.246238501699331, -15.797040394315152 ], [ -48.245361941814764, -15.797702509937704 ], [ -48.244634460046541, -15.796874203597994 ], [ -48.242949516119261, -15.797308696641673 ], [ -48.242399931320008, -15.799337712184842 ], [ -48.241317182924917, -15.799490297310669 ], [ -48.240379410040248, -15.797788759977164 ], [ -48.241146626090128, -15.79308407881237 ], [ -48.240774121691253, -15.792552133866579 ], [ -48.240545761861192, -15.79388768655844 ], [ -48.239927576316958, -15.793887307086303 ], [ -48.237729688074246, -15.791196287197835 ], [ -48.236884431782372, -15.788924711119021 ], [ -48.237883783281447, -15.786806649078498 ], [ -48.237458364519085, -15.785449591787295 ], [ -48.23679696012821, -15.784897447322397 ], [ -48.232931527426956, -15.784557897767243 ], [ -48.232382292072352, -15.783885694348365 ], [ -48.233060085327267, -15.780982819122785 ], [ -48.232007201423784, -15.778478299230278 ], [ -48.228199184543911, -15.776951997564421 ], [ -48.213506457436154, -15.766678652170611 ], [ -48.212687680783922, -15.763232882007394 ], [ -48.206696826035596, -15.755051192615365 ], [ -48.205608729071287, -15.750337679952169 ], [ -48.205557038213215, -15.747044463709097 ], [ -48.20824721850299, -15.740339062425184 ], [ -48.206609724487329, -15.732254447788332 ], [ -48.207714585811466, -15.723797693866691 ], [ -48.207775599385563, -15.717672629567703 ], [ -48.210267941005377, -15.712763458655536 ], [ -48.218826194310445, -15.708998691007553 ], [ -48.221341473512716, -15.709021194721393 ], [ -48.222021184670758, -15.708179869944212 ], [ -48.22234137478074, -15.708588336564704 ], [ -48.222753249643567, -15.708139300308199 ], [ -48.224594434853259, -15.70978421641848 ], [ -48.227515341135565, -15.708958272003315 ], [ -48.227444227802714, -15.708391642379089 ], [ -48.228768745180126, -15.709276461187539 ], [ -48.23061780861488, -15.709651245814035 ], [ -48.231453267880248, -15.709200177116246 ], [ -48.231696313368573, -15.709658286687803 ], [ -48.233438685693656, -15.708505233566848 ], [ -48.235881885874164, -15.708946467992218 ], [ -48.236925490180759, -15.707918073112436 ], [ -48.237655640843691, -15.708442948021121 ], [ -48.238990336133263, -15.707766621203907 ], [ -48.24093457697068, -15.706014520701515 ], [ -48.24153710847277, -15.704276419799234 ], [ -48.240332702137046, -15.702981815433866 ], [ -48.239196017993976, -15.696859969263818 ], [ -48.239774456680145, -15.695039843262764 ], [ -48.241535480725474, -15.693865618636995 ], [ -48.240633595536423, -15.692811024574084 ], [ -48.241508110855392, -15.687046845749775 ], [ -48.239582143547501, -15.682231209566313 ], [ -48.239541981667777, -15.679536082307834 ], [ -48.238939570539927, -15.679355408099173 ], [ -48.236950589109789, -15.672274210013665 ], [ -48.234641802048621, -15.667294774362833 ], [ -48.235161032774414, -15.661592584886776 ], [ -48.233684758504481, -15.657371448667314 ], [ -48.235575589108358, -15.65444398403781 ], [ -48.236564571354108, -15.650592785565022 ], [ -48.235070927259841, -15.647023521595724 ], [ -48.23394504984963, -15.64115376633057 ], [ -48.229810846605254, -15.63764242420503 ], [ -48.228619877269558, -15.633806854635621 ], [ -48.226094056337438, -15.631444681204123 ], [ -48.225205365603266, -15.629694477090689 ], [ -48.223484346232489, -15.628305678113179 ], [ -48.22065708303036, -15.627351289470589 ], [ -48.217217525435622, -15.622181616854764 ], [ -48.214167814216317, -15.622913633240877 ], [ -48.211589601740179, -15.622535626906913 ], [ -48.207787658369938, -15.623062597670378 ], [ -48.203576985138682, -15.624464075930266 ], [ -48.201364363626993, -15.62293083196443 ], [ -48.200008970254956, -15.623108832612502 ], [ -48.200008974746524, -15.502278248300417 ], [ -48.034776041421686, -15.50241218527359 ], [ -48.034284539892077, -15.503234314199194 ], [ -48.03415016899357, -15.504774630253889 ], [ -48.0394179104809, -15.516630349943958 ], [ -48.03976077945854, -15.519417662834671 ], [ -48.038971224104181, -15.525110853153461 ], [ -48.037912545168801, -15.527666368803478 ], [ -48.035226497129337, -15.531493560233796 ], [ -48.032412489467532, -15.530609168779002 ], [ -48.0317780057891, -15.531453868720748 ], [ -48.033142308652131, -15.533564015234793 ], [ -48.042398699358344, -15.542215906326605 ], [ -48.043727424444548, -15.545247800460158 ], [ -48.043718574242362, -15.547722622586321 ], [ -48.041920553082072, -15.550584720245592 ], [ -48.035910906476317, -15.554202592715249 ], [ -48.034187811997235, -15.556224556543548 ], [ -48.033601954125132, -15.558880704070386 ], [ -48.035349764850935, -15.563583001943337 ], [ -48.034818666481918, -15.565547234853925 ], [ -48.024878075736183, -15.573009039308928 ], [ -48.016998852666177, -15.582402411304397 ], [ -48.027904978730426, -15.592000879405814 ], [ -48.045254961974486, -15.612589091466186 ], [ -48.048619383580544, -15.614745622418313 ], [ -48.070522401485348, -15.624843218067795 ], [ -48.074707016386846, -15.628641250029084 ], [ -48.076819061621016, -15.633049635755407 ], [ -48.089080510090398, -15.675357306294023 ], [ -48.089656008590644, -15.680878215468667 ], [ -48.086516075974096, -15.723146017104908 ], [ -48.084801416675532, -15.728208297499188 ], [ -48.081948162517286, -15.731490847116486 ], [ -48.074546861144732, -15.735943104393071 ], [ -48.063123039575494, -15.738171347266469 ], [ -48.057402939748755, -15.740497756434484 ], [ -48.05244590845021, -15.744637538225875 ], [ -48.049946015592127, -15.748300010670146 ], [ -48.047619684433457, -15.753706058036361 ], [ -48.017187413535886, -15.751558820424471 ], [ -48.004728358161877, -15.754753508232451 ], [ -48.005112025026463, -15.758300357170016 ], [ -48.006822136154746, -15.760918027560859 ], [ -48.007293712153029, -15.764774471415004 ], [ -48.006559715802375, -15.766163675892658 ], [ -48.006792516004872, -15.769054588374997 ], [ -48.006134630314982, -15.770617949227047 ], [ -48.006749048324906, -15.775181050266923 ], [ -48.006069016468309, -15.776318571807634 ], [ -48.00589468131944, -15.779559754867552 ], [ -48.004127081606235, -15.782972213687561 ], [ -48.004159283514227, -15.784571982104298 ], [ -48.003018567732148, -15.786245034980631 ], [ -47.996429075678485, -15.786287449286236 ], [ -47.989764661435188, -15.787269504036555 ], [ -47.99287019935614, -15.810977720371691 ], [ -47.994910614726187, -15.810952951315489 ], [ -48.004872526985196, -15.814554085454139 ], [ -48.004349915898985, -15.815641817811253 ], [ -48.000846642597779, -15.817796445740777 ], [ -48.003118886193199, -15.818082952916161 ], [ -48.003827952498092, -15.819124890726647 ], [ -48.010724159034162, -15.822080883188871 ], [ -48.011151497496279, -15.821154098930569 ], [ -48.013655280059545, -15.822199899806181 ], [ -48.008625018997357, -15.834402787188068 ], [ -48.007843960807278, -15.835376534851402 ], [ -48.005291102381719, -15.83431293855684 ], [ -48.00362584144063, -15.838059539157902 ], [ -48.010885139828012, -15.841126605905638 ] ] ] } },
{ "type": "Feature", "properties": { "Macro": "Macrorregião 2", "Regioes_de": "Central, Centro-Sul, Sul" }, "geometry": { "type": "Polygon", "coordinates": [ [ [ -47.888224869800759, -16.049874006163137 ], [ -48.277807486384383, -16.049598628744835 ], [ -48.277727044047317, -16.04715445812014 ], [ -48.278693805566199, -16.044700711746444 ], [ -48.2774285392683, -16.044043017666432 ], [ -48.278610284702651, -16.041700798413011 ], [ -48.276858509711495, -16.040965693530911 ], [ -48.277137705203486, -16.039097375545847 ], [ -48.27558200459108, -16.036602477299084 ], [ -48.273392643157038, -16.035645915232266 ], [ -48.27412281987111, -16.034228295056639 ], [ -48.271852230074131, -16.031758037137102 ], [ -48.272982981743077, -16.030626711697856 ], [ -48.272180239120338, -16.027568642271799 ], [ -48.271364485299046, -16.027223066526624 ], [ -48.272183684159458, -16.025621913801135 ], [ -48.271206981883651, -16.025168157558124 ], [ -48.272456129710406, -16.02460894863739 ], [ -48.27252380698728, -16.024004031699413 ], [ -48.271068471548304, -16.023563526047734 ], [ -48.269834829541665, -16.022157994211067 ], [ -48.270628730047051, -16.01982075716187 ], [ -48.269961154230181, -16.018577810744127 ], [ -48.270116657097446, -16.016613684219219 ], [ -48.271747163118505, -16.015281734144981 ], [ -48.271174657804778, -16.01458058388214 ], [ -48.27223826399949, -16.01324138186671 ], [ -48.271409132466985, -16.009617834521521 ], [ -48.272428822722397, -16.008999618636786 ], [ -48.271117362357643, -16.007975126250852 ], [ -48.269723340530071, -16.005253731468592 ], [ -48.269992658147203, -16.00392689524557 ], [ -48.268857805668986, -16.00241819169074 ], [ -48.267763531888789, -16.001923684723508 ], [ -48.267594280306106, -16.001062548890904 ], [ -48.266229300113352, -16.001236638774301 ], [ -48.265386489934016, -15.996644452355888 ], [ -48.264049981844188, -15.996343664569649 ], [ -48.262557750799864, -15.994846940619677 ], [ -48.26395775001734, -15.992436644644723 ], [ -48.262877851976633, -15.991826441167406 ], [ -48.261548978668408, -15.989617500784563 ], [ -48.262450845891166, -15.989555004870416 ], [ -48.2628559797961, -15.988778103983417 ], [ -48.261626239172735, -15.985234146141787 ], [ -48.259370132014773, -15.984593597710946 ], [ -48.25820318003651, -15.983386369466663 ], [ -48.259117489824256, -15.982320415118254 ], [ -48.25859758715864, -15.980527849994161 ], [ -48.260028400386986, -15.980140459307281 ], [ -48.260644401228447, -15.979139704621513 ], [ -48.258729633217193, -15.977335925472707 ], [ -48.253787767277281, -15.977249661647402 ], [ -48.253473819560206, -15.975878809983177 ], [ -48.247322845502374, -15.975627566289157 ], [ -48.24565792502279, -15.973237731323193 ], [ -48.246085303010773, -15.972317347473844 ], [ -48.244458286944592, -15.973322333523919 ], [ -48.243198509353078, -15.973051887209014 ], [ -48.241213354746058, -15.971662574159252 ], [ -48.23997483219248, -15.971852988206281 ], [ -48.240223569406446, -15.970840086410076 ], [ -48.238451544592152, -15.971761403735046 ], [ -48.238173028226527, -15.972560755248679 ], [ -48.235838911369285, -15.971875273509909 ], [ -48.232617019161154, -15.971974443253709 ], [ -48.229475928616196, -15.970493868450506 ], [ -48.228521270997454, -15.971239840837443 ], [ -48.226912523070894, -15.970959030602664 ], [ -48.226440345201354, -15.97147295361558 ], [ -48.225963696416656, -15.970850715251631 ], [ -48.22520526229701, -15.971326568436655 ], [ -48.2247365123986, -15.970128562473901 ], [ -48.223869890576019, -15.969784495491052 ], [ -48.223148708692882, -15.970720167094443 ], [ -48.221472811698831, -15.970646639149724 ], [ -48.220740587724222, -15.969444866204029 ], [ -48.219886541417303, -15.969697016714651 ], [ -48.21903235676983, -15.969040859899595 ], [ -48.218527050829259, -15.969523056560236 ], [ -48.217945754602155, -15.968354011901415 ], [ -48.214705398421685, -15.96733729144864 ], [ -48.213842947476962, -15.965947017215749 ], [ -48.212312273030051, -15.966208314856761 ], [ -48.211137216451306, -15.965148155770388 ], [ -48.20472287970837, -15.96424893093498 ], [ -48.200689515049575, -15.962270866334563 ], [ -48.198581769152362, -15.963980375896533 ], [ -48.195563975973414, -15.962686726447068 ], [ -48.193133412394012, -15.963897630097801 ], [ -48.19235444817685, -15.963136274214071 ], [ -48.192064338154161, -15.960705524195919 ], [ -48.18851141047562, -15.956853918862338 ], [ -48.186928103736221, -15.953431233524498 ], [ -48.186572302611751, -15.94956029794762 ], [ -48.187067192586611, -15.945725725798823 ], [ -48.181716128763419, -15.945941028386205 ], [ -48.179123439038165, -15.946676468978966 ], [ -48.176282972397985, -15.94626448669451 ], [ -48.173009688470763, -15.947079758557214 ], [ -48.172782186531805, -15.946273298650564 ], [ -48.163110166903181, -15.946853896178032 ], [ -48.160098293621957, -15.940169928716733 ], [ -48.156790614999139, -15.937128048060757 ], [ -48.155644292831383, -15.936990861321103 ], [ -48.153385267945367, -15.93379662184492 ], [ -48.153374875335842, -15.94714045991358 ], [ -48.147206624878478, -15.943534266321009 ], [ -48.144591214064739, -15.942976871926026 ], [ -48.134514065921088, -15.945214153520597 ], [ -48.130652866979759, -15.942781273772127 ], [ -48.127504827067767, -15.94275440728849 ], [ -48.126694234067777, -15.942205279552566 ], [ -48.12642581386762, -15.946954935359404 ], [ -48.125682650209477, -15.946989366821104 ], [ -48.125472100378239, -15.948031364240004 ], [ -48.123869857152648, -15.949657619984512 ], [ -48.122286804636467, -15.953041894552657 ], [ -48.122050827092799, -15.955712388798259 ], [ -48.121182060093325, -15.95535146077745 ], [ -48.121176623489227, -15.954717433627087 ], [ -48.12026232807451, -15.954757934782501 ], [ -48.120071515128387, -15.953678598477152 ], [ -48.11882432652726, -15.953751750024475 ], [ -48.117329982645394, -15.952695332299978 ], [ -48.116366426315444, -15.952980606790534 ], [ -48.116016195644058, -15.952094782419099 ], [ -48.114254247232303, -15.95113020384332 ], [ -48.111994972614639, -15.951309655130061 ], [ -48.107306646282197, -15.946661916583432 ], [ -48.106448367113664, -15.944603836345834 ], [ -48.105523817429983, -15.944379343686299 ], [ -48.105092026018994, -15.942943981590966 ], [ -48.1037978133077, -15.94199037978861 ], [ -48.102176778224681, -15.937240553728572 ], [ -48.096325784877884, -15.932860056594233 ], [ -48.094372341698701, -15.932246647409817 ], [ -48.092145612145472, -15.933517013390809 ], [ -48.091247984970856, -15.935028742939013 ], [ -48.08283156756432, -15.941675601498606 ], [ -48.080230117468417, -15.939255206203226 ], [ -48.077323474636195, -15.938918725480052 ], [ -48.054256212275398, -15.952505039963951 ], [ -48.050283722850139, -15.953320155163828 ], [ -48.045192665606166, -15.952172111506352 ], [ -48.041412462364107, -15.949881067664597 ], [ -48.038221701272143, -15.945430191709772 ], [ -48.042767997669962, -15.937143767260713 ], [ -48.060338534384258, -15.882447681974877 ], [ -48.055897760387928, -15.880835572403614 ], [ -48.046167595505914, -15.874558330202554 ], [ -48.043846230234138, -15.873831293933165 ], [ -48.01291710205124, -15.878170584624019 ], [ -47.992097244868233, -15.876511181732775 ], [ -47.993872149681337, -15.869001704010314 ], [ -47.991427212159067, -15.868017641578623 ], [ -47.991947484032281, -15.866216616012631 ], [ -47.98654475540215, -15.864780642279264 ], [ -47.986659948167663, -15.864370723261368 ], [ -47.990560266942985, -15.859868925676793 ], [ -47.990883182541538, -15.860187132956455 ], [ -47.994561506948905, -15.856597061733597 ], [ -47.995211478481146, -15.856704200383149 ], [ -47.996463391322344, -15.855366185929602 ], [ -47.996089218752005, -15.855008523061663 ], [ -48.000644679762338, -15.8504196667746 ], [ -47.99875671658085, -15.848650917120091 ], [ -47.999866921084298, -15.846424755010354 ], [ -48.001951257783517, -15.848312397510631 ], [ -48.006407219596369, -15.850212328865826 ], [ -48.010885139828012, -15.841126605905638 ], [ -48.00362584144063, -15.838059539157902 ], [ -48.005291102381719, -15.83431293855684 ], [ -48.007843960807278, -15.835376534851402 ], [ -48.008625018997357, -15.834402787188068 ], [ -48.013655280059545, -15.822199899806181 ], [ -48.011151497496279, -15.821154098930569 ], [ -48.010724159034162, -15.822080883188871 ], [ -48.003827952498092, -15.819124890726647 ], [ -48.003118886193199, -15.818082952916161 ], [ -48.000846642597779, -15.817796445740777 ], [ -48.004349915898985, -15.815641817811253 ], [ -48.004872526985196, -15.814554085454139 ], [ -47.994910614726187, -15.810952951315489 ], [ -47.99287019935614, -15.810977720371691 ], [ -47.991665049215371, -15.802861517935584 ], [ -47.989764661435188, -15.787269504036555 ], [ -47.996429075678485, -15.786287449286236 ], [ -48.003018567732148, -15.786245034980631 ], [ -48.00589468131944, -15.779559754867552 ], [ -48.006069016468309, -15.776318571807634 ], [ -48.006759625987385, -15.775072392756405 ], [ -48.006170490162809, -15.770189756516555 ], [ -48.006771580767179, -15.769201789676055 ], [ -48.006559715802375, -15.766163675892658 ], [ -48.007269686710757, -15.76325700244624 ], [ -48.006159925076751, -15.759186617939518 ], [ -48.005180758722112, -15.758545824343617 ], [ -48.004728358161877, -15.754753508232451 ], [ -48.017187413535886, -15.751558820424471 ], [ -48.047619684433457, -15.753706058036361 ], [ -48.049946015592127, -15.748300010670146 ], [ -48.05244590845021, -15.744637538225875 ], [ -48.057402939748755, -15.740497756434484 ], [ -48.063123039575494, -15.738171347266469 ], [ -48.074546861144732, -15.735943104393071 ], [ -48.081948162517286, -15.731490847116486 ], [ -48.084801416675532, -15.728208297499188 ], [ -48.086516075974096, -15.723146017104908 ], [ -48.089668920974539, -15.68069022035221 ], [ -48.089373136294206, -15.67648689787541 ], [ -48.086987844211855, -15.66811185236593 ], [ -48.076819061621016, -15.633049635755407 ], [ -48.074563346128507, -15.628449930728099 ], [ -48.070002550922005, -15.624561738487062 ], [ -48.048619383580544, -15.614745622418313 ], [ -48.045461103772617, -15.612751094588589 ], [ -48.027554358190201, -15.591636892994638 ], [ -48.014155474586154, -15.57993576731128 ], [ -48.010728282301315, -15.578304234341278 ], [ -48.006149755249417, -15.578124022015542 ], [ -48.001756393435464, -15.580053912997455 ], [ -47.956570863353036, -15.614323868752797 ], [ -47.883660077091243, -15.667802579609285 ], [ -47.858080561952349, -15.689219323017086 ], [ -47.851550042500456, -15.692534902810314 ], [ -47.838308587751648, -15.692894295694298 ], [ -47.834970321493408, -15.693837295559597 ], [ -47.7938954695747, -15.721855420410682 ], [ -47.791017794715444, -15.725136599943594 ], [ -47.783987772439716, -15.743202385999341 ], [ -47.790911826749593, -15.745713246425488 ], [ -47.791512428670451, -15.748074080504921 ], [ -47.786293966962972, -15.749434412111833 ], [ -47.787010032042254, -15.752185207974067 ], [ -47.78521693005645, -15.752327629149786 ], [ -47.784686547644718, -15.755954622223934 ], [ -47.785500178747007, -15.755908369832483 ], [ -47.786406677683367, -15.757694923693517 ], [ -47.78517236283858, -15.758105000105598 ], [ -47.784928584324987, -15.759679265108332 ], [ -47.783933188108108, -15.760476726058137 ], [ -47.786599162394232, -15.761343674744438 ], [ -47.789831854148716, -15.761483933335725 ], [ -47.807410479293821, -15.758738376380315 ], [ -47.810510716256289, -15.757293576752074 ], [ -47.813148017216875, -15.758133147379992 ], [ -47.808479093596247, -15.764078370840814 ], [ -47.808911459030703, -15.765373001311703 ], [ -47.812685131520631, -15.769463562934366 ], [ -47.81301342443448, -15.772842899233908 ], [ -47.808208929766131, -15.780726728114443 ], [ -47.805756590125924, -15.78347934739624 ], [ -47.804710384298261, -15.786484639470967 ], [ -47.803157728974668, -15.787416786337996 ], [ -47.801265881477889, -15.786785051258088 ], [ -47.797893878090832, -15.782745336646592 ], [ -47.79518960413256, -15.781215958521456 ], [ -47.786789691472734, -15.781960216837495 ], [ -47.789145569119427, -15.790673540721167 ], [ -47.787780969812346, -15.788608949474348 ], [ -47.787768114920631, -15.790633078318523 ], [ -47.785876250355862, -15.790665716037042 ], [ -47.785417505893093, -15.79356291779426 ], [ -47.784378517130421, -15.79384074178722 ], [ -47.78450970350125, -15.797079563178478 ], [ -47.783917714627343, -15.797855797311341 ], [ -47.785855310626587, -15.802230997918485 ], [ -47.78656545221488, -15.805573746984157 ], [ -47.795673526576117, -15.823860700913404 ], [ -47.815644513544861, -15.850111686987123 ], [ -47.820473105520712, -15.864016791997788 ], [ -47.830739967970906, -15.859290877574377 ], [ -47.843012144121417, -15.86620693472701 ], [ -47.845054082135867, -15.862811532981688 ], [ -47.842915704585771, -15.861606904475575 ], [ -47.850631899601389, -15.857152478196921 ], [ -47.853565783844594, -15.856626151908108 ], [ -47.856258133565781, -15.858794186804799 ], [ -47.851155720718296, -15.868691651152217 ], [ -47.856981519016315, -15.871238264878498 ], [ -47.856078218082367, -15.873173779212978 ], [ -47.880100758797781, -15.884940959185252 ], [ -47.893668911950797, -15.900669081704814 ], [ -47.882329985667496, -15.913515329194695 ], [ -47.884662812543986, -15.913434170277203 ], [ -47.889759027016026, -15.911106897203773 ], [ -47.893083298420457, -15.911731256051336 ], [ -47.896068056054823, -15.911348779329712 ], [ -47.89847915853192, -15.912126546197241 ], [ -47.901716458643797, -15.911243543548469 ], [ -47.904271333787172, -15.912107359956458 ], [ -47.905296601682188, -15.911590203299081 ], [ -47.907888676959786, -15.912583069164031 ], [ -47.90584504472271, -15.916746437539787 ], [ -47.906685039581944, -15.91839732947772 ], [ -47.906912883779036, -15.921776088646565 ], [ -47.906160230318243, -15.924278753739296 ], [ -47.901863432905756, -15.932224209124881 ], [ -47.89873909594084, -15.935227881574908 ], [ -47.897704222360503, -15.939880165098824 ], [ -47.896305709854815, -15.942431966879703 ], [ -47.896729258324754, -15.944534138209635 ], [ -47.895879335284988, -15.946298925184747 ], [ -47.892064508276945, -15.948926339716413 ], [ -47.889735045591195, -15.951573617450926 ], [ -47.887252596219298, -15.957468855810506 ], [ -47.887713919745245, -15.958809814107369 ], [ -47.887466888432002, -15.967536783181796 ], [ -47.892388103001856, -15.969338810201828 ], [ -47.89150550643857, -15.971275448721972 ], [ -47.890157909544882, -15.971085793265978 ], [ -47.889341282561134, -15.972083635451538 ], [ -47.88754766494236, -15.976657780968464 ], [ -47.884728332965864, -15.977838184580364 ], [ -47.884046994958844, -15.980531053950784 ], [ -47.880959870704579, -15.986449499833565 ], [ -47.880432910874077, -15.990290715343264 ], [ -47.878340004247036, -15.993890085173494 ], [ -47.877926993015379, -15.996821628026268 ], [ -47.878426277548613, -16.000150231384708 ], [ -47.875545506196573, -16.007726276743107 ], [ -47.873847420815011, -16.010768518907536 ], [ -47.872440002411601, -16.010895997189586 ], [ -47.871531248703874, -16.012402221598325 ], [ -47.870539061269199, -16.01276782940009 ], [ -47.871544990232785, -16.013868310705586 ], [ -47.874983535426189, -16.015345433431765 ], [ -47.8768970961017, -16.018111238880408 ], [ -47.877143552493159, -16.020779548516458 ], [ -47.874913332086734, -16.024928991887005 ], [ -47.874877518052983, -16.027250805786203 ], [ -47.873536290214673, -16.028648818719969 ], [ -47.872582126669336, -16.031668143853825 ], [ -47.871770153857064, -16.031935339643788 ], [ -47.87069799210758, -16.034403544006061 ], [ -47.869579146709412, -16.034989599416992 ], [ -47.868495932088685, -16.037422550615911 ], [ -47.87258932397139, -16.038558290646399 ], [ -47.87302692299069, -16.039360328393961 ], [ -47.873898481055754, -16.038866447380741 ], [ -47.875743000811788, -16.039303572898284 ], [ -47.876473527868825, -16.040387625195049 ], [ -47.878902292122724, -16.041637880228976 ], [ -47.879110376078501, -16.042916566386058 ], [ -47.880736011434095, -16.044103658502401 ], [ -47.881592454446185, -16.046067372685346 ], [ -47.885253120670008, -16.047203980280159 ], [ -47.888224869800759, -16.049874006163137 ] ] ] } }
]
}
