{
"type": "FeatureCollection",
"name": "ouvidorias",
"crs": { "type": "name", "properties": { "name": "urn:ogc:def:crs:OGC:1.3:CRS84" } },
"features": [
{ "type": "Feature", "properties": { "nome": "Ouvidoria – RA Ceilândia", "sigla": "RA Ceilândia", "orgao": "Administração Regional da Ceilândia", "endereco": "Administração Regional de Ceilândia – RA IX", "fonte": "validado", "libras": "Sim", "selo": "Sim", "capacitado": "Sim", "itens": [ "Estacionamento com vaga reservada para PCD", "Rampa de acesso", "Piso tátil", "Piso antiderrapante", "Banheiro adaptado", "Sala da ouvidoria em conformidade com os padrões e normas de acessibilidade" ], "acess": [ "Estacionamento com vaga reservada para PCD", "Rampa de acesso", "Piso tátil", "Piso antiderrapante", "Banheiro adaptado", "Sala da ouvidoria em conformidade com os padrões e normas de acessibilidade", "Atendimento presencial em Libras", "Equipe capacitada em acessibilidade" ], "n_itens": 6, "data": "2025", "RA": "Ceilândia" }, "geometry": { "type": "Point", "coordinates": [ -48.101036, -15.82261711 ] } },
{ "type": "Feature", "properties": { "nome": "Ouvidoria – RA Santa Maria", "sigla": "RA Santa Maria", "orgao": "Administração Regional da Santa Maria", "endereco": "Administração Regional de Santa Maria – RA XIII", "fonte": "validado", "libras": "Sim", "selo": "Sim", "capacitado": "Sim", "itens": [ "Estacionamento com vaga reservada para PCD", "Rampa de acesso", "Banheiro adaptado" ], "acess": [ "Estacionamento com vaga reservada para PCD", "Rampa de acesso", "Banheiro adaptado", "Atendimento presencial em Libras", "Equipe capacitada em acessibilidade" ], "n_itens": 3, "data": "2025", "RA": "Santa Maria" }, "geometry": { "type": "Point", "coordinates": [ -48.01624365, -16.01733354 ] } },
{ "type": "Feature", "properties": { "nome": "Ouvidoria – ARÁQ", "sigla": "ARÁQ", "orgao": "Administração Regional de Água Quente", "endereco": "Localização aproximada a validar", "fonte": "aprox", "libras": "Não", "selo": "Sim", "capacitado": "Sim", "itens": [ "Estacionamento com vaga reservada para PCD", "Rampa de acesso", "Banheiro adaptado", "Sala da ouvidoria em conformidade com os padrões e normas de acessibilidade" ], "acess": [ "Estacionamento com vaga reservada para PCD", "Rampa de acesso", "Banheiro adaptado", "Sala da ouvidoria em conformidade com os padrões e normas de acessibilidade", "Equipe capacitada em acessibilidade" ], "n_itens": 4, "data": "2025", "RA": "Plano Piloto" }, "geometry": { "type": "Point", "coordinates": [ -47.90832, -15.78377 ] } },
{ "type": "Feature", "properties": { "nome": "Ouvidoria – RA Águas Claras", "sigla": "RA Águas Claras", "orgao": "Administração Regional de Águas Claras", "endereco": "Rua Manacá, Lote 02, Bloco 01, Águas Claras, DF, 71928-180", "fonte": "validado", "libras": "Não", "selo": "Sim", "capacitado": "Sim", "itens": [ "Estacionamento com vaga reservada para PCD", "Rampa de acesso", "Corrimão na rampa de acesso", "Corrimão nas escadas", "Piso tátil", "Piso antiderrapante", "Banheiro adaptado", "Sala da ouvidoria em conformidade com os padrões e normas de acessibilidade" ], "acess": [ "Estacionamento com vaga reservada para PCD", "Rampa de acesso", "Corrimão na rampa de acesso", "Corrimão nas escadas", "Piso tátil", "Piso antiderrapante", "Banheiro adaptado", "Sala da ouvidoria em conformidade com os padrões e normas de acessibilidade", "Equipe capacitada em acessibilidade" ], "n_itens": 8, "data": "2025", "RA": "Águas Claras" }, "geometry": { "type": "Point", "coordinates": [ -48.0289, -15.8361 ] } },
{ "type": "Feature", "properties": { "nome": "Ouvidoria – RA Arniqueira", "sigla": "RA Arniqueira", "orgao": "Administração Regional de Arniqueiras", "endereco": "SHA Conjunto 04 Lote 01, Arniqueira, DF, 71994-540", "fonte": "validado", "libras": "Não", "selo": "Sim", "capacitado": "Sim", "itens": [ "Rampa de acesso", "Corrimão na rampa de acesso", "Corrimão nas escadas", "Banheiro adaptado" ], "acess": [ "Rampa de acesso", "Corrimão na rampa de acesso", "Corrimão nas escadas", "Banheiro adaptado", "Equipe capacitada em acessibilidade" ], "n_itens": 4, "data": "2025", "RA": "Arniqueira" }, "geometry": { "type": "Point", "coordinates": [ -48.0053, -15.8506 ] } },
{ "type": "Feature", "properties": { "nome": "Ouvidoria – RA Planaltina", "sigla": "RA Planaltina", "orgao": "Administração Regional de Planaltina", "endereco": "Administração Regional de Planaltina – RA VI", "fonte": "validado", "libras": "Não", "selo": "Sim", "capacitado": "Sim", "itens": [ "Estacionamento com vaga reservada para PCD", "Rampa de acesso", "Banheiro adaptado" ], "acess": [ "Estacionamento com vaga reservada para PCD", "Rampa de acesso", "Banheiro adaptado", "Equipe capacitada em acessibilidade" ], "n_itens": 3, "data": "2025", "RA": "Planaltina" }, "geometry": { "type": "Point", "coordinates": [ -47.6514018, -15.6173003 ] } },
{ "type": "Feature", "properties": { "nome": "Ouvidoria – RA Samambaia", "sigla": "RA Samambaia", "orgao": "Administração Regional de Samambaia", "endereco": "Centro Urbano, Quadra 302, Conjunto 13, Lote 01, Samambaia Sul, DF, 72300-655", "fonte": "validado", "libras": "Sim", "selo": "Sim", "capacitado": "Sim", "itens": [ "Estacionamento com vaga reservada para PCD", "Rampa de acesso", "Banheiro adaptado" ], "acess": [ "Estacionamento com vaga reservada para PCD", "Rampa de acesso", "Banheiro adaptado", "Atendimento presencial em Libras", "Equipe capacitada em acessibilidade" ], "n_itens": 3, "data": "2025", "RA": "Samambaia" }, "geometry": { "type": "Point", "coordinates": [ -48.0858, -15.8778 ] } },
{ "type": "Feature", "properties": { "nome": "Ouvidoria – RA São Sebastião", "sigla": "RA São Sebastião", "orgao": "Administração Regional de São Sebastião", "endereco": "Quadra 101, Área Especial S/N, Bairro Residencial Oeste, São Sebastião, DF, 71691-001", "fonte": "validado", "libras": "Não", "selo": "Sim", "capacitado": "Sim", "itens": [ "Estacionamento com vaga reservada para PCD", "Rampa de acesso" ], "acess": [ "Estacionamento com vaga reservada para PCD", "Rampa de acesso", "Equipe capacitada em acessibilidade" ], "n_itens": 2, "data": "2025", "RA": "São Sebastião" }, "geometry": { "type": "Point", "coordinates": [ -47.7719, -15.9083 ] } },
{ "type": "Feature", "properties": { "nome": "Ouvidoria – RA Guará", "sigla": "RA Guará", "orgao": "Administração Regional do Guará", "endereco": "SRIA II QE 25, Área Especial do CAVE, Guará II, Brasília - DF, 71025-900", "fonte": "validado", "libras": "Não", "selo": "Sim", "capacitado": "Sim", "itens": [ "Estacionamento com vaga reservada para PCD", "Rampa de acesso", "Corrimão na rampa de acesso", "Corrimão nas escadas", "Piso tátil", "Piso antiderrapante" ], "acess": [ "Estacionamento com vaga reservada para PCD", "Rampa de acesso", "Corrimão na rampa de acesso", "Corrimão nas escadas", "Piso tátil", "Piso antiderrapante", "Equipe capacitada em acessibilidade" ], "n_itens": 6, "data": "2025", "RA": "Guará" }, "geometry": { "type": "Point", "coordinates": [ -47.9806, -15.8228 ] } },
{ "type": "Feature", "properties": { "nome": "Ouvidoria – RA Lago Sul", "sigla": "RA Lago Sul", "orgao": "Administração Regional do Lago Sul", "endereco": "SHIS QI 11, Área Especial Nº 01, Lago Sul, Brasília - DF, 71625-600", "fonte": "validado", "libras": "Não", "selo": "Sim", "capacitado": "Sim", "itens": [ "Estacionamento com vaga reservada para PCD", "Rampa de acesso", "Sala da ouvidoria em conformidade com os padrões e normas de acessibilidade" ], "acess": [ "Estacionamento com vaga reservada para PCD", "Rampa de acesso", "Sala da ouvidoria em conformidade com os padrões e normas de acessibilidade", "Equipe capacitada em acessibilidade" ], "n_itens": 3, "data": "2025", "RA": "Lago Sul" }, "geometry": { "type": "Point", "coordinates": [ -47.8767, -15.8403 ] } },
{ "type": "Feature", "properties": { "nome": "Ouvidoria – RA Núcleo Bandeirante", "sigla": "RA Núcleo Bandeirante", "orgao": "Administração Regional do Núcleo Bandeirante", "endereco": "Praça Central, Área Especial 01, Núcleo Bandeirante, DF, 71705-510", "fonte": "validado", "libras": "Sim", "selo": "Sim", "capacitado": "Sim", "itens": [ "Estacionamento com vaga reservada para PCD", "Banheiro adaptado", "Sala da ouvidoria em conformidade com os padrões e normas de acessibilidade" ], "acess": [ "Estacionamento com vaga reservada para PCD", "Banheiro adaptado", "Sala da ouvidoria em conformidade com os padrões e normas de acessibilidade", "Atendimento presencial em Libras", "Equipe capacitada em acessibilidade" ], "n_itens": 3, "data": "2025", "RA": "Núcleo Bandeirante" }, "geometry": { "type": "Point", "coordinates": [ -47.9622, -15.8703 ] } },
{ "type": "Feature", "properties": { "nome": "Ouvidoria – RA Plano Piloto", "sigla": "RA Plano Piloto", "orgao": "Administração Regional do Plano Piloto", "endereco": "SBN Quadra 2, Bloco K, Edifício Wagner, Asa Norte, Brasília - DF, 70040-020", "fonte": "validado", "libras": "Não", "selo": "Sim", "capacitado": "Sim", "itens": [ "Corrimão nas escadas", "Piso tátil", "Piso antiderrapante", "Banheiro adaptado", "Sala da ouvidoria em conformidade com os padrões e normas de acessibilidade" ], "acess": [ "Corrimão nas escadas", "Piso tátil", "Piso antiderrapante", "Banheiro adaptado", "Sala da ouvidoria em conformidade com os padrões e normas de acessibilidade", "Equipe capacitada em acessibilidade" ], "n_itens": 5, "data": "2025", "RA": "Plano Piloto" }, "geometry": { "type": "Point", "coordinates": [ -47.8825, -15.7925 ] } },
{ "type": "Feature", "properties": { "nome": "Ouvidoria – RA Riacho Fundo", "sigla": "RA Riacho Fundo", "orgao": "Administração Regional do Riacho Fundo", "endereco": "AC 03, Lote 01, QN 07, Riacho Fundo I, DF, 71810-300", "fonte": "validado", "libras": "Não", "selo": "Sim", "capacitado": "Sim", "itens": [ "Estacionamento com vaga reservada para PCD", "Rampa de acesso", "Corrimão na rampa de acesso", "Corrimão nas escadas", "Piso tátil", "Piso antiderrapante", "Banheiro adaptado", "Sala da ouvidoria em conformidade com os padrões e normas de acessibilidade" ], "acess": [ "Estacionamento com vaga reservada para PCD", "Rampa de acesso", "Corrimão na rampa de acesso", "Corrimão nas escadas", "Piso tátil", "Piso antiderrapante", "Banheiro adaptado", "Sala da ouvidoria em conformidade com os padrões e normas de acessibilidade", "Equipe capacitada em acessibilidade" ], "n_itens": 8, "data": "2025", "RA": "Riacho Fundo" }, "geometry": { "type": "Point", "coordinates": [ -48.0169, -15.8814 ] } },
{ "type": "Feature", "properties": { "nome": "Ouvidoria – RA Riacho Fundo II", "sigla": "RA Riacho Fundo II", "orgao": "Administração Regional do Riacho Fundo II", "endereco": "QN 8A, Conjunto 01, Lote 01, Riacho Fundo II, DF, 71882-005", "fonte": "validado", "libras": "Sim", "selo": "Sim", "capacitado": "Sim", "itens": [ "Estacionamento com vaga reservada para PCD", "Rampa de acesso", "Piso antiderrapante", "Banheiro adaptado", "Sala da ouvidoria em conformidade com os padrões e normas de acessibilidade" ], "acess": [ "Estacionamento com vaga reservada para PCD", "Rampa de acesso", "Piso antiderrapante", "Banheiro adaptado", "Sala da ouvidoria em conformidade com os padrões e normas de acessibilidade", "Atendimento presencial em Libras", "Equipe capacitada em acessibilidade" ], "n_itens": 5, "data": "2025", "RA": "Riacho Fundo II" }, "geometry": { "type": "Point", "coordinates": [ -48.0433, -15.8953 ] } },
{ "type": "Feature", "properties": { "nome": "Ouvidoria – RA SCIA/Estrutural", "sigla": "RA SCIA/Estrutural", "orgao": "Administração Regional do SCIA", "endereco": "Setor Central, Área Especial nº 05, Vila Estrutural, SCIA, DF, 71255-000", "fonte": "validado", "libras": "Sim", "selo": "Sim", "capacitado": "Sim", "itens": [ "Estacionamento com vaga reservada para PCD", "Rampa de acesso", "Corrimão na rampa de acesso", "Corrimão nas escadas", "Piso antiderrapante", "Banheiro adaptado", "Sala da ouvidoria em conformidade com os padrões e normas de acessibilidade" ], "acess": [ "Estacionamento com vaga reservada para PCD", "Rampa de acesso", "Corrimão na rampa de acesso", "Corrimão nas escadas", "Piso antiderrapante", "Banheiro adaptado", "Sala da ouvidoria em conformidade com os padrões e normas de acessibilidade", "Atendimento presencial em Libras", "Equipe capacitada em acessibilidade" ], "n_itens": 7, "data": "2025", "RA": "SCIA" }, "geometry": { "type": "Point", "coordinates": [ -47.9856, -15.7878 ] } },
{ "type": "Feature", "properties": { "nome": "Ouvidoria – RA SIA", "sigla": "RA SIA", "orgao": "Administração Regional do SIA", "endereco": "SIA Trecho 5, Lote 10, SIA, Brasília - DF, 71200-050", "fonte": "validado", "libras": "Não", "selo": "Sim", "capacitado": "Sim", "itens": [ "Estacionamento com vaga reservada para PCD", "Rampa de acesso", "Corrimão na rampa de acesso", "Corrimão nas escadas", "Piso antiderrapante", "Banheiro adaptado" ], "acess": [ "Estacionamento com vaga reservada para PCD", "Rampa de acesso", "Corrimão na rampa de acesso", "Corrimão nas escadas", "Piso antiderrapante", "Banheiro adaptado", "Equipe capacitada em acessibilidade" ], "n_itens": 6, "data": "2025", "RA": "SIA" }, "geometry": { "type": "Point", "coordinates": [ -47.9514, -15.8169 ] } },
{ "type": "Feature", "properties": { "nome": "Ouvidoria – RA Sol Nascente/  Pôr do Sol", "sigla": "RA Sol Nascente/  Pôr do Sol", "orgao": "Administração Regional do Sol Nascente/Pôr do Sol", "endereco": "Trecho 02, Quadra 202, Conjunto A, Lote 01, Sol Nascente, Ceilândia - DF, 72280-000", "fonte": "validado", "libras": "Não", "selo": "Não", "capacitado": "Não", "itens": [ "Rampa de acesso" ], "acess": [ "Rampa de acesso" ], "n_itens": 1, "data": "2025", "RA": "Sol Nascente/  Pôr do Sol" }, "geometry": { "type": "Point", "coordinates": [ -48.125, -15.8206 ] } },
{ "type": "Feature", "properties": { "nome": "Ouvidoria – RA Sudoeste/ Octogonal", "sigla": "RA Sudoeste/ Octogonal", "orgao": "Administração Regional do Sudoeste/Octogonal", "endereco": "SIG Quadra 06, Lote 1485, Sudoeste/Octogonal, Brasília - DF, 70610-460", "fonte": "validado", "libras": "Não", "selo": "Sim", "capacitado": "Sim", "itens": [ "Estacionamento com vaga reservada para PCD", "Rampa de acesso", "Corrimão na rampa de acesso", "Corrimão nas escadas", "Piso tátil", "Piso antiderrapante", "Banheiro adaptado", "Sala da ouvidoria em conformidade com os padrões e normas de acessibilidade" ], "acess": [ "Estacionamento com vaga reservada para PCD", "Rampa de acesso", "Corrimão na rampa de acesso", "Corrimão nas escadas", "Piso tátil", "Piso antiderrapante", "Banheiro adaptado", "Sala da ouvidoria em conformidade com os padrões e normas de acessibilidade", "Equipe capacitada em acessibilidade" ], "n_itens": 8, "data": "2025", "RA": "Sudoeste/ Octogonal" }, "geometry": { "type": "Point", "coordinates": [ -47.9236, -15.8011 ] } },
{ "type": "Feature", "properties": { "nome": "Ouvidoria – ADASA", "sigla": "ADASA", "orgao": "Agência Reguladora de Águas e Saneamento do DF (ADASA)", "endereco": "Estação Rodoferroviária, Ala Central, Sobreloja, Setor de Áreas Isoladas Sudoeste - SAISO, Brasília - DF, 70631-900", "fonte": "validado", "libras": "Não", "selo": "Sim", "capacitado": "Sim", "itens": [ "Estacionamento com vaga reservada para PCD", "Rampa de acesso", "Corrimão nas escadas", "Piso tátil", "Piso antiderrapante", "Banheiro adaptado", "Sala da ouvidoria em conformidade com os padrões e normas de acessibilidade" ], "acess": [ "Estacionamento com vaga reservada para PCD", "Rampa de acesso", "Corrimão nas escadas", "Piso tátil", "Piso antiderrapante", "Banheiro adaptado", "Sala da ouvidoria em conformidade com os padrões e normas de acessibilidade", "Equipe capacitada em acessibilidade" ], "n_itens": 7, "data": "2025", "RA": "Sudoeste/ Octogonal" }, "geometry": { "type": "Point", "coordinates": [ -47.9431, -15.8078 ] } },
{ "type": "Feature", "properties": { "nome": "Ouvidoria – BRB", "sigla": "BRB", "orgao": "Banco de Brasília (BRB)", "endereco": "Centro Financeiro BRB, SBS Quadra 1, Bloco E, Edifício Brasília, Plano Piloto, Brasília - DF, 70072-900", "fonte": "validado", "libras": "Sim", "selo": "Sim", "capacitado": "Sim", "itens": [ "Estacionamento com vaga reservada para PCD", "Rampa de acesso", "Corrimão na rampa de acesso", "Corrimão nas escadas", "Piso tátil", "Piso antiderrapante", "Banheiro adaptado" ], "acess": [ "Estacionamento com vaga reservada para PCD", "Rampa de acesso", "Corrimão na rampa de acesso", "Corrimão nas escadas", "Piso tátil", "Piso antiderrapante", "Banheiro adaptado", "Atendimento presencial em Libras", "Equipe capacitada em acessibilidade" ], "n_itens": 7, "data": "2025", "RA": "Plano Piloto" }, "geometry": { "type": "Point", "coordinates": [ -47.8828, -15.7972 ] } },
{ "type": "Feature", "properties": { "nome": "Ouvidoria – CC", "sigla": "CC", "orgao": "Casa Civil", "endereco": "Palácio do Buriti, Praça do Buriti, Zona Cívico-Administrativa, Plano Piloto, Brasília - DF, 70075-900", "fonte": "validado", "libras": "Não", "selo": "Sim", "capacitado": "Sim", "itens": [ "Estacionamento com vaga reservada para PCD", "Rampa de acesso", "Corrimão na rampa de acesso", "Corrimão nas escadas", "Piso tátil", "Piso antiderrapante", "Banheiro adaptado", "Sala da ouvidoria em conformidade com os padrões e normas de acessibilidade" ], "acess": [ "Estacionamento com vaga reservada para PCD", "Rampa de acesso", "Corrimão na rampa de acesso", "Corrimão nas escadas", "Piso tátil", "Piso antiderrapante", "Banheiro adaptado", "Sala da ouvidoria em conformidade com os padrões e normas de acessibilidade", "Equipe capacitada em acessibilidade" ], "n_itens": 8, "data": "2025", "RA": "Plano Piloto" }, "geometry": { "type": "Point", "coordinates": [ -47.9078, -15.7836 ] } },
{ "type": "Feature", "properties": { "nome": "Ouvidoria – CM", "sigla": "CM", "orgao": "Casa Militar", "endereco": "Palácio do Buriti, Praça do Buriti, Zona Cívico-Administrativa, Plano Piloto, Brasília - DF, 70075-900", "fonte": "validado", "libras": "Não", "selo": "Sim", "capacitado": "Sim", "itens": [ "Estacionamento com vaga reservada para PCD", "Rampa de acesso", "Corrimão na rampa de acesso", "Corrimão nas escadas", "Piso tátil", "Piso antiderrapante", "Banheiro adaptado", "Sala da ouvidoria em conformidade com os padrões e normas de acessibilidade" ], "acess": [ "Estacionamento com vaga reservada para PCD", "Rampa de acesso", "Corrimão na rampa de acesso", "Corrimão nas escadas", "Piso tátil", "Piso antiderrapante", "Banheiro adaptado", "Sala da ouvidoria em conformidade com os padrões e normas de acessibilidade", "Equipe capacitada em acessibilidade" ], "n_itens": 8, "data": "2025", "RA": "Plano Piloto" }, "geometry": { "type": "Point", "coordinates": [ -47.9078, -15.7836 ] } },
{ "type": "Feature", "properties": { "nome": "Ouvidoria – CEASA-DF", "sigla": "CEASA-DF", "orgao": "Centrais de Abastecimento do Distrito Federal (CEASA)", "endereco": "SIA Trecho 10, Lote 5", "fonte": "validado", "libras": "Não", "selo": "Sim", "capacitado": "Sim", "itens": [ "Estacionamento com vaga reservada para PCD", "Rampa de acesso", "Corrimão nas escadas", "Piso tátil", "Banheiro adaptado", "Sala da ouvidoria em conformidade com os padrões e normas de acessibilidade" ], "acess": [ "Estacionamento com vaga reservada para PCD", "Rampa de acesso", "Corrimão nas escadas", "Piso tátil", "Banheiro adaptado", "Sala da ouvidoria em conformidade com os padrões e normas de acessibilidade", "Equipe capacitada em acessibilidade" ], "n_itens": 6, "data": "2025", "RA": "SIA" }, "geometry": { "type": "Point", "coordinates": [ -47.94889771, -15.79132019 ] } },
{ "type": "Feature", "properties": { "nome": "Ouvidoria – CAESB", "sigla": "CAESB", "orgao": "Companhia de Saneamento Ambiental do DF (CAESB)", "endereco": "Av. Sibipiruna, Lotes 13/21, Águas Claras", "fonte": "validado", "libras": "Sim", "selo": "Sim", "capacitado": "Sim", "itens": [ "Estacionamento com vaga reservada para PCD", "Rampa de acesso", "Corrimão na rampa de acesso", "Corrimão nas escadas", "Piso antiderrapante", "Banheiro adaptado", "Sala da ouvidoria em conformidade com os padrões e normas de acessibilidade" ], "acess": [ "Estacionamento com vaga reservada para PCD", "Rampa de acesso", "Corrimão na rampa de acesso", "Corrimão nas escadas", "Piso antiderrapante", "Banheiro adaptado", "Sala da ouvidoria em conformidade com os padrões e normas de acessibilidade", "Atendimento presencial em Libras", "Equipe capacitada em acessibilidade" ], "n_itens": 7, "data": "2025", "RA": "Águas Claras" }, "geometry": { "type": "Point", "coordinates": [ -48.03435696, -15.84560132 ] } },
{ "type": "Feature", "properties": { "nome": "Ouvidoria – TERRACAP", "sigla": "TERRACAP", "orgao": "Companhia Imobiliária de Brasília (TERRACAP)", "endereco": "SAM, Bloco F, Ed. Sede TERRACAP", "fonte": "validado", "libras": "Não", "selo": "Sim", "capacitado": "Sim", "itens": [ "Estacionamento com vaga reservada para PCD", "Rampa de acesso", "Corrimão nas escadas", "Piso antiderrapante", "Banheiro adaptado", "Sala da ouvidoria em conformidade com os padrões e normas de acessibilidade" ], "acess": [ "Estacionamento com vaga reservada para PCD", "Rampa de acesso", "Corrimão nas escadas", "Piso antiderrapante", "Banheiro adaptado", "Sala da ouvidoria em conformidade com os padrões e normas de acessibilidade", "Equipe capacitada em acessibilidade" ], "n_itens": 6, "data": "13/11/2024", "RA": "Plano Piloto" }, "geometry": { "type": "Point", "coordinates": [ -47.90695139, -15.81334902 ] } },
{ "type": "Feature", "properties": { "nome": "Ouvidoria – NOVACAP", "sigla": "NOVACAP", "orgao": "Companhia Urbanizadora da Nova Capital do Brasil (NOVACAP)", "endereco": "Setor de Áreas Públicas (SAP), Bloco A, Lote 1, SIA, Brasília - DF, 71215-900", "fonte": "validado", "libras": "Sim", "selo": "Sim", "capacitado": "Sim", "itens": [ "Estacionamento com vaga reservada para PCD", "Rampa de acesso", "Corrimão na rampa de acesso", "Banheiro adaptado", "Sala da ouvidoria em conformidade com os padrões e normas de acessibilidade" ], "acess": [ "Estacionamento com vaga reservada para PCD", "Rampa de acesso", "Corrimão na rampa de acesso", "Banheiro adaptado", "Sala da ouvidoria em conformidade com os padrões e normas de acessibilidade", "Atendimento presencial em Libras", "Equipe capacitada em acessibilidade" ], "n_itens": 5, "data": "2025", "RA": "Cruzeiro" }, "geometry": { "type": "Point", "coordinates": [ -47.9356, -15.8033 ] } },
{ "type": "Feature", "properties": { "nome": "Ouvidoria – CGDF", "sigla": "CGDF", "orgao": "Controladoria-Geral do Distrito Federal", "endereco": "Anexo do Palácio do Buriti, 12º andar", "fonte": "validado", "libras": "Sim", "selo": "Sim", "capacitado": "Sim", "itens": [ "Estacionamento com vaga reservada para PCD", "Rampa de acesso", "Corrimão nas escadas", "Piso tátil", "Piso antiderrapante", "Banheiro adaptado", "Sala da ouvidoria em conformidade com os padrões e normas de acessibilidade" ], "acess": [ "Estacionamento com vaga reservada para PCD", "Rampa de acesso", "Corrimão nas escadas", "Piso tátil", "Piso antiderrapante", "Banheiro adaptado", "Sala da ouvidoria em conformidade com os padrões e normas de acessibilidade", "Atendimento presencial em Libras", "Equipe capacitada em acessibilidade" ], "n_itens": 7, "data": "2025", "RA": "Plano Piloto" }, "geometry": { "type": "Point", "coordinates": [ -47.90855532, -15.78346872 ] } },
{ "type": "Feature", "properties": { "nome": "Ouvidoria – CBMDF", "sigla": "CBMDF", "orgao": "Corpo de Bombeiros (CBMDF)", "endereco": "QCG - Quartel do Comando Geral, SAM Lote D Módulo E, Plano Piloto, Brasília - DF, 70620-000", "fonte": "validado", "libras": "Não", "selo": "Sim", "capacitado": "Sim", "itens": [ "Estacionamento com vaga reservada para PCD", "Rampa de acesso", "Corrimão na rampa de acesso", "Corrimão nas escadas", "Piso tátil", "Piso antiderrapante", "Banheiro adaptado", "Sala da ouvidoria em conformidade com os padrões e normas de acessibilidade" ], "acess": [ "Estacionamento com vaga reservada para PCD", "Rampa de acesso", "Corrimão na rampa de acesso", "Corrimão nas escadas", "Piso tátil", "Piso antiderrapante", "Banheiro adaptado", "Sala da ouvidoria em conformidade com os padrões e normas de acessibilidade", "Equipe capacitada em acessibilidade" ], "n_itens": 8, "data": "2025", "RA": "Plano Piloto" }, "geometry": { "type": "Point", "coordinates": [ -47.9158, -15.7801 ] } },
{ "type": "Feature", "properties": { "nome": "Ouvidoria – DPD", "sigla": "DPD", "orgao": "Defensoria Pública do DF", "endereco": "SIA Trecho 17, Rua 7, Lote 45, Guará/SIA, Brasília - DF, 71200-010", "fonte": "validado", "libras": "Sim", "selo": "Sim", "capacitado": "Não", "itens": [ "Estacionamento com vaga reservada para PCD", "Rampa de acesso", "Corrimão na rampa de acesso", "Corrimão nas escadas", "Banheiro adaptado", "Sala da ouvidoria em conformidade com os padrões e normas de acessibilidade" ], "acess": [ "Estacionamento com vaga reservada para PCD", "Rampa de acesso", "Corrimão na rampa de acesso", "Corrimão nas escadas", "Banheiro adaptado", "Sala da ouvidoria em conformidade com os padrões e normas de acessibilidade", "Atendimento presencial em Libras" ], "n_itens": 6, "data": "2025", "RA": "Guará" }, "geometry": { "type": "Point", "coordinates": [ -47.9542, -15.8118 ] } },
{ "type": "Feature", "properties": { "nome": "Ouvidoria – DER-DF", "sigla": "DER-DF", "orgao": "Departamento de Estrada de Rodagem do DF (DER)", "endereco": "SAM, Bloco C, Ed. Sede DER-DF", "fonte": "validado", "libras": "Sim", "selo": "Sim", "capacitado": "Sim", "itens": [ "Estacionamento com vaga reservada para PCD", "Rampa de acesso", "Corrimão nas escadas", "Piso tátil", "Piso antiderrapante", "Banheiro adaptado", "Sala da ouvidoria em conformidade com os padrões e normas de acessibilidade" ], "acess": [ "Estacionamento com vaga reservada para PCD", "Rampa de acesso", "Corrimão nas escadas", "Piso tátil", "Piso antiderrapante", "Banheiro adaptado", "Sala da ouvidoria em conformidade com os padrões e normas de acessibilidade", "Atendimento presencial em Libras", "Equipe capacitada em acessibilidade" ], "n_itens": 7, "data": "2025", "RA": "Plano Piloto" }, "geometry": { "type": "Point", "coordinates": [ -47.909518, -15.77721994 ] } },
{ "type": "Feature", "properties": { "nome": "Ouvidoria – DETRAN-DF", "sigla": "DETRAN-DF", "orgao": "Departamento de Trânsito do DF (DETRAN)", "endereco": "SAM, Bloco T, Ed. Sede DETRAN", "fonte": "validado", "libras": "Sim", "selo": "Sim", "capacitado": "Sim", "itens": [ "Estacionamento com vaga reservada para PCD", "Rampa de acesso", "Corrimão nas escadas", "Banheiro adaptado" ], "acess": [ "Estacionamento com vaga reservada para PCD", "Rampa de acesso", "Corrimão nas escadas", "Banheiro adaptado", "Atendimento presencial em Libras", "Equipe capacitada em acessibilidade" ], "n_itens": 4, "data": "22/10/2024", "RA": "Plano Piloto" }, "geometry": { "type": "Point", "coordinates": [ -47.9089311, -15.78002194 ] } },
{ "type": "Feature", "properties": { "nome": "Ouvidoria – EMATER", "sigla": "EMATER", "orgao": "Empresa de Assistência Técnica e Extensão Rural do Distrito Federal (EMATER)", "endereco": "Parque Estação Biológica - AENW, Edifício Sede EMATER-DF, Plano Piloto, Brasília - DF, 70770-915", "fonte": "validado", "libras": "Não", "selo": "Sim", "capacitado": "Sim", "itens": [ "Estacionamento com vaga reservada para PCD", "Rampa de acesso", "Corrimão nas escadas", "Piso antiderrapante", "Banheiro adaptado", "Sala da ouvidoria em conformidade com os padrões e normas de acessibilidade" ], "acess": [ "Estacionamento com vaga reservada para PCD", "Rampa de acesso", "Corrimão nas escadas", "Piso antiderrapante", "Banheiro adaptado", "Sala da ouvidoria em conformidade com os padrões e normas de acessibilidade", "Equipe capacitada em acessibilidade" ], "n_itens": 6, "data": "2025", "RA": "Plano Piloto" }, "geometry": { "type": "Point", "coordinates": [ -47.9042, -15.7508 ] } },
{ "type": "Feature", "properties": { "nome": "Ouvidoria – Fepecs", "sigla": "Fepecs", "orgao": "Fundação de Ensino e Pesquisa em Ciências da Saúde (Fepecs)", "endereco": "SMHN Quadra 501, Bloco A, Asa Norte, Plano Piloto, Brasília - DF, 70710-904", "fonte": "validado", "libras": "Não", "selo": "Sim", "capacitado": "Sim", "itens": [ "Estacionamento com vaga reservada para PCD", "Rampa de acesso", "Corrimão na rampa de acesso", "Corrimão nas escadas", "Banheiro adaptado", "Sala da ouvidoria em conformidade com os padrões e normas de acessibilidade" ], "acess": [ "Estacionamento com vaga reservada para PCD", "Rampa de acesso", "Corrimão na rampa de acesso", "Corrimão nas escadas", "Banheiro adaptado", "Sala da ouvidoria em conformidade com os padrões e normas de acessibilidade", "Equipe capacitada em acessibilidade" ], "n_itens": 6, "data": "2025", "RA": "Plano Piloto" }, "geometry": { "type": "Point", "coordinates": [ -47.8872, -15.7881 ] } },
{ "type": "Feature", "properties": { "nome": "Ouvidoria – FHB", "sigla": "FHB", "orgao": "Fundação Hemocentro de Brasília (FHB)", "endereco": "SMHN Quadra 3, Conjunto A, Bloco 3", "fonte": "validado", "libras": "Não", "selo": "Sim", "capacitado": "Sim", "itens": [ "Estacionamento com vaga reservada para PCD", "Rampa de acesso", "Corrimão na rampa de acesso", "Corrimão nas escadas", "Piso antiderrapante", "Sala da ouvidoria em conformidade com os padrões e normas de acessibilidade" ], "acess": [ "Estacionamento com vaga reservada para PCD", "Rampa de acesso", "Corrimão na rampa de acesso", "Corrimão nas escadas", "Piso antiderrapante", "Sala da ouvidoria em conformidade com os padrões e normas de acessibilidade", "Equipe capacitada em acessibilidade" ], "n_itens": 6, "data": "2025", "RA": "Plano Piloto" }, "geometry": { "type": "Point", "coordinates": [ -47.88612457, -15.78496035 ] } },
{ "type": "Feature", "properties": { "nome": "Ouvidoria – INAS", "sigla": "INAS", "orgao": "Instituto de Assistência à Saúde dos Servidores do DF (INAS)", "endereco": "Endereço a confirmar (Plano Piloto)", "fonte": "validado", "libras": "Não", "selo": "Sim", "capacitado": "Sim", "itens": [ "Estacionamento com vaga reservada para PCD", "Rampa de acesso", "Banheiro adaptado", "Sala da ouvidoria em conformidade com os padrões e normas de acessibilidade" ], "acess": [ "Estacionamento com vaga reservada para PCD", "Rampa de acesso", "Banheiro adaptado", "Sala da ouvidoria em conformidade com os padrões e normas de acessibilidade", "Equipe capacitada em acessibilidade" ], "n_itens": 4, "data": "2025", "RA": "Plano Piloto" }, "geometry": { "type": "Point", "coordinates": [ -47.89359363, -15.79478076 ] } },
{ "type": "Feature", "properties": { "nome": "Ouvidoria – PROCON", "sigla": "PROCON", "orgao": "Instituto de Defesa do Consumidor do DF (PROCON)", "endereco": "SCS Quadra 8, Bloco B-60, Sala 240, Venâncio Shopping, Plano Piloto, Brasília - DF, 70333-900", "fonte": "validado", "libras": "Não", "selo": "Sim", "capacitado": "Sim", "itens": [ "Estacionamento com vaga reservada para PCD", "Rampa de acesso", "Corrimão na rampa de acesso", "Corrimão nas escadas", "Banheiro adaptado" ], "acess": [ "Estacionamento com vaga reservada para PCD", "Rampa de acesso", "Corrimão na rampa de acesso", "Corrimão nas escadas", "Banheiro adaptado", "Equipe capacitada em acessibilidade" ], "n_itens": 5, "data": "2025", "RA": "Plano Piloto" }, "geometry": { "type": "Point", "coordinates": [ -47.8889, -15.7975 ] } },
{ "type": "Feature", "properties": { "nome": "Ouvidoria – IPREV", "sigla": "IPREV", "orgao": "Instituto de Previdência dos Servidores do DF (IPREV)", "endereco": "SCS Quadra 9, Bloco A, Edifício Parque Cidade Corporate, Torre B, 2º andar, Plano Piloto, Brasília - DF, 70308-200", "fonte": "validado", "libras": "Não", "selo": "Sim", "capacitado": "Sim", "itens": [ "Corrimão nas escadas", "Piso tátil", "Piso antiderrapante", "Banheiro adaptado", "Sala da ouvidoria em conformidade com os padrões e normas de acessibilidade" ], "acess": [ "Corrimão nas escadas", "Piso tátil", "Piso antiderrapante", "Banheiro adaptado", "Sala da ouvidoria em conformidade com os padrões e normas de acessibilidade", "Equipe capacitada em acessibilidade" ], "n_itens": 5, "data": "2025", "RA": "Plano Piloto" }, "geometry": { "type": "Point", "coordinates": [ -47.8906, -15.7997 ] } },
{ "type": "Feature", "properties": { "nome": "Ouvidoria – JBB", "sigla": "JBB", "orgao": "Jardim Botânico de Brasília (JBB)", "endereco": "SMDB Conjunto 12, Lago Sul, Brasília - DF, 71680-001", "fonte": "validado", "libras": "Não", "selo": "Sim", "capacitado": "Sim", "itens": [ "Estacionamento com vaga reservada para PCD", "Rampa de acesso", "Banheiro adaptado", "Sala da ouvidoria em conformidade com os padrões e normas de acessibilidade" ], "acess": [ "Estacionamento com vaga reservada para PCD", "Rampa de acesso", "Banheiro adaptado", "Sala da ouvidoria em conformidade com os padrões e normas de acessibilidade", "Equipe capacitada em acessibilidade" ], "n_itens": 4, "data": "2025", "RA": "Jardim Botânico" }, "geometry": { "type": "Point", "coordinates": [ -47.8344, -15.8714 ] } },
{ "type": "Feature", "properties": { "nome": "Ouvidoria – JUCIS-DF", "sigla": "JUCIS-DF", "orgao": "Junta Comercial, Industrial e de Serviços do Distrito Federal (JUCIS)", "endereco": "SAAN (endereço a confirmar)", "fonte": "validado", "libras": "Não", "selo": "Sim", "capacitado": "Sim", "itens": [ "Estacionamento com vaga reservada para PCD", "Rampa de acesso", "Corrimão nas escadas", "Piso antiderrapante", "Banheiro adaptado", "Sala da ouvidoria em conformidade com os padrões e normas de acessibilidade" ], "acess": [ "Estacionamento com vaga reservada para PCD", "Rampa de acesso", "Corrimão nas escadas", "Piso antiderrapante", "Banheiro adaptado", "Sala da ouvidoria em conformidade com os padrões e normas de acessibilidade", "Equipe capacitada em acessibilidade" ], "n_itens": 6, "data": "2025", "RA": "Plano Piloto" }, "geometry": { "type": "Point", "coordinates": [ -47.88389821, -15.78799563 ] } },
{ "type": "Feature", "properties": { "nome": "Ouvidoria – PCDF", "sigla": "PCDF", "orgao": "Polícia Civil (PCDF)", "endereco": "Complexo da Polícia Civil, SPO Lote 23, Conjunto A, Plano Piloto, Brasília - DF, 70610-901", "fonte": "validado", "libras": "Não", "selo": "Sim", "capacitado": "Sim", "itens": [ "Estacionamento com vaga reservada para PCD", "Rampa de acesso", "Corrimão na rampa de acesso", "Corrimão nas escadas", "Piso tátil", "Banheiro adaptado" ], "acess": [ "Estacionamento com vaga reservada para PCD", "Rampa de acesso", "Corrimão na rampa de acesso", "Corrimão nas escadas", "Piso tátil", "Banheiro adaptado", "Equipe capacitada em acessibilidade" ], "n_itens": 6, "data": "2025", "RA": "Plano Piloto" }, "geometry": { "type": "Point", "coordinates": [ -47.9403, -15.8164 ] } },
{ "type": "Feature", "properties": { "nome": "Ouvidoria – PMDF", "sigla": "PMDF", "orgao": "Polícia Militar (PMDF)", "endereco": "Quartel do Comando Geral (QCG), SPO Área Especial 4, Plano Piloto, Brasília - DF, 70610-200", "fonte": "validado", "libras": "Não", "selo": "Sim", "capacitado": "Sim", "itens": [ "Estacionamento com vaga reservada para PCD", "Rampa de acesso", "Corrimão nas escadas", "Piso antiderrapante", "Sala da ouvidoria em conformidade com os padrões e normas de acessibilidade" ], "acess": [ "Estacionamento com vaga reservada para PCD", "Rampa de acesso", "Corrimão nas escadas", "Piso antiderrapante", "Sala da ouvidoria em conformidade com os padrões e normas de acessibilidade", "Equipe capacitada em acessibilidade" ], "n_itens": 5, "data": "2025", "RA": "Plano Piloto" }, "geometry": { "type": "Point", "coordinates": [ -47.9406, -15.8208 ] } },
{ "type": "Feature", "properties": { "nome": "Ouvidoria – PGDF", "sigla": "PGDF", "orgao": "Procuradoria-Geral do Distrito Federal (PGDF)", "endereco": "SAM, Bloco I, Ed. Sede PGDF", "fonte": "validado", "libras": "Não", "selo": "Sim", "capacitado": "Sim", "itens": [ "Estacionamento com vaga reservada para PCD", "Rampa de acesso", "Corrimão nas escadas", "Banheiro adaptado", "Sala da ouvidoria em conformidade com os padrões e normas de acessibilidade" ], "acess": [ "Estacionamento com vaga reservada para PCD", "Rampa de acesso", "Corrimão nas escadas", "Banheiro adaptado", "Sala da ouvidoria em conformidade com os padrões e normas de acessibilidade", "Equipe capacitada em acessibilidade" ], "n_itens": 5, "data": "2025", "RA": "Plano Piloto" }, "geometry": { "type": "Point", "coordinates": [ -47.90656396, -15.7825887 ] } },
{ "type": "Feature", "properties": { "nome": "Ouvidoria – SEAGRI", "sigla": "SEAGRI", "orgao": "Secretaria de Estado da Agricultura, Abastecimento e Desenvolvimento Rural", "endereco": "Parque Estação Biológica (PqEB), Ed. Sede SEAGRI", "fonte": "validado", "libras": "Não", "selo": "Sim", "capacitado": "Sim", "itens": [ "Estacionamento com vaga reservada para PCD", "Rampa de acesso", "Corrimão nas escadas", "Piso tátil", "Banheiro adaptado", "Sala da ouvidoria em conformidade com os padrões e normas de acessibilidade" ], "acess": [ "Estacionamento com vaga reservada para PCD", "Rampa de acesso", "Corrimão nas escadas", "Piso tátil", "Banheiro adaptado", "Sala da ouvidoria em conformidade com os padrões e normas de acessibilidade", "Equipe capacitada em acessibilidade" ], "n_itens": 6, "data": "2025", "RA": "Plano Piloto" }, "geometry": { "type": "Point", "coordinates": [ -47.90597413, -15.7335695 ] } },
{ "type": "Feature", "properties": { "nome": "Ouvidoria – SSP-DF", "sigla": "SSP-DF", "orgao": "Secretaria de Estado da Segurança Pública", "endereco": "SAM, Conjunto A, Bloco A", "fonte": "validado", "libras": "Sim", "selo": "Sim", "capacitado": "Sim", "itens": [ "Estacionamento com vaga reservada para PCD", "Rampa de acesso", "Corrimão nas escadas", "Banheiro adaptado", "Sala da ouvidoria em conformidade com os padrões e normas de acessibilidade" ], "acess": [ "Estacionamento com vaga reservada para PCD", "Rampa de acesso", "Corrimão nas escadas", "Banheiro adaptado", "Sala da ouvidoria em conformidade com os padrões e normas de acessibilidade", "Atendimento presencial em Libras", "Equipe capacitada em acessibilidade" ], "n_itens": 5, "data": "2025", "RA": "Plano Piloto" }, "geometry": { "type": "Point", "coordinates": [ -47.90877412, -15.78084722 ] } },
{ "type": "Feature", "properties": { "nome": "Ouvidoria – SEAPE", "sigla": "SEAPE", "orgao": "Secretaria de Estado de Administração Penitenciária", "endereco": "Sede SEAPE (SCIA)", "fonte": "validado", "libras": "Não", "selo": "Sim", "capacitado": "Sim", "itens": [ "Estacionamento com vaga reservada para PCD", "Corrimão nas escadas", "Piso tátil", "Piso antiderrapante", "Banheiro adaptado", "Sala da ouvidoria em conformidade com os padrões e normas de acessibilidade" ], "acess": [ "Estacionamento com vaga reservada para PCD", "Corrimão nas escadas", "Piso tátil", "Piso antiderrapante", "Banheiro adaptado", "Sala da ouvidoria em conformidade com os padrões e normas de acessibilidade", "Equipe capacitada em acessibilidade" ], "n_itens": 6, "data": "2025", "RA": "Plano Piloto" }, "geometry": { "type": "Point", "coordinates": [ -47.88336233, -15.80049189 ] } },
{ "type": "Feature", "properties": { "nome": "Ouvidoria – SEAÀC", "sigla": "SEAÀC", "orgao": "Secretaria de Estado de Atendimento à comunidade", "endereco": "Palácio do Buriti, Anexo, 11º Andar, Praça do Buriti, Plano Piloto, Brasília - DF, 70075-900", "fonte": "validado", "libras": "Sim", "selo": "Sim", "capacitado": "Sim", "itens": [ "Estacionamento com vaga reservada para PCD", "Rampa de acesso", "Corrimão nas escadas", "Piso tátil", "Banheiro adaptado", "Sala da ouvidoria em conformidade com os padrões e normas de acessibilidade" ], "acess": [ "Estacionamento com vaga reservada para PCD", "Rampa de acesso", "Corrimão nas escadas", "Piso tátil", "Banheiro adaptado", "Sala da ouvidoria em conformidade com os padrões e normas de acessibilidade", "Atendimento presencial em Libras", "Equipe capacitada em acessibilidade" ], "n_itens": 6, "data": "2025", "RA": "Plano Piloto" }, "geometry": { "type": "Point", "coordinates": [ -47.9078, -15.7836 ] } },
{ "type": "Feature", "properties": { "nome": "Ouvidoria – SECTI", "sigla": "SECTI", "orgao": "Secretaria de Estado de Ciência, Tecnologia e Inovação", "endereco": "SCS Quadra 09, Bloco A, Lote 03, Edifício Parque Cidade Corporate, Torre C, 7º Andar, Plano Piloto, Brasília - DF, 70308-200", "fonte": "validado", "libras": "Não", "selo": "Sim", "capacitado": "Sim", "itens": [ "Estacionamento com vaga reservada para PCD", "Rampa de acesso", "Corrimão na rampa de acesso", "Piso tátil", "Banheiro adaptado", "Sala da ouvidoria em conformidade com os padrões e normas de acessibilidade" ], "acess": [ "Estacionamento com vaga reservada para PCD", "Rampa de acesso", "Corrimão na rampa de acesso", "Piso tátil", "Banheiro adaptado", "Sala da ouvidoria em conformidade com os padrões e normas de acessibilidade", "Equipe capacitada em acessibilidade" ], "n_itens": 6, "data": "2025", "RA": "Plano Piloto" }, "geometry": { "type": "Point", "coordinates": [ -47.8906, -15.7997 ] } },
{ "type": "Feature", "properties": { "nome": "Ouvidoria – SECOM", "sigla": "SECOM", "orgao": "Secretaria de Estado de Comunicação", "endereco": "Anexo do Palácio do Buriti, Praça do Buriti", "fonte": "osm", "libras": "Sim", "selo": "Sim", "capacitado": "Sim", "itens": [ "Estacionamento com vaga reservada para PCD", "Rampa de acesso", "Corrimão na rampa de acesso", "Corrimão nas escadas", "Piso tátil", "Banheiro adaptado", "Sala da ouvidoria em conformidade com os padrões e normas de acessibilidade" ], "acess": [ "Estacionamento com vaga reservada para PCD", "Rampa de acesso", "Corrimão na rampa de acesso", "Corrimão nas escadas", "Piso tátil", "Banheiro adaptado", "Sala da ouvidoria em conformidade com os padrões e normas de acessibilidade", "Atendimento presencial em Libras", "Equipe capacitada em acessibilidade" ], "n_itens": 7, "data": "2025", "RA": "Plano Piloto" }, "geometry": { "type": "Point", "coordinates": [ -47.90832, -15.78377 ] } },
{ "type": "Feature", "properties": { "nome": "Ouvidoria – SEDET", "sigla": "SEDET", "orgao": "Secretaria de Estado de Desenvolvimento Econômico, Trabalho e Renda", "endereco": "SCS Quadra 02, Bloco C, Edifício Serra Dourada, Plano Piloto, Brasília - DF, 70300-902", "fonte": "validado", "libras": "Não", "selo": "Sim", "capacitado": "Sim", "itens": [ "Estacionamento com vaga reservada para PCD", "Rampa de acesso", "Corrimão na rampa de acesso", "Corrimão nas escadas", "Piso tátil", "Piso antiderrapante", "Banheiro adaptado", "Sala da ouvidoria em conformidade com os padrões e normas de acessibilidade" ], "acess": [ "Estacionamento com vaga reservada para PCD", "Rampa de acesso", "Corrimão na rampa de acesso", "Corrimão nas escadas", "Piso tátil", "Piso antiderrapante", "Banheiro adaptado", "Sala da ouvidoria em conformidade com os padrões e normas de acessibilidade", "Equipe capacitada em acessibilidade" ], "n_itens": 8, "data": "2025", "RA": "Plano Piloto" }, "geometry": { "type": "Point", "coordinates": [ -47.8864, -15.7969 ] } },
{ "type": "Feature", "properties": { "nome": "Ouvidoria – SEDS", "sigla": "SEDS", "orgao": "Secretaria de Estado de Desenvolvimento Social", "endereco": "SEPN 515, Bloco A, Edifício OAS, Asa Norte, Plano Piloto, Brasília - DF, 70770-501", "fonte": "validado", "libras": "Não", "selo": "Sim", "capacitado": "Sim", "itens": [ "Estacionamento com vaga reservada para PCD", "Rampa de acesso", "Corrimão na rampa de acesso", "Corrimão nas escadas", "Banheiro adaptado", "Sala da ouvidoria em conformidade com os padrões e normas de acessibilidade" ], "acess": [ "Estacionamento com vaga reservada para PCD", "Rampa de acesso", "Corrimão na rampa de acesso", "Corrimão nas escadas", "Banheiro adaptado", "Sala da ouvidoria em conformidade com os padrões e normas de acessibilidade", "Equipe capacitada em acessibilidade" ], "n_itens": 6, "data": "2025", "RA": "Plano Piloto" }, "geometry": { "type": "Point", "coordinates": [ -47.8931, -15.7533 ] } },
{ "type": "Feature", "properties": { "nome": "Ouvidoria – SEEC", "sigla": "SEEC", "orgao": "Secretaria de Estado de Economia", "endereco": "Anexo do Palácio do Buriti, Praça do Buriti", "fonte": "validado", "libras": "Sim", "selo": "Sim", "capacitado": "Sim", "itens": [ "Banheiro adaptado" ], "acess": [ "Banheiro adaptado", "Atendimento presencial em Libras", "Equipe capacitada em acessibilidade" ], "n_itens": 1, "data": "2025", "RA": "Plano Piloto" }, "geometry": { "type": "Point", "coordinates": [ -47.89034031, -15.78397476 ] } },
{ "type": "Feature", "properties": { "nome": "Ouvidoria – SEE", "sigla": "SEE", "orgao": "Secretaria de Estado de Educação", "endereco": "SBN Quadra 02, Bloco C, Edifício Phenícia, Asa Norte, Plano Piloto, Brasília - DF, 70040-020", "fonte": "validado", "libras": "Não", "selo": "Sim", "capacitado": "Sim", "itens": [ "Estacionamento com vaga reservada para PCD", "Rampa de acesso", "Corrimão na rampa de acesso", "Corrimão nas escadas", "Piso antiderrapante", "Banheiro adaptado", "Sala da ouvidoria em conformidade com os padrões e normas de acessibilidade" ], "acess": [ "Estacionamento com vaga reservada para PCD", "Rampa de acesso", "Corrimão na rampa de acesso", "Corrimão nas escadas", "Piso antiderrapante", "Banheiro adaptado", "Sala da ouvidoria em conformidade com os padrões e normas de acessibilidade", "Equipe capacitada em acessibilidade" ], "n_itens": 7, "data": "2025", "RA": "Plano Piloto" }, "geometry": { "type": "Point", "coordinates": [ -47.8822, -15.7917 ] } },
{ "type": "Feature", "properties": { "nome": "Ouvidoria – SEL", "sigla": "SEL", "orgao": "Secretaria de Estado de Esporte e Lazer", "endereco": "Centro de Convenções Ulysses Guimarães, SDC", "fonte": "validado", "libras": "Sim", "selo": "Sim", "capacitado": "Sim", "itens": [ "Estacionamento com vaga reservada para PCD", "Rampa de acesso", "Corrimão na rampa de acesso", "Corrimão nas escadas", "Piso tátil", "Piso antiderrapante", "Banheiro adaptado", "Sala da ouvidoria em conformidade com os padrões e normas de acessibilidade" ], "acess": [ "Estacionamento com vaga reservada para PCD", "Rampa de acesso", "Corrimão na rampa de acesso", "Corrimão nas escadas", "Piso tátil", "Piso antiderrapante", "Banheiro adaptado", "Sala da ouvidoria em conformidade com os padrões e normas de acessibilidade", "Atendimento presencial em Libras", "Equipe capacitada em acessibilidade" ], "n_itens": 8, "data": "25/10/2024", "RA": "Plano Piloto" }, "geometry": { "type": "Point", "coordinates": [ -47.878744, -15.7874753 ] } },
{ "type": "Feature", "properties": { "nome": "Ouvidoria – SEG", "sigla": "SEG", "orgao": "Secretaria de Estado de Governo", "endereco": "Palácio do Buriti, 16º Andar, Praça do Buriti, Plano Piloto, Brasília - DF, 70075-900", "fonte": "validado", "libras": "Não", "selo": "Sim", "capacitado": "Sim", "itens": [ "Estacionamento com vaga reservada para PCD", "Rampa de acesso", "Corrimão na rampa de acesso", "Corrimão nas escadas", "Piso tátil", "Piso antiderrapante", "Banheiro adaptado", "Sala da ouvidoria em conformidade com os padrões e normas de acessibilidade" ], "acess": [ "Estacionamento com vaga reservada para PCD", "Rampa de acesso", "Corrimão na rampa de acesso", "Corrimão nas escadas", "Piso tátil", "Piso antiderrapante", "Banheiro adaptado", "Sala da ouvidoria em conformidade com os padrões e normas de acessibilidade", "Equipe capacitada em acessibilidade" ], "n_itens": 8, "data": "2025", "RA": "Plano Piloto" }, "geometry": { "type": "Point", "coordinates": [ -47.9078, -15.7836 ] } },
{ "type": "Feature", "properties": { "nome": "Ouvidoria – SEJUS", "sigla": "SEJUS", "orgao": "Secretaria de Estado de Justiça e Cidadania", "endereco": "Estação Rodoferroviária, Ala Norte", "fonte": "validado", "libras": "Não", "selo": "Sim", "capacitado": "Sim", "itens": [ "Estacionamento com vaga reservada para PCD", "Rampa de acesso", "Piso tátil", "Banheiro adaptado", "Sala da ouvidoria em conformidade com os padrões e normas de acessibilidade" ], "acess": [ "Estacionamento com vaga reservada para PCD", "Rampa de acesso", "Piso tátil", "Banheiro adaptado", "Sala da ouvidoria em conformidade com os padrões e normas de acessibilidade", "Equipe capacitada em acessibilidade" ], "n_itens": 5, "data": "2025", "RA": "SIA" }, "geometry": { "type": "Point", "coordinates": [ -47.9406708, -15.77589322 ] } },
{ "type": "Feature", "properties": { "nome": "Ouvidoria – SEM", "sigla": "SEM", "orgao": "Secretaria de Estado de Mulher", "endereco": "Via S1, Praça do Buriti, Anexo do Palácio do Buriti, 8º Andar, Plano Piloto, Brasília - DF, 70075-900", "fonte": "validado", "libras": "Sim", "selo": "Sim", "capacitado": "Sim", "itens": [ "Estacionamento com vaga reservada para PCD", "Corrimão nas escadas", "Banheiro adaptado", "Sala da ouvidoria em conformidade com os padrões e normas de acessibilidade" ], "acess": [ "Estacionamento com vaga reservada para PCD", "Corrimão nas escadas", "Banheiro adaptado", "Sala da ouvidoria em conformidade com os padrões e normas de acessibilidade", "Atendimento presencial em Libras", "Equipe capacitada em acessibilidade" ], "n_itens": 4, "data": "2025", "RA": "Plano Piloto" }, "geometry": { "type": "Point", "coordinates": [ -47.9078, -15.7836 ] } },
{ "type": "Feature", "properties": { "nome": "Ouvidoria – SODF", "sigla": "SODF", "orgao": "Secretaria de Estado de Obras e Infraestrutura", "endereco": "Setor de Áreas Públicas (SAP), Lote B", "fonte": "validado", "libras": "Sim", "selo": "Sim", "capacitado": "Sim", "itens": [ "Estacionamento com vaga reservada para PCD", "Rampa de acesso", "Piso antiderrapante", "Banheiro adaptado", "Sala da ouvidoria em conformidade com os padrões e normas de acessibilidade" ], "acess": [ "Estacionamento com vaga reservada para PCD", "Rampa de acesso", "Piso antiderrapante", "Banheiro adaptado", "Sala da ouvidoria em conformidade com os padrões e normas de acessibilidade", "Atendimento presencial em Libras", "Equipe capacitada em acessibilidade" ], "n_itens": 5, "data": "2025", "RA": "Guará" }, "geometry": { "type": "Point", "coordinates": [ -47.95434351, -15.81566544 ] } },
{ "type": "Feature", "properties": { "nome": "Ouvidoria – DF Legal", "sigla": "DF Legal", "orgao": "Secretaria de Estado de Proteção da Ordem Urbanística - DF Legal", "endereco": "SIA Trecho 3, Lotes 1545/1555", "fonte": "validado", "libras": "Não", "selo": "Sim", "capacitado": "Sim", "itens": [ "Estacionamento com vaga reservada para PCD", "Rampa de acesso", "Corrimão na rampa de acesso", "Corrimão nas escadas", "Piso tátil", "Piso antiderrapante", "Banheiro adaptado", "Sala da ouvidoria em conformidade com os padrões e normas de acessibilidade" ], "acess": [ "Estacionamento com vaga reservada para PCD", "Rampa de acesso", "Corrimão na rampa de acesso", "Corrimão nas escadas", "Piso tátil", "Piso antiderrapante", "Banheiro adaptado", "Sala da ouvidoria em conformidade com os padrões e normas de acessibilidade", "Equipe capacitada em acessibilidade" ], "n_itens": 8, "data": "2025", "RA": "SIA" }, "geometry": { "type": "Point", "coordinates": [ -47.96545199, -15.8008515 ] } },
{ "type": "Feature", "properties": { "nome": "Ouvidoria – SES-DF", "sigla": "SES-DF", "orgao": "Secretaria de Estado de Saúde", "endereco": "SRTVN Quadra 701, Ed. PO700", "fonte": "validado", "libras": "Não", "selo": "Sim", "capacitado": "Sim", "itens": [ "Estacionamento com vaga reservada para PCD", "Rampa de acesso", "Corrimão na rampa de acesso", "Corrimão nas escadas", "Piso tátil", "Piso antiderrapante", "Banheiro adaptado", "Sala da ouvidoria em conformidade com os padrões e normas de acessibilidade" ], "acess": [ "Estacionamento com vaga reservada para PCD", "Rampa de acesso", "Corrimão na rampa de acesso", "Corrimão nas escadas", "Piso tátil", "Piso antiderrapante", "Banheiro adaptado", "Sala da ouvidoria em conformidade com os padrões e normas de acessibilidade", "Equipe capacitada em acessibilidade" ], "n_itens": 8, "data": "14/11/2024", "RA": "Plano Piloto" }, "geometry": { "type": "Point", "coordinates": [ -47.89015563, -15.78236303 ] } },
{ "type": "Feature", "properties": { "nome": "Ouvidoria do Hospital Regional De Ceilandia", "sigla": "SES-DF · HRC", "orgao": "Secretaria de Estado de Saúde", "endereco": "Area Especial, 1 – CEILANDIA SUL", "fonte": "shp", "libras": "Sim", "selo": "Sim", "capacitado": "Sim", "itens": [ "Estacionamento com vaga reservada para PCD", "Rampa de acesso", "Corrimão na rampa de acesso", "Corrimão nas escadas", "Piso tátil", "Piso antiderrapante", "Banheiro adaptado", "Sala da ouvidoria em conformidade com os padrões e normas de acessibilidade" ], "acess": [ "Estacionamento com vaga reservada para PCD", "Rampa de acesso", "Corrimão na rampa de acesso", "Corrimão nas escadas", "Piso tátil", "Piso antiderrapante", "Banheiro adaptado", "Sala da ouvidoria em conformidade com os padrões e normas de acessibilidade", "Atendimento presencial em Libras", "Equipe capacitada em acessibilidade" ], "n_itens": 8, "data": "2025", "RA": "Ceilândia" }, "geometry": { "type": "Point", "coordinates": [ -48.0963, -15.8154 ] } },
{ "type": "Feature", "properties": { "nome": "Ouvidoria do Hospital Regional Do Gama", "sigla": "SES-DF · HRG", "orgao": "Secretaria de Estado de Saúde", "endereco": "Area Especial, S/N – GAMA", "fonte": "shp", "libras": "Não", "selo": "Sim", "capacitado": "Sim", "itens": [ "Estacionamento com vaga reservada para PCD", "Rampa de acesso", "Corrimão na rampa de acesso", "Corrimão nas escadas", "Piso antiderrapante", "Banheiro adaptado", "Sala da ouvidoria em conformidade com os padrões e normas de acessibilidade" ], "acess": [ "Estacionamento com vaga reservada para PCD", "Rampa de acesso", "Corrimão na rampa de acesso", "Corrimão nas escadas", "Piso antiderrapante", "Banheiro adaptado", "Sala da ouvidoria em conformidade com os padrões e normas de acessibilidade", "Equipe capacitada em acessibilidade" ], "n_itens": 7, "data": "2025", "RA": "Gama" }, "geometry": { "type": "Point", "coordinates": [ -48.0687, -16.0236 ] } },
{ "type": "Feature", "properties": { "nome": "Ouvidoria do Hospital Regional De Planaltina", "sigla": "SES-DF · HRPL", "orgao": "Secretaria de Estado de Saúde", "endereco": "Avenida W L 04, S/N – PLANALTINA", "fonte": "shp", "libras": "Não", "selo": "Sim", "capacitado": "Sim", "itens": [ "Estacionamento com vaga reservada para PCD", "Rampa de acesso", "Corrimão na rampa de acesso", "Corrimão nas escadas", "Banheiro adaptado", "Sala da ouvidoria em conformidade com os padrões e normas de acessibilidade" ], "acess": [ "Estacionamento com vaga reservada para PCD", "Rampa de acesso", "Corrimão na rampa de acesso", "Corrimão nas escadas", "Banheiro adaptado", "Sala da ouvidoria em conformidade com os padrões e normas de acessibilidade", "Equipe capacitada em acessibilidade" ], "n_itens": 6, "data": "2025", "RA": "Planaltina" }, "geometry": { "type": "Point", "coordinates": [ -47.6528, -15.6255 ] } },
{ "type": "Feature", "properties": { "nome": "Ouvidoria – SEMOB", "sigla": "SEMOB", "orgao": "Secretaria de Estado de Transporte e Mobilidade", "endereco": "Anexo do Palácio do Buriti, Praça do Buriti", "fonte": "validado", "libras": "Não", "selo": "Sim", "capacitado": "Sim", "itens": [ "Estacionamento com vaga reservada para PCD", "Rampa de acesso", "Corrimão na rampa de acesso", "Corrimão nas escadas", "Piso tátil", "Piso antiderrapante", "Banheiro adaptado", "Sala da ouvidoria em conformidade com os padrões e normas de acessibilidade" ], "acess": [ "Estacionamento com vaga reservada para PCD", "Rampa de acesso", "Corrimão na rampa de acesso", "Corrimão nas escadas", "Piso tátil", "Piso antiderrapante", "Banheiro adaptado", "Sala da ouvidoria em conformidade com os padrões e normas de acessibilidade", "Equipe capacitada em acessibilidade" ], "n_itens": 8, "data": "2025", "RA": "SIA" }, "geometry": { "type": "Point", "coordinates": [ -47.94153879, -15.77388876 ] } },
{ "type": "Feature", "properties": { "nome": "Ouvidoria – SEMA", "sigla": "SEMA", "orgao": "Secretaria de Estado do Meio Ambiente", "endereco": "SEPN 511, Bloco C, Edifício Spazio Brasilia, Asa Norte, Plano Piloto, Brasília - DF, 70750-543", "fonte": "validado", "libras": "Não", "selo": "Sim", "capacitado": "Sim", "itens": [ "Estacionamento com vaga reservada para PCD", "Corrimão nas escadas", "Banheiro adaptado", "Sala da ouvidoria em conformidade com os padrões e normas de acessibilidade" ], "acess": [ "Estacionamento com vaga reservada para PCD", "Corrimão nas escadas", "Banheiro adaptado", "Sala da ouvidoria em conformidade com os padrões e normas de acessibilidade", "Equipe capacitada em acessibilidade" ], "n_itens": 4, "data": "2025", "RA": "Plano Piloto" }, "geometry": { "type": "Point", "coordinates": [ -47.8903, -15.7578 ] } },
{ "type": "Feature", "properties": { "nome": "Ouvidoria – SLU", "sigla": "SLU", "orgao": "Serviço de Limpeza Urbana do DF (SLU)", "endereco": "SCS Quadra 08, Bloco B-60, Edifício Venâncio Shopping, 3º Andar, Plano Piloto, Brasília - DF, 70333-900", "fonte": "validado", "libras": "Sim", "selo": "Sim", "capacitado": "Sim", "itens": [ "Estacionamento com vaga reservada para PCD", "Rampa de acesso", "Corrimão na rampa de acesso", "Corrimão nas escadas", "Banheiro adaptado", "Sala da ouvidoria em conformidade com os padrões e normas de acessibilidade" ], "acess": [ "Estacionamento com vaga reservada para PCD", "Rampa de acesso", "Corrimão na rampa de acesso", "Corrimão nas escadas", "Banheiro adaptado", "Sala da ouvidoria em conformidade com os padrões e normas de acessibilidade", "Atendimento presencial em Libras", "Equipe capacitada em acessibilidade" ], "n_itens": 6, "data": "2025", "RA": "Plano Piloto" }, "geometry": { "type": "Point", "coordinates": [ -47.8889, -15.7975 ] } },
{ "type": "Feature", "properties": { "nome": "Ouvidoria – UNDF", "sigla": "UNDF", "orgao": "Universidade do Distrito Federal Prof. Jorge Amaury (UNDF)", "endereco": "CA 02, Lote 02, Edifício Complexo de Ensino Superior, Lago Norte, Brasília - DF, 71503-502", "fonte": "validado", "libras": "Não", "selo": "Sim", "capacitado": "Sim", "itens": [ "Estacionamento com vaga reservada para PCD", "Rampa de acesso", "Corrimão na rampa de acesso", "Corrimão nas escadas", "Piso tátil", "Piso antiderrapante", "Banheiro adaptado", "Sala da ouvidoria em conformidade com os padrões e normas de acessibilidade" ], "acess": [ "Estacionamento com vaga reservada para PCD", "Rampa de acesso", "Corrimão na rampa de acesso", "Corrimão nas escadas", "Piso tátil", "Piso antiderrapante", "Banheiro adaptado", "Sala da ouvidoria em conformidade com os padrões e normas de acessibilidade", "Equipe capacitada em acessibilidade" ], "n_itens": 8, "data": "2025", "RA": "Plano Piloto" }, "geometry": { "type": "Point", "coordinates": [ -47.8864, -15.7369 ] } }
]
}
