{
"type": "FeatureCollection",
"name": "regioes_saude",
"crs": { "type": "name", "properties": { "name": "urn:ogc:def:crs:OGC:1.3:CRS84" } },
"features": [
{ "type": "Feature", "properties": { "RS": "Central", "Regioes_Ad": "Cruzeiro, Lago Norte, Lago Sul, Plano Piloto, Sudoeste/Octogonal, Varjão", "Macro": "Macrorregiāo 2" }, "geometry": { "type": "MultiPolygon", "coordinates": [ [ [ [ -47.9354, -15.8932 ], [ -47.941, -15.8962 ], [ -47.9461, -15.8951 ], [ -47.9519, -15.8845 ], [ -47.9563, -15.8813 ], [ -47.9562, -15.8801 ], [ -47.9365, -15.87 ], [ -47.9366, -15.8669 ], [ -47.9318, -15.8493 ], [ -47.9315, -15.8451 ], [ -47.9406, -15.8445 ], [ -47.9533, -15.8404 ], [ -47.9474, -15.8038 ], [ -47.9386, -15.7774 ], [ -47.9363, -15.7712 ], [ -47.917, -15.7402 ], [ -47.9195, -15.74 ], [ -47.9212, -15.7426 ], [ -47.9211, -15.7442 ], [ -47.9279, -15.7402 ], [ -47.9423, -15.7479 ], [ -47.949, -15.7478 ], [ -47.9633, -15.7489 ], [ -47.9696, -15.7526 ], [ -47.9728, -15.7558 ], [ -47.9763, -15.7642 ], [ -47.9756, -15.772 ], [ -47.9712, -15.7766 ], [ -47.9783, -15.7826 ], [ -48.0043, -15.7549 ], [ -48.0169, -15.7516 ], [ -48.0476, -15.7537 ], [ -48.0506, -15.7471 ], [ -48.0524, -15.7446 ], [ -48.0559, -15.7415 ], [ -48.0609, -15.7388 ], [ -48.0729, -15.7365 ], [ -48.0771, -15.7347 ], [ -48.0832, -15.7304 ], [ -48.0862, -15.7248 ], [ -48.0897, -15.6782 ], [ -48.0756, -15.63 ], [ -48.074, -15.6277 ], [ -48.0709, -15.625 ], [ -48.0495, -15.6152 ], [ -48.0451, -15.6125 ], [ -48.0276, -15.5916 ], [ -48.0142, -15.5799 ], [ -48.0107, -15.5783 ], [ -48.0056, -15.5782 ], [ -48.0012, -15.5804 ], [ -47.9592, -15.6124 ], [ -47.8852, -15.6666 ], [ -47.8581, -15.6892 ], [ -47.8514, -15.6926 ], [ -47.8383, -15.6929 ], [ -47.834, -15.6943 ], [ -47.7931, -15.7224 ], [ -47.7908, -15.7255 ], [ -47.784, -15.7432 ], [ -47.7909, -15.7457 ], [ -47.7915, -15.7481 ], [ -47.7863, -15.7494 ], [ -47.787, -15.7522 ], [ -47.7852, -15.7523 ], [ -47.7847, -15.756 ], [ -47.7855, -15.7559 ], [ -47.7864, -15.7577 ], [ -47.7852, -15.7581 ], [ -47.7849, -15.7597 ], [ -47.7839, -15.7605 ], [ -47.7873, -15.7615 ], [ -47.7898, -15.7615 ], [ -47.8077, -15.7587 ], [ -47.8103, -15.7573 ], [ -47.8131, -15.7581 ], [ -47.8089, -15.763 ], [ -47.8085, -15.7645 ], [ -47.8124, -15.7689 ], [ -47.8132, -15.7723 ], [ -47.8088, -15.7799 ], [ -47.8061, -15.7829 ], [ -47.8046, -15.7867 ], [ -47.8035, -15.7874 ], [ -47.8013, -15.7868 ], [ -47.7979, -15.7827 ], [ -47.7952, -15.7812 ], [ -47.7868, -15.782 ], [ -47.7891, -15.7906 ], [ -47.788, -15.789 ], [ -47.7878, -15.789 ], [ -47.7879, -15.7892 ], [ -47.7879, -15.7894 ], [ -47.7878, -15.7897 ], [ -47.7874, -15.7896 ], [ -47.7877, -15.7907 ], [ -47.7859, -15.7906 ], [ -47.7855, -15.7934 ], [ -47.7844, -15.7938 ], [ -47.7845, -15.7972 ], [ -47.7839, -15.7979 ], [ -47.7884, -15.8096 ], [ -47.796, -15.8245 ], [ -47.8153, -15.8495 ], [ -47.8205, -15.864 ], [ -47.8307, -15.8593 ], [ -47.843, -15.8662 ], [ -47.8451, -15.8628 ], [ -47.8429, -15.8616 ], [ -47.8506, -15.8572 ], [ -47.8536, -15.8566 ], [ -47.8563, -15.8588 ], [ -47.8512, -15.8687 ], [ -47.857, -15.8712 ], [ -47.8561, -15.8732 ], [ -47.8801, -15.8849 ], [ -47.8937, -15.9007 ], [ -47.8823, -15.9135 ], [ -47.8827, -15.9137 ], [ -47.8845, -15.9135 ], [ -47.8898, -15.9111 ], [ -47.8928, -15.9117 ], [ -47.8961, -15.9113 ], [ -47.8963, -15.9118 ], [ -47.8983, -15.9121 ], [ -47.9017, -15.9112 ], [ -47.9041, -15.9121 ], [ -47.9053, -15.9116 ], [ -47.9077, -15.9126 ], [ -47.9093, -15.9106 ], [ -47.9092, -15.9099 ], [ -47.9119, -15.9097 ], [ -47.9133, -15.9084 ], [ -47.9111, -15.9051 ], [ -47.9106, -15.9 ], [ -47.9083, -15.897 ], [ -47.9089, -15.8962 ], [ -47.9063, -15.8926 ], [ -47.9066, -15.8918 ], [ -47.9054, -15.8908 ], [ -47.9061, -15.8895 ], [ -47.9065, -15.8853 ], [ -47.9056, -15.8835 ], [ -47.9061, -15.8813 ], [ -47.9078, -15.8817 ], [ -47.9085, -15.8813 ], [ -47.9098, -15.8822 ], [ -47.9161, -15.8834 ], [ -47.9196, -15.8834 ], [ -47.9238, -15.8849 ], [ -47.9354, -15.8932 ] ] ], [ [ [ -47.7879, -15.7894 ], [ -47.7878, -15.7893 ], [ -47.7877, -15.7893 ], [ -47.7879, -15.7894 ] ] ], [ [ [ -47.7877, -15.7888 ], [ -47.7878, -15.7888 ], [ -47.7878, -15.7886 ], [ -47.7877, -15.7888 ] ] ] ] } },
{ "type": "Feature", "properties": { "RS": "Centro-Sul", "Regioes_Ad": "Candagolândia, Guará, Núcleo Bandeirante, Park Way, Riacho Fundo I, Riacho Fundo II, SCIA/Estrutural, SIA", "Macro": "Macrorregião 2" }, "geometry": { "type": "Polygon", "coordinates": [ [ [ -48.003, -15.7862 ], [ -48.0042, -15.7846 ], [ -48.0041, -15.783 ], [ -48.0059, -15.7797 ], [ -48.0061, -15.7762 ], [ -48.0068, -15.7751 ], [ -48.0061, -15.7706 ], [ -48.0068, -15.7692 ], [ -48.0065, -15.7669 ], [ -48.0073, -15.763 ], [ -48.0062, -15.7592 ], [ -48.0051, -15.7583 ], [ -48.0047, -15.7548 ], [ -47.9779, -15.7826 ], [ -47.9712, -15.7766 ], [ -47.9756, -15.772 ], [ -47.9763, -15.7642 ], [ -47.9728, -15.7558 ], [ -47.9696, -15.7526 ], [ -47.9633, -15.7489 ], [ -47.949, -15.7478 ], [ -47.9423, -15.7479 ], [ -47.9279, -15.7402 ], [ -47.9211, -15.7442 ], [ -47.9212, -15.7426 ], [ -47.9195, -15.74 ], [ -47.917, -15.7402 ], [ -47.9363, -15.7712 ], [ -47.9386, -15.7774 ], [ -47.9474, -15.8038 ], [ -47.9533, -15.8404 ], [ -47.9406, -15.8445 ], [ -47.9315, -15.8451 ], [ -47.9318, -15.8493 ], [ -47.9367, -15.8674 ], [ -47.9362, -15.8693 ], [ -47.9366, -15.8701 ], [ -47.9562, -15.8801 ], [ -47.9563, -15.8813 ], [ -47.9519, -15.8845 ], [ -47.9461, -15.8951 ], [ -47.941, -15.8962 ], [ -47.9386, -15.895 ], [ -47.9376, -15.8938 ], [ -47.9354, -15.8932 ], [ -47.9238, -15.8849 ], [ -47.9196, -15.8834 ], [ -47.9161, -15.8834 ], [ -47.9098, -15.8822 ], [ -47.9085, -15.8813 ], [ -47.908, -15.8817 ], [ -47.9061, -15.8813 ], [ -47.9056, -15.8835 ], [ -47.9065, -15.8853 ], [ -47.9061, -15.8895 ], [ -47.9054, -15.8908 ], [ -47.9066, -15.8918 ], [ -47.9063, -15.8926 ], [ -47.9089, -15.8962 ], [ -47.9083, -15.897 ], [ -47.9106, -15.9 ], [ -47.9111, -15.9051 ], [ -47.9133, -15.9084 ], [ -47.9119, -15.9097 ], [ -47.9092, -15.9099 ], [ -47.9069, -15.9152 ], [ -47.9061, -15.9153 ], [ -47.9058, -15.9167 ], [ -47.9067, -15.9184 ], [ -47.9069, -15.9215 ], [ -47.9062, -15.9243 ], [ -47.9019, -15.9322 ], [ -47.9005, -15.9341 ], [ -47.8987, -15.9352 ], [ -47.8977, -15.9399 ], [ -47.8963, -15.9424 ], [ -47.8967, -15.9447 ], [ -47.8961, -15.946 ], [ -47.893, -15.9488 ], [ -47.8921, -15.9489 ], [ -47.8888, -15.9531 ], [ -47.8872, -15.9577 ], [ -47.8877, -15.9586 ], [ -47.8875, -15.9675 ], [ -47.9291, -15.9827 ], [ -47.9365, -15.984 ], [ -47.9455, -15.9829 ], [ -47.9663, -15.9756 ], [ -47.9712, -15.9746 ], [ -47.9784, -15.9746 ], [ -47.9966, -15.978 ], [ -48.003, -15.9781 ], [ -48.0091, -15.9764 ], [ -48.0149, -15.9726 ], [ -48.0402, -15.9426 ], [ -48.0428, -15.9371 ], [ -48.0603, -15.8824 ], [ -48.0547, -15.8802 ], [ -48.0462, -15.8746 ], [ -48.0438, -15.8738 ], [ -48.0129, -15.8782 ], [ -47.9921, -15.8765 ], [ -47.9939, -15.869 ], [ -47.9914, -15.868 ], [ -47.9919, -15.8662 ], [ -47.9865, -15.8648 ], [ -47.9883, -15.8628 ], [ -47.9879, -15.8624 ], [ -47.9946, -15.8566 ], [ -47.995, -15.8569 ], [ -47.9965, -15.8554 ], [ -47.9961, -15.855 ], [ -48.0006, -15.8505 ], [ -47.9988, -15.8487 ], [ -47.9999, -15.8464 ], [ -48.0025, -15.8486 ], [ -48.0064, -15.8502 ], [ -48.0109, -15.8411 ], [ -48.0036, -15.8381 ], [ -48.0053, -15.8343 ], [ -48.0078, -15.8354 ], [ -48.0086, -15.8344 ], [ -48.0137, -15.8222 ], [ -48.0112, -15.8212 ], [ -48.0107, -15.8221 ], [ -48.0041, -15.8193 ], [ -48.0031, -15.8181 ], [ -48.0011, -15.818 ], [ -48.0015, -15.8172 ], [ -48.0045, -15.8155 ], [ -48.0049, -15.8146 ], [ -47.9961, -15.8113 ], [ -47.9929, -15.811 ], [ -47.9924, -15.8086 ], [ -47.9898, -15.7873 ], [ -47.9957, -15.7863 ], [ -48.003, -15.7862 ] ] ] } },
{ "type": "Feature", "properties": { "RS": "Leste", "Regioes_Ad": "Itapoã, Jardim Botânico, Paranoá, São Sebastião", "Macro": "Macrorregiāo 3" }, "geometry": { "type": "Polygon", "coordinates": [ [ [ -47.7891, -15.7906 ], [ -47.7871, -15.7819 ], [ -47.7952, -15.7812 ], [ -47.7979, -15.7827 ], [ -47.8013, -15.7868 ], [ -47.8035, -15.7874 ], [ -47.8046, -15.7867 ], [ -47.8061, -15.7829 ], [ -47.8088, -15.7799 ], [ -47.8132, -15.7723 ], [ -47.8124, -15.7689 ], [ -47.8085, -15.7645 ], [ -47.8089, -15.763 ], [ -47.8131, -15.7581 ], [ -47.8103, -15.7573 ], [ -47.8077, -15.7587 ], [ -47.7898, -15.7615 ], [ -47.7873, -15.7615 ], [ -47.7839, -15.7605 ], [ -47.7849, -15.7597 ], [ -47.7852, -15.7581 ], [ -47.7864, -15.7577 ], [ -47.7855, -15.7559 ], [ -47.7847, -15.756 ], [ -47.7852, -15.7523 ], [ -47.787, -15.7522 ], [ -47.7863, -15.7494 ], [ -47.7915, -15.7481 ], [ -47.7909, -15.7457 ], [ -47.784, -15.7432 ], [ -47.7901, -15.7275 ], [ -47.7814, -15.724 ], [ -47.7762, -15.7245 ], [ -47.7718, -15.7231 ], [ -47.7618, -15.7133 ], [ -47.7617, -15.7142 ], [ -47.7596, -15.7149 ], [ -47.7575, -15.7176 ], [ -47.7541, -15.7181 ], [ -47.7521, -15.7194 ], [ -47.75, -15.7219 ], [ -47.748, -15.723 ], [ -47.7477, -15.724 ], [ -47.7444, -15.7245 ], [ -47.7445, -15.7252 ], [ -47.7426, -15.7277 ], [ -47.7375, -15.728 ], [ -47.7332, -15.7262 ], [ -47.7308, -15.7269 ], [ -47.7292, -15.7283 ], [ -47.7255, -15.7268 ], [ -47.721, -15.7265 ], [ -47.7193, -15.7253 ], [ -47.7179, -15.7271 ], [ -47.7135, -15.7283 ], [ -47.7102, -15.7266 ], [ -47.7093, -15.7276 ], [ -47.7077, -15.7269 ], [ -47.7051, -15.7271 ], [ -47.7036, -15.7263 ], [ -47.7026, -15.7284 ], [ -47.7011, -15.7284 ], [ -47.7009, -15.7274 ], [ -47.6978, -15.7273 ], [ -47.693, -15.7258 ], [ -47.6895, -15.7269 ], [ -47.6875, -15.7294 ], [ -47.6851, -15.7304 ], [ -47.6849, -15.7311 ], [ -47.6836, -15.7311 ], [ -47.6826, -15.7323 ], [ -47.6818, -15.7321 ], [ -47.6806, -15.7338 ], [ -47.6787, -15.7338 ], [ -47.6783, -15.7327 ], [ -47.677, -15.7319 ], [ -47.6769, -15.7325 ], [ -47.6758, -15.7323 ], [ -47.6745, -15.7331 ], [ -47.6758, -15.7342 ], [ -47.6747, -15.7344 ], [ -47.6703, -15.7307 ], [ -47.6647, -15.7273 ], [ -47.6605, -15.7274 ], [ -47.6644, -15.7457 ], [ -47.6641, -15.7497 ], [ -47.642, -15.7894 ], [ -47.6211, -15.863 ], [ -47.6051, -15.8588 ], [ -47.6029, -15.8589 ], [ -47.5582, -15.8723 ], [ -47.5561, -15.8724 ], [ -47.5535, -15.8716 ], [ -47.52, -15.8535 ], [ -47.5174, -15.8531 ], [ -47.4672, -15.8631 ], [ -47.4629, -15.8625 ], [ -47.4561, -15.8584 ], [ -47.4525, -15.8577 ], [ -47.423, -15.8642 ], [ -47.3871, -15.8569 ], [ -47.3853, -15.846 ], [ -47.3831, -15.8471 ], [ -47.3823, -15.8466 ], [ -47.3825, -15.8454 ], [ -47.3807, -15.8454 ], [ -47.3802, -15.8456 ], [ -47.3809, -15.8464 ], [ -47.3801, -15.8471 ], [ -47.379, -15.8463 ], [ -47.379, -15.8471 ], [ -47.3784, -15.8472 ], [ -47.3777, -15.8461 ], [ -47.3774, -15.8468 ], [ -47.3754, -15.8454 ], [ -47.3753, -15.8461 ], [ -47.3738, -15.8446 ], [ -47.3727, -15.845 ], [ -47.3731, -15.8459 ], [ -47.3723, -15.8463 ], [ -47.3696, -15.8458 ], [ -47.3688, -15.8465 ], [ -47.369, -15.8476 ], [ -47.3709, -15.8474 ], [ -47.3713, -15.8487 ], [ -47.3687, -15.8489 ], [ -47.3694, -15.8501 ], [ -47.3679, -15.8524 ], [ -47.3684, -15.8538 ], [ -47.3709, -15.8548 ], [ -47.3696, -15.8553 ], [ -47.3694, -15.8575 ], [ -47.3707, -15.86 ], [ -47.3698, -15.8614 ], [ -47.3715, -15.8623 ], [ -47.3716, -15.863 ], [ -47.3725, -15.8625 ], [ -47.3744, -15.8642 ], [ -47.3734, -15.8654 ], [ -47.3708, -15.8649 ], [ -47.3716, -15.8669 ], [ -47.3713, -15.8683 ], [ -47.3733, -15.8692 ], [ -47.3724, -15.8709 ], [ -47.3715, -15.8708 ], [ -47.3718, -15.8722 ], [ -47.374, -15.8729 ], [ -47.372, -15.8736 ], [ -47.3721, -15.8744 ], [ -47.3738, -15.8758 ], [ -47.3736, -15.8773 ], [ -47.3749, -15.8777 ], [ -47.3746, -15.8787 ], [ -47.3756, -15.8789 ], [ -47.3749, -15.8794 ], [ -47.3767, -15.8814 ], [ -47.3773, -15.8816 ], [ -47.3777, -15.8806 ], [ -47.3786, -15.8812 ], [ -47.3794, -15.8805 ], [ -47.3807, -15.8814 ], [ -47.3802, -15.882 ], [ -47.3778, -15.8821 ], [ -47.3769, -15.883 ], [ -47.3788, -15.8842 ], [ -47.378, -15.8857 ], [ -47.379, -15.8864 ], [ -47.3783, -15.8882 ], [ -47.3778, -15.8873 ], [ -47.377, -15.888 ], [ -47.378, -15.8917 ], [ -47.3767, -15.8912 ], [ -47.3762, -15.8917 ], [ -47.3765, -15.8924 ], [ -47.3757, -15.8927 ], [ -47.3766, -15.8937 ], [ -47.3758, -15.8954 ], [ -47.3775, -15.8962 ], [ -47.3747, -15.8969 ], [ -47.3758, -15.8983 ], [ -47.3756, -15.8998 ], [ -47.3738, -15.8993 ], [ -47.3724, -15.8999 ], [ -47.3749, -15.9069 ], [ -47.3721, -15.9065 ], [ -47.3709, -15.9079 ], [ -47.3683, -15.9084 ], [ -47.3672, -15.908 ], [ -47.3655, -15.9094 ], [ -47.3667, -15.9103 ], [ -47.3659, -15.9108 ], [ -47.367, -15.9116 ], [ -47.3683, -15.9108 ], [ -47.3678, -15.9125 ], [ -47.3662, -15.9126 ], [ -47.3679, -15.9147 ], [ -47.3681, -15.9167 ], [ -47.3693, -15.9175 ], [ -47.3682, -15.9181 ], [ -47.3691, -15.9181 ], [ -47.3692, -15.9186 ], [ -47.3673, -15.9198 ], [ -47.3677, -15.9207 ], [ -47.3665, -15.9211 ], [ -47.3648, -15.9194 ], [ -47.3639, -15.9198 ], [ -47.362, -15.9219 ], [ -47.3624, -15.9243 ], [ -47.3612, -15.9258 ], [ -47.3621, -15.9264 ], [ -47.3619, -15.9274 ], [ -47.3627, -15.928 ], [ -47.3621, -15.9293 ], [ -47.3644, -15.9299 ], [ -47.3624, -15.9314 ], [ -47.3626, -15.9319 ], [ -47.3643, -15.9311 ], [ -47.3648, -15.9314 ], [ -47.3647, -15.9307 ], [ -47.3653, -15.9304 ], [ -47.3662, -15.9312 ], [ -47.3651, -15.9335 ], [ -47.3681, -15.933 ], [ -47.3689, -15.9351 ], [ -47.372, -15.9352 ], [ -47.3735, -15.9367 ], [ -47.3729, -15.9387 ], [ -47.3711, -15.936 ], [ -47.3699, -15.9363 ], [ -47.371, -15.9388 ], [ -47.372, -15.9387 ], [ -47.3726, -15.9407 ], [ -47.3706, -15.9404 ], [ -47.369, -15.9412 ], [ -47.3702, -15.9415 ], [ -47.3708, -15.9429 ], [ -47.3698, -15.9431 ], [ -47.37, -15.9451 ], [ -47.3685, -15.9471 ], [ -47.3705, -15.9472 ], [ -47.3706, -15.9458 ], [ -47.3715, -15.9468 ], [ -47.3706, -15.9511 ], [ -47.3724, -15.9535 ], [ -47.3718, -15.9558 ], [ -47.3751, -15.9565 ], [ -47.3747, -15.9582 ], [ -47.3733, -15.9584 ], [ -47.3731, -15.96 ], [ -47.3742, -15.96 ], [ -47.3761, -15.9616 ], [ -47.3786, -15.9622 ], [ -47.3775, -15.9629 ], [ -47.3768, -15.9651 ], [ -47.3753, -15.9667 ], [ -47.3762, -15.9676 ], [ -47.3762, -15.9689 ], [ -47.3792, -15.9683 ], [ -47.3771, -15.9712 ], [ -47.3773, -15.9722 ], [ -47.3789, -15.9735 ], [ -47.379, -15.974 ], [ -47.3781, -15.974 ], [ -47.3777, -15.9749 ], [ -47.3789, -15.978 ], [ -47.3764, -15.9783 ], [ -47.3756, -15.9804 ], [ -47.3743, -15.9797 ], [ -47.3737, -15.9803 ], [ -47.3737, -15.9812 ], [ -47.3765, -15.9824 ], [ -47.3758, -15.9839 ], [ -47.3765, -15.9858 ], [ -47.3736, -15.9934 ], [ -47.3706, -15.9953 ], [ -47.3704, -16.0003 ], [ -47.3691, -16.0025 ], [ -47.3655, -16.0015 ], [ -47.3649, -16.0021 ], [ -47.3646, -16.0047 ], [ -47.3618, -16.0066 ], [ -47.3604, -16.0066 ], [ -47.3597, -16.0083 ], [ -47.3566, -16.0088 ], [ -47.3545, -16.0076 ], [ -47.3497, -16.0071 ], [ -47.3485, -16.0075 ], [ -47.3465, -16.0091 ], [ -47.3455, -16.0113 ], [ -47.3399, -16.0132 ], [ -47.3398, -16.0146 ], [ -47.3407, -16.0166 ], [ -47.3406, -16.0192 ], [ -47.3368, -16.0183 ], [ -47.3361, -16.0199 ], [ -47.3306, -16.0233 ], [ -47.3303, -16.0249 ], [ -47.329, -16.0259 ], [ -47.3284, -16.0276 ], [ -47.3215, -16.0305 ], [ -47.318, -16.036 ], [ -47.3145, -16.0357 ], [ -47.3109, -16.0363 ], [ -47.3117, -16.0408 ], [ -47.3101, -16.05 ], [ -47.8885, -16.0503 ], [ -47.8853, -16.0472 ], [ -47.8816, -16.0461 ], [ -47.8808, -16.0442 ], [ -47.8791, -16.0429 ], [ -47.8789, -16.0416 ], [ -47.8765, -16.0404 ], [ -47.8756, -16.0392 ], [ -47.8737, -16.0389 ], [ -47.873, -16.0394 ], [ -47.8725, -16.0385 ], [ -47.8685, -16.0375 ], [ -47.8716, -16.0321 ], [ -47.8726, -16.0317 ], [ -47.8735, -16.0286 ], [ -47.8749, -16.0272 ], [ -47.8749, -16.0249 ], [ -47.8758, -16.0227 ], [ -47.8771, -16.0208 ], [ -47.877, -16.0183 ], [ -47.875, -16.0153 ], [ -47.8715, -16.0139 ], [ -47.8705, -16.0128 ], [ -47.8714, -16.0125 ], [ -47.8724, -16.0109 ], [ -47.8741, -16.0105 ], [ -47.8756, -16.0076 ], [ -47.8785, -16.0 ], [ -47.8779, -15.9971 ], [ -47.8783, -15.9939 ], [ -47.8805, -15.9901 ], [ -47.881, -15.9863 ], [ -47.8835, -15.9818 ], [ -47.8847, -15.9778 ], [ -47.8875, -15.9767 ], [ -47.889, -15.9741 ], [ -47.8893, -15.9721 ], [ -47.8902, -15.9711 ], [ -47.8915, -15.9713 ], [ -47.8924, -15.9694 ], [ -47.8875, -15.9675 ], [ -47.8873, -15.9573 ], [ -47.8896, -15.9517 ], [ -47.8921, -15.9489 ], [ -47.893, -15.9488 ], [ -47.8961, -15.946 ], [ -47.8967, -15.9447 ], [ -47.8963, -15.9424 ], [ -47.8977, -15.9399 ], [ -47.8987, -15.9352 ], [ -47.9005, -15.9341 ], [ -47.9019, -15.9322 ], [ -47.9062, -15.9243 ], [ -47.9069, -15.9215 ], [ -47.9067, -15.9184 ], [ -47.9058, -15.9167 ], [ -47.9079, -15.9126 ], [ -47.9065, -15.9125 ], [ -47.9053, -15.9116 ], [ -47.9046, -15.9121 ], [ -47.9031, -15.9114 ], [ -47.9024, -15.9118 ], [ -47.9017, -15.9112 ], [ -47.8983, -15.9121 ], [ -47.8963, -15.9118 ], [ -47.8961, -15.9113 ], [ -47.8928, -15.9117 ], [ -47.8898, -15.9111 ], [ -47.8845, -15.9135 ], [ -47.8823, -15.9135 ], [ -47.8937, -15.9007 ], [ -47.8801, -15.8849 ], [ -47.8561, -15.8732 ], [ -47.857, -15.8712 ], [ -47.8512, -15.8687 ], [ -47.8563, -15.8588 ], [ -47.8536, -15.8566 ], [ -47.8506, -15.8572 ], [ -47.8429, -15.8616 ], [ -47.8451, -15.8628 ], [ -47.843, -15.8662 ], [ -47.8307, -15.8593 ], [ -47.8205, -15.864 ], [ -47.8153, -15.8495 ], [ -47.796, -15.8245 ], [ -47.7866, -15.8056 ], [ -47.7859, -15.8022 ], [ -47.7839, -15.7979 ], [ -47.7845, -15.7972 ], [ -47.7844, -15.7938 ], [ -47.7855, -15.7934 ], [ -47.7859, -15.7906 ], [ -47.7879, -15.7905 ], [ -47.7874, -15.7897 ], [ -47.7878, -15.7897 ], [ -47.7879, -15.7894 ], [ -47.7878, -15.789 ], [ -47.7891, -15.7906 ] ], [ [ -47.7879, -15.7894 ], [ -47.7877, -15.7893 ], [ -47.7878, -15.7893 ], [ -47.7879, -15.7894 ] ], [ [ -47.7878, -15.7887 ], [ -47.7877, -15.7888 ], [ -47.7878, -15.7886 ], [ -47.7878, -15.7887 ] ] ] } },
{ "type": "Feature", "properties": { "RS": "Norte", "Regioes_Ad": "Fercal, Planaltina, Sobradinho, Sobradinho II", "Macro": "Macrorregião 3" }, "geometry": { "type": "Polygon", "coordinates": [ [ [ -47.4184, -15.5018 ], [ -47.4184, -15.5451 ], [ -47.4141, -15.5482 ], [ -47.4111, -15.547 ], [ -47.4097, -15.5479 ], [ -47.4082, -15.5479 ], [ -47.4059, -15.5467 ], [ -47.4026, -15.5475 ], [ -47.4022, -15.5493 ], [ -47.4029, -15.5495 ], [ -47.4013, -15.5504 ], [ -47.401, -15.5514 ], [ -47.3991, -15.5509 ], [ -47.3981, -15.5533 ], [ -47.3991, -15.5535 ], [ -47.3995, -15.557 ], [ -47.3969, -15.5576 ], [ -47.3959, -15.5585 ], [ -47.3944, -15.5578 ], [ -47.3937, -15.5583 ], [ -47.3942, -15.559 ], [ -47.3933, -15.5622 ], [ -47.3914, -15.5625 ], [ -47.3901, -15.5662 ], [ -47.3909, -15.5666 ], [ -47.3894, -15.5675 ], [ -47.3872, -15.5672 ], [ -47.3868, -15.5666 ], [ -47.3859, -15.567 ], [ -47.3855, -15.5662 ], [ -47.3845, -15.5674 ], [ -47.3837, -15.5668 ], [ -47.3806, -15.5667 ], [ -47.3801, -15.5674 ], [ -47.3806, -15.5683 ], [ -47.3795, -15.569 ], [ -47.3793, -15.5735 ], [ -47.3768, -15.5766 ], [ -47.3747, -15.5772 ], [ -47.3742, -15.5765 ], [ -47.3732, -15.5775 ], [ -47.3725, -15.5771 ], [ -47.3705, -15.5783 ], [ -47.37, -15.5779 ], [ -47.3686, -15.5793 ], [ -47.3657, -15.578 ], [ -47.362, -15.5777 ], [ -47.3614, -15.5801 ], [ -47.3598, -15.5793 ], [ -47.3594, -15.5803 ], [ -47.3583, -15.5801 ], [ -47.3574, -15.5808 ], [ -47.3568, -15.5796 ], [ -47.3537, -15.58 ], [ -47.3535, -15.5806 ], [ -47.3505, -15.5801 ], [ -47.3496, -15.5806 ], [ -47.3491, -15.5791 ], [ -47.3476, -15.5795 ], [ -47.3469, -15.579 ], [ -47.3446, -15.5813 ], [ -47.3415, -15.5824 ], [ -47.3406, -15.5837 ], [ -47.3362, -15.5858 ], [ -47.3351, -15.5874 ], [ -47.332, -15.5873 ], [ -47.33, -15.586 ], [ -47.3278, -15.589 ], [ -47.3256, -15.5886 ], [ -47.3253, -15.5891 ], [ -47.3252, -15.5884 ], [ -47.3244, -15.589 ], [ -47.3249, -15.5877 ], [ -47.3236, -15.5875 ], [ -47.3228, -15.5862 ], [ -47.3219, -15.5861 ], [ -47.3216, -15.5869 ], [ -47.3208, -15.5863 ], [ -47.3206, -15.5869 ], [ -47.3186, -15.5871 ], [ -47.3186, -15.5886 ], [ -47.3171, -15.5905 ], [ -47.3174, -15.5935 ], [ -47.3161, -15.5943 ], [ -47.3158, -15.5969 ], [ -47.3179, -15.597 ], [ -47.3179, -15.5978 ], [ -47.3191, -15.5972 ], [ -47.3191, -15.5977 ], [ -47.3199, -15.5974 ], [ -47.3205, -15.5982 ], [ -47.3226, -15.5985 ], [ -47.323, -15.6011 ], [ -47.3237, -15.6009 ], [ -47.3229, -15.603 ], [ -47.323, -15.6038 ], [ -47.3237, -15.6038 ], [ -47.3232, -15.6043 ], [ -47.3235, -15.6055 ], [ -47.3244, -15.606 ], [ -47.324, -15.6065 ], [ -47.3249, -15.6065 ], [ -47.3255, -15.6078 ], [ -47.3248, -15.608 ], [ -47.3251, -15.6097 ], [ -47.3256, -15.6105 ], [ -47.3262, -15.6102 ], [ -47.326, -15.6111 ], [ -47.3267, -15.611 ], [ -47.3276, -15.6129 ], [ -47.3287, -15.6132 ], [ -47.3278, -15.6133 ], [ -47.3284, -15.6141 ], [ -47.328, -15.6147 ], [ -47.3285, -15.6145 ], [ -47.3292, -15.6159 ], [ -47.3292, -15.6168 ], [ -47.3284, -15.6175 ], [ -47.3289, -15.6184 ], [ -47.3296, -15.6178 ], [ -47.3307, -15.6204 ], [ -47.3305, -15.6217 ], [ -47.3311, -15.6225 ], [ -47.3301, -15.623 ], [ -47.3301, -15.6237 ], [ -47.3315, -15.6257 ], [ -47.331, -15.6264 ], [ -47.3322, -15.6269 ], [ -47.3321, -15.6279 ], [ -47.3327, -15.628 ], [ -47.3318, -15.6282 ], [ -47.3329, -15.6287 ], [ -47.3327, -15.6294 ], [ -47.3339, -15.6297 ], [ -47.3332, -15.631 ], [ -47.3338, -15.6314 ], [ -47.3329, -15.6313 ], [ -47.3332, -15.6329 ], [ -47.3325, -15.6331 ], [ -47.3318, -15.6352 ], [ -47.3307, -15.6358 ], [ -47.3316, -15.6367 ], [ -47.3308, -15.6371 ], [ -47.3308, -15.638 ], [ -47.3313, -15.6381 ], [ -47.3306, -15.6383 ], [ -47.3305, -15.6392 ], [ -47.3298, -15.639 ], [ -47.3299, -15.6399 ], [ -47.3295, -15.6397 ], [ -47.3305, -15.6415 ], [ -47.3294, -15.6421 ], [ -47.33, -15.6427 ], [ -47.3292, -15.643 ], [ -47.3298, -15.6438 ], [ -47.3293, -15.6441 ], [ -47.3305, -15.6453 ], [ -47.3308, -15.6444 ], [ -47.331, -15.6453 ], [ -47.3305, -15.646 ], [ -47.3291, -15.6455 ], [ -47.329, -15.6463 ], [ -47.3282, -15.6464 ], [ -47.3278, -15.6473 ], [ -47.3273, -15.647 ], [ -47.327, -15.6493 ], [ -47.3286, -15.6494 ], [ -47.3277, -15.6505 ], [ -47.3287, -15.6502 ], [ -47.3292, -15.6508 ], [ -47.3288, -15.6516 ], [ -47.3281, -15.6513 ], [ -47.328, -15.6521 ], [ -47.327, -15.6519 ], [ -47.3266, -15.6526 ], [ -47.3273, -15.6547 ], [ -47.3285, -15.6547 ], [ -47.3289, -15.656 ], [ -47.3296, -15.6557 ], [ -47.3291, -15.6564 ], [ -47.3282, -15.6561 ], [ -47.3293, -15.657 ], [ -47.3281, -15.6578 ], [ -47.3297, -15.6574 ], [ -47.3298, -15.6579 ], [ -47.3278, -15.659 ], [ -47.3278, -15.6605 ], [ -47.3286, -15.6613 ], [ -47.3274, -15.6608 ], [ -47.3267, -15.6615 ], [ -47.3271, -15.6635 ], [ -47.3287, -15.6636 ], [ -47.3275, -15.6642 ], [ -47.3282, -15.6653 ], [ -47.3269, -15.6649 ], [ -47.3265, -15.6657 ], [ -47.3276, -15.6656 ], [ -47.3287, -15.6669 ], [ -47.3272, -15.6676 ], [ -47.3261, -15.6694 ], [ -47.3278, -15.6709 ], [ -47.3268, -15.6719 ], [ -47.3278, -15.6727 ], [ -47.3272, -15.6754 ], [ -47.3284, -15.6762 ], [ -47.3279, -15.6776 ], [ -47.3291, -15.677 ], [ -47.3286, -15.6786 ], [ -47.3279, -15.6786 ], [ -47.329, -15.6789 ], [ -47.3289, -15.6798 ], [ -47.33, -15.6798 ], [ -47.3302, -15.6805 ], [ -47.3307, -15.6797 ], [ -47.3318, -15.6802 ], [ -47.3317, -15.6831 ], [ -47.3299, -15.684 ], [ -47.3296, -15.6836 ], [ -47.3293, -15.6847 ], [ -47.3287, -15.6843 ], [ -47.3292, -15.6834 ], [ -47.3281, -15.6833 ], [ -47.3278, -15.6843 ], [ -47.3284, -15.6861 ], [ -47.3279, -15.6861 ], [ -47.3283, -15.6866 ], [ -47.3277, -15.6867 ], [ -47.3277, -15.6874 ], [ -47.3298, -15.6879 ], [ -47.3284, -15.6883 ], [ -47.3282, -15.6889 ], [ -47.3277, -15.6885 ], [ -47.3258, -15.689 ], [ -47.3256, -15.6884 ], [ -47.3233, -15.6894 ], [ -47.3228, -15.6886 ], [ -47.3216, -15.6891 ], [ -47.3218, -15.6874 ], [ -47.3212, -15.6868 ], [ -47.3208, -15.6877 ], [ -47.3203, -15.6871 ], [ -47.3204, -15.6879 ], [ -47.3195, -15.6882 ], [ -47.3197, -15.6891 ], [ -47.3185, -15.6892 ], [ -47.3185, -15.6903 ], [ -47.3178, -15.6902 ], [ -47.3177, -15.6917 ], [ -47.3184, -15.6923 ], [ -47.3168, -15.692 ], [ -47.3176, -15.6933 ], [ -47.3165, -15.6935 ], [ -47.316, -15.6951 ], [ -47.3153, -15.6952 ], [ -47.3149, -15.6944 ], [ -47.3135, -15.6949 ], [ -47.3139, -15.696 ], [ -47.3129, -15.696 ], [ -47.3125, -15.6972 ], [ -47.3128, -15.698 ], [ -47.3138, -15.6983 ], [ -47.313, -15.6999 ], [ -47.3143, -15.7005 ], [ -47.314, -15.7016 ], [ -47.3136, -15.7014 ], [ -47.3135, -15.7016 ], [ -47.3144, -15.7024 ], [ -47.3144, -15.7035 ], [ -47.3135, -15.7037 ], [ -47.3142, -15.7039 ], [ -47.3139, -15.7048 ], [ -47.3149, -15.7049 ], [ -47.3133, -15.706 ], [ -47.3138, -15.7064 ], [ -47.3146, -15.706 ], [ -47.3142, -15.7068 ], [ -47.313, -15.7071 ], [ -47.3142, -15.7078 ], [ -47.3139, -15.7094 ], [ -47.3147, -15.7091 ], [ -47.3155, -15.7097 ], [ -47.3155, -15.7103 ], [ -47.3141, -15.7103 ], [ -47.3138, -15.711 ], [ -47.3151, -15.7118 ], [ -47.3151, -15.7129 ], [ -47.316, -15.713 ], [ -47.3154, -15.7134 ], [ -47.3152, -15.7154 ], [ -47.3162, -15.7164 ], [ -47.3173, -15.7163 ], [ -47.3178, -15.7172 ], [ -47.3185, -15.7169 ], [ -47.3188, -15.7181 ], [ -47.3196, -15.7177 ], [ -47.3199, -15.7185 ], [ -47.3194, -15.7192 ], [ -47.3209, -15.7186 ], [ -47.3203, -15.7208 ], [ -47.3211, -15.7213 ], [ -47.3208, -15.723 ], [ -47.3198, -15.7231 ], [ -47.3195, -15.7239 ], [ -47.319, -15.7236 ], [ -47.3181, -15.7249 ], [ -47.3195, -15.7267 ], [ -47.3184, -15.7267 ], [ -47.318, -15.7279 ], [ -47.3188, -15.7283 ], [ -47.3178, -15.7287 ], [ -47.3174, -15.7297 ], [ -47.3179, -15.7311 ], [ -47.317, -15.7314 ], [ -47.3185, -15.7318 ], [ -47.3181, -15.7326 ], [ -47.3183, -15.733 ], [ -47.3193, -15.7322 ], [ -47.3193, -15.7354 ], [ -47.3188, -15.7355 ], [ -47.3179, -15.7341 ], [ -47.3173, -15.7347 ], [ -47.3175, -15.736 ], [ -47.3167, -15.7355 ], [ -47.3172, -15.7369 ], [ -47.3155, -15.7363 ], [ -47.3155, -15.7372 ], [ -47.3146, -15.7371 ], [ -47.3136, -15.7381 ], [ -47.314, -15.739 ], [ -47.3146, -15.7389 ], [ -47.3141, -15.7398 ], [ -47.315, -15.74 ], [ -47.3135, -15.7403 ], [ -47.3142, -15.7416 ], [ -47.313, -15.7421 ], [ -47.3144, -15.743 ], [ -47.3152, -15.7427 ], [ -47.3137, -15.7448 ], [ -47.3144, -15.7451 ], [ -47.3142, -15.7465 ], [ -47.3149, -15.7463 ], [ -47.315, -15.7475 ], [ -47.3143, -15.7475 ], [ -47.3148, -15.7481 ], [ -47.3161, -15.7478 ], [ -47.3164, -15.7459 ], [ -47.3171, -15.7467 ], [ -47.3171, -15.7484 ], [ -47.319, -15.7496 ], [ -47.3179, -15.7503 ], [ -47.3186, -15.7509 ], [ -47.3184, -15.7522 ], [ -47.3191, -15.7519 ], [ -47.3201, -15.7534 ], [ -47.3194, -15.7547 ], [ -47.3206, -15.7554 ], [ -47.3226, -15.7544 ], [ -47.3222, -15.7556 ], [ -47.321, -15.7561 ], [ -47.3212, -15.7573 ], [ -47.3227, -15.7579 ], [ -47.3229, -15.7586 ], [ -47.3237, -15.758 ], [ -47.324, -15.7595 ], [ -47.3246, -15.7598 ], [ -47.324, -15.7607 ], [ -47.3243, -15.762 ], [ -47.326, -15.761 ], [ -47.3254, -15.7621 ], [ -47.3263, -15.7625 ], [ -47.3257, -15.7631 ], [ -47.3264, -15.7631 ], [ -47.327, -15.7642 ], [ -47.3264, -15.7652 ], [ -47.3273, -15.7653 ], [ -47.3265, -15.7663 ], [ -47.3285, -15.7657 ], [ -47.3286, -15.7669 ], [ -47.3293, -15.7669 ], [ -47.3299, -15.7692 ], [ -47.3283, -15.7697 ], [ -47.3289, -15.7703 ], [ -47.3274, -15.772 ], [ -47.3286, -15.7723 ], [ -47.3287, -15.7735 ], [ -47.3296, -15.7727 ], [ -47.3292, -15.7742 ], [ -47.3314, -15.7737 ], [ -47.3303, -15.7751 ], [ -47.3311, -15.7753 ], [ -47.3313, -15.7785 ], [ -47.3308, -15.78 ], [ -47.332, -15.7795 ], [ -47.333, -15.7816 ], [ -47.3336, -15.781 ], [ -47.335, -15.7821 ], [ -47.3363, -15.7815 ], [ -47.3367, -15.7827 ], [ -47.3355, -15.7836 ], [ -47.336, -15.7842 ], [ -47.3353, -15.7854 ], [ -47.3367, -15.7847 ], [ -47.3369, -15.7862 ], [ -47.3376, -15.7849 ], [ -47.3374, -15.7868 ], [ -47.3391, -15.7882 ], [ -47.3387, -15.7907 ], [ -47.3401, -15.7907 ], [ -47.3388, -15.7914 ], [ -47.34, -15.7927 ], [ -47.3392, -15.7929 ], [ -47.3401, -15.7945 ], [ -47.3394, -15.7949 ], [ -47.3403, -15.7951 ], [ -47.3407, -15.7943 ], [ -47.3413, -15.7955 ], [ -47.3415, -15.7941 ], [ -47.3417, -15.7951 ], [ -47.3425, -15.795 ], [ -47.3421, -15.7956 ], [ -47.3427, -15.7965 ], [ -47.3422, -15.7966 ], [ -47.342, -15.7981 ], [ -47.344, -15.7959 ], [ -47.3445, -15.7973 ], [ -47.3452, -15.7973 ], [ -47.3448, -15.7987 ], [ -47.346, -15.7979 ], [ -47.3446, -15.8001 ], [ -47.345, -15.8018 ], [ -47.3456, -15.8006 ], [ -47.346, -15.801 ], [ -47.3455, -15.803 ], [ -47.3467, -15.804 ], [ -47.3475, -15.8028 ], [ -47.3478, -15.804 ], [ -47.3486, -15.8034 ], [ -47.3496, -15.8039 ], [ -47.3496, -15.8053 ], [ -47.3481, -15.8058 ], [ -47.3494, -15.8062 ], [ -47.3485, -15.8068 ], [ -47.3484, -15.8081 ], [ -47.3489, -15.8085 ], [ -47.3493, -15.8078 ], [ -47.3503, -15.8078 ], [ -47.35, -15.8101 ], [ -47.3511, -15.8106 ], [ -47.351, -15.8115 ], [ -47.3517, -15.8112 ], [ -47.353, -15.8137 ], [ -47.3521, -15.8147 ], [ -47.3532, -15.815 ], [ -47.3544, -15.814 ], [ -47.3546, -15.8156 ], [ -47.3552, -15.816 ], [ -47.3531, -15.8169 ], [ -47.3529, -15.818 ], [ -47.3534, -15.8185 ], [ -47.3552, -15.817 ], [ -47.3562, -15.8188 ], [ -47.3548, -15.8204 ], [ -47.357, -15.8197 ], [ -47.3558, -15.8212 ], [ -47.3546, -15.8214 ], [ -47.3554, -15.8235 ], [ -47.3562, -15.8234 ], [ -47.3571, -15.8222 ], [ -47.3582, -15.8221 ], [ -47.3579, -15.823 ], [ -47.3571, -15.823 ], [ -47.3571, -15.8238 ], [ -47.359, -15.8238 ], [ -47.3596, -15.8229 ], [ -47.3589, -15.8231 ], [ -47.3589, -15.8226 ], [ -47.3607, -15.8214 ], [ -47.361, -15.8222 ], [ -47.3603, -15.8237 ], [ -47.363, -15.8248 ], [ -47.3621, -15.8272 ], [ -47.3637, -15.8279 ], [ -47.3661, -15.8273 ], [ -47.3674, -15.8284 ], [ -47.3667, -15.8301 ], [ -47.3659, -15.8303 ], [ -47.3659, -15.832 ], [ -47.3666, -15.8316 ], [ -47.3666, -15.832 ], [ -47.3656, -15.833 ], [ -47.3666, -15.8335 ], [ -47.3649, -15.8341 ], [ -47.3663, -15.8345 ], [ -47.3662, -15.8352 ], [ -47.3654, -15.8351 ], [ -47.3661, -15.8376 ], [ -47.3669, -15.8357 ], [ -47.3681, -15.8357 ], [ -47.3678, -15.8375 ], [ -47.3669, -15.8373 ], [ -47.367, -15.8387 ], [ -47.3675, -15.8391 ], [ -47.3682, -15.8381 ], [ -47.3679, -15.84 ], [ -47.3704, -15.8413 ], [ -47.3686, -15.8417 ], [ -47.3684, -15.8432 ], [ -47.371, -15.8462 ], [ -47.3731, -15.8459 ], [ -47.3727, -15.845 ], [ -47.3734, -15.8446 ], [ -47.3753, -15.8461 ], [ -47.3753, -15.8454 ], [ -47.3762, -15.8463 ], [ -47.3763, -15.8458 ], [ -47.377, -15.8467 ], [ -47.3777, -15.8461 ], [ -47.3784, -15.8472 ], [ -47.379, -15.8471 ], [ -47.379, -15.8463 ], [ -47.3801, -15.8471 ], [ -47.3809, -15.8464 ], [ -47.3802, -15.8456 ], [ -47.3807, -15.8454 ], [ -47.3825, -15.8454 ], [ -47.3823, -15.8466 ], [ -47.3831, -15.8471 ], [ -47.3853, -15.846 ], [ -47.3871, -15.8569 ], [ -47.423, -15.8642 ], [ -47.4525, -15.8577 ], [ -47.4561, -15.8584 ], [ -47.4629, -15.8625 ], [ -47.4672, -15.8631 ], [ -47.5182, -15.8531 ], [ -47.52, -15.8535 ], [ -47.5535, -15.8716 ], [ -47.5561, -15.8724 ], [ -47.5582, -15.8723 ], [ -47.6029, -15.8589 ], [ -47.6051, -15.8588 ], [ -47.6211, -15.863 ], [ -47.642, -15.7894 ], [ -47.6641, -15.7497 ], [ -47.6644, -15.7457 ], [ -47.6605, -15.7274 ], [ -47.6647, -15.7273 ], [ -47.6703, -15.7307 ], [ -47.6747, -15.7344 ], [ -47.6758, -15.7342 ], [ -47.6745, -15.7331 ], [ -47.6758, -15.7323 ], [ -47.6769, -15.7325 ], [ -47.677, -15.7319 ], [ -47.6783, -15.7327 ], [ -47.6787, -15.7338 ], [ -47.6806, -15.7338 ], [ -47.6818, -15.7321 ], [ -47.6826, -15.7323 ], [ -47.6836, -15.7311 ], [ -47.6849, -15.7311 ], [ -47.6851, -15.7304 ], [ -47.6875, -15.7294 ], [ -47.6895, -15.7269 ], [ -47.693, -15.7258 ], [ -47.6978, -15.7273 ], [ -47.7009, -15.7274 ], [ -47.7011, -15.7284 ], [ -47.7026, -15.7284 ], [ -47.7036, -15.7263 ], [ -47.7051, -15.7271 ], [ -47.7077, -15.7269 ], [ -47.7093, -15.7276 ], [ -47.7102, -15.7266 ], [ -47.7135, -15.7283 ], [ -47.7179, -15.7271 ], [ -47.7193, -15.7253 ], [ -47.721, -15.7265 ], [ -47.7255, -15.7268 ], [ -47.7292, -15.7283 ], [ -47.7308, -15.7269 ], [ -47.7332, -15.7262 ], [ -47.7375, -15.728 ], [ -47.7426, -15.7277 ], [ -47.7445, -15.7252 ], [ -47.7444, -15.7245 ], [ -47.7477, -15.724 ], [ -47.748, -15.723 ], [ -47.75, -15.7219 ], [ -47.7521, -15.7194 ], [ -47.7541, -15.7181 ], [ -47.7575, -15.7176 ], [ -47.7596, -15.7149 ], [ -47.7617, -15.7142 ], [ -47.762, -15.7133 ], [ -47.7718, -15.7231 ], [ -47.7762, -15.7245 ], [ -47.7814, -15.724 ], [ -47.7901, -15.7275 ], [ -47.7915, -15.7242 ], [ -47.7931, -15.7224 ], [ -47.834, -15.6943 ], [ -47.8383, -15.6929 ], [ -47.8514, -15.6926 ], [ -47.8609, -15.6873 ], [ -47.8852, -15.6666 ], [ -47.9592, -15.6124 ], [ -48.0024, -15.5796 ], [ -48.0056, -15.5782 ], [ -48.0093, -15.578 ], [ -48.0132, -15.5793 ], [ -48.017, -15.5824 ], [ -48.0251, -15.5728 ], [ -48.035, -15.5654 ], [ -48.0354, -15.5637 ], [ -48.0336, -15.5591 ], [ -48.0342, -15.5562 ], [ -48.0361, -15.554 ], [ -48.0422, -15.5504 ], [ -48.0435, -15.5485 ], [ -48.0439, -15.5466 ], [ -48.0421, -15.5418 ], [ -48.0331, -15.5336 ], [ -48.0318, -15.5315 ], [ -48.0325, -15.5306 ], [ -48.0351, -15.5316 ], [ -48.0379, -15.5277 ], [ -48.039, -15.5251 ], [ -48.0398, -15.5194 ], [ -48.0394, -15.5165 ], [ -48.0342, -15.505 ], [ -48.0341, -15.5036 ], [ -48.0348, -15.5024 ], [ -47.4184, -15.5018 ] ], [ [ -47.3586, -15.5802 ], [ -47.3587, -15.5802 ], [ -47.3587, -15.5803 ], [ -47.3586, -15.5802 ] ] ] } },
{ "type": "Feature", "properties": { "RS": "Oeste", "Regioes_Ad": "Brazlândia, Ceilândia, Pôr Sol/Sol Nascente", "Macro": "Macrorregiāo 1" }, "geometry": { "type": "Polygon", "coordinates": [ [ [ -48.2405, -15.7034 ], [ -48.2401, -15.6994 ], [ -48.2395, -15.6989 ], [ -48.2392, -15.6967 ], [ -48.2397, -15.6951 ], [ -48.2415, -15.694 ], [ -48.2414, -15.6931 ], [ -48.2406, -15.6929 ], [ -48.2415, -15.687 ], [ -48.2396, -15.6822 ], [ -48.2396, -15.6796 ], [ -48.2389, -15.6794 ], [ -48.237, -15.6723 ], [ -48.2346, -15.6673 ], [ -48.2352, -15.6616 ], [ -48.2337, -15.6574 ], [ -48.2357, -15.6542 ], [ -48.2366, -15.6505 ], [ -48.2351, -15.6472 ], [ -48.234, -15.6412 ], [ -48.2299, -15.6378 ], [ -48.2286, -15.6337 ], [ -48.2262, -15.6316 ], [ -48.2258, -15.6303 ], [ -48.2239, -15.6285 ], [ -48.2207, -15.6274 ], [ -48.2171, -15.6221 ], [ -48.2145, -15.6229 ], [ -48.2113, -15.6225 ], [ -48.2075, -15.6231 ], [ -48.2037, -15.6245 ], [ -48.2014, -15.6229 ], [ -48.2, -15.6231 ], [ -48.2, -15.5023 ], [ -48.0347, -15.5025 ], [ -48.0342, -15.505 ], [ -48.0394, -15.5165 ], [ -48.0398, -15.5194 ], [ -48.039, -15.5251 ], [ -48.0379, -15.5277 ], [ -48.0351, -15.5316 ], [ -48.0325, -15.5306 ], [ -48.0318, -15.5315 ], [ -48.0331, -15.5336 ], [ -48.0421, -15.5418 ], [ -48.0437, -15.545 ], [ -48.0438, -15.5473 ], [ -48.0422, -15.5504 ], [ -48.0361, -15.554 ], [ -48.0342, -15.5562 ], [ -48.0336, -15.5591 ], [ -48.0354, -15.5637 ], [ -48.035, -15.5654 ], [ -48.0251, -15.5728 ], [ -48.017, -15.5824 ], [ -48.0276, -15.5916 ], [ -48.0451, -15.6125 ], [ -48.0495, -15.6152 ], [ -48.0709, -15.625 ], [ -48.0746, -15.6284 ], [ -48.0774, -15.6349 ], [ -48.0897, -15.6782 ], [ -48.086, -15.7256 ], [ -48.0842, -15.7292 ], [ -48.0813, -15.732 ], [ -48.0729, -15.7365 ], [ -48.0737, -15.7376 ], [ -48.0722, -15.7401 ], [ -48.0725, -15.7414 ], [ -48.0684, -15.7471 ], [ -48.0677, -15.7497 ], [ -48.0668, -15.7502 ], [ -48.0672, -15.7512 ], [ -48.0657, -15.7539 ], [ -48.0657, -15.7551 ], [ -48.0664, -15.7569 ], [ -48.0688, -15.7594 ], [ -48.0713, -15.7587 ], [ -48.0728, -15.759 ], [ -48.077, -15.7571 ], [ -48.0799, -15.7579 ], [ -48.0815, -15.7593 ], [ -48.0829, -15.7593 ], [ -48.0885, -15.7615 ], [ -48.0945, -15.765 ], [ -48.0972, -15.7659 ], [ -48.0993, -15.7653 ], [ -48.1053, -15.7676 ], [ -48.1077, -15.7693 ], [ -48.1087, -15.769 ], [ -48.1119, -15.7704 ], [ -48.1113, -15.7712 ], [ -48.1088, -15.772 ], [ -48.1068, -15.7719 ], [ -48.1053, -15.7736 ], [ -48.1051, -15.7753 ], [ -48.1038, -15.7756 ], [ -48.1025, -15.7792 ], [ -48.1026, -15.7803 ], [ -48.1036, -15.7809 ], [ -48.1029, -15.7833 ], [ -48.103, -15.7861 ], [ -48.1071, -15.7898 ], [ -48.1072, -15.7905 ], [ -48.1083, -15.7901 ], [ -48.111, -15.794 ], [ -48.1124, -15.7945 ], [ -48.1086, -15.7995 ], [ -48.1076, -15.7988 ], [ -48.1013, -15.8055 ], [ -48.0967, -15.8117 ], [ -48.094, -15.8168 ], [ -48.0925, -15.8215 ], [ -48.0933, -15.8218 ], [ -48.0879, -15.8359 ], [ -48.0933, -15.8377 ], [ -48.0919, -15.8419 ], [ -48.0907, -15.8415 ], [ -48.0907, -15.8459 ], [ -48.0877, -15.8512 ], [ -48.0889, -15.8523 ], [ -48.0912, -15.8527 ], [ -48.0919, -15.8534 ], [ -48.0932, -15.8532 ], [ -48.0982, -15.8553 ], [ -48.0993, -15.8552 ], [ -48.1005, -15.8564 ], [ -48.1021, -15.8565 ], [ -48.1027, -15.8574 ], [ -48.1055, -15.8573 ], [ -48.1099, -15.8624 ], [ -48.1094, -15.8633 ], [ -48.1106, -15.8665 ], [ -48.1138, -15.8678 ], [ -48.1169, -15.8676 ], [ -48.1176, -15.8669 ], [ -48.1201, -15.867 ], [ -48.1212, -15.8654 ], [ -48.1246, -15.8675 ], [ -48.1269, -15.8656 ], [ -48.1281, -15.8655 ], [ -48.1303, -15.864 ], [ -48.131, -15.8646 ], [ -48.1326, -15.863 ], [ -48.1337, -15.8641 ], [ -48.1368, -15.8638 ], [ -48.1383, -15.8625 ], [ -48.1424, -15.861 ], [ -48.1441, -15.8586 ], [ -48.1452, -15.8587 ], [ -48.1462, -15.8569 ], [ -48.1473, -15.8571 ], [ -48.1483, -15.8559 ], [ -48.1498, -15.8559 ], [ -48.1499, -15.8549 ], [ -48.1509, -15.8542 ], [ -48.153, -15.8543 ], [ -48.1536, -15.8551 ], [ -48.1552, -15.8545 ], [ -48.1585, -15.8549 ], [ -48.1614, -15.8525 ], [ -48.1625, -15.8528 ], [ -48.1636, -15.8517 ], [ -48.165, -15.8532 ], [ -48.1669, -15.8533 ], [ -48.1679, -15.8526 ], [ -48.1689, -15.853 ], [ -48.1689, -15.854 ], [ -48.1711, -15.8545 ], [ -48.172, -15.8555 ], [ -48.1742, -15.8556 ], [ -48.1757, -15.8575 ], [ -48.1772, -15.8576 ], [ -48.1782, -15.8608 ], [ -48.1777, -15.862 ], [ -48.1822, -15.8606 ], [ -48.1839, -15.8641 ], [ -48.1835, -15.8645 ], [ -48.1855, -15.8675 ], [ -48.1887, -15.8693 ], [ -48.1895, -15.8711 ], [ -48.1925, -15.8716 ], [ -48.1917, -15.8727 ], [ -48.1921, -15.8724 ], [ -48.1932, -15.8732 ], [ -48.1931, -15.874 ], [ -48.1949, -15.8752 ], [ -48.1944, -15.8756 ], [ -48.1967, -15.8785 ], [ -48.1961, -15.8792 ], [ -48.1978, -15.8806 ], [ -48.1979, -15.8833 ], [ -48.1991, -15.8829 ], [ -48.2003, -15.8843 ], [ -48.1999, -15.8848 ], [ -48.2008, -15.8858 ], [ -48.2002, -15.8878 ], [ -48.2021, -15.8894 ], [ -48.2023, -15.8916 ], [ -48.2036, -15.8915 ], [ -48.204, -15.8921 ], [ -48.2045, -15.8914 ], [ -48.2059, -15.8914 ], [ -48.2058, -15.8926 ], [ -48.2068, -15.8937 ], [ -48.2083, -15.893 ], [ -48.2077, -15.8946 ], [ -48.2084, -15.8957 ], [ -48.2095, -15.8957 ], [ -48.2102, -15.897 ], [ -48.2109, -15.8968 ], [ -48.2106, -15.8962 ], [ -48.2121, -15.8956 ], [ -48.213, -15.8976 ], [ -48.2175, -15.8973 ], [ -48.2182, -15.8976 ], [ -48.2185, -15.8991 ], [ -48.2198, -15.8978 ], [ -48.2205, -15.8988 ], [ -48.22, -15.8998 ], [ -48.2205, -15.9007 ], [ -48.2214, -15.9011 ], [ -48.2226, -15.9003 ], [ -48.2232, -15.9007 ], [ -48.2232, -15.9019 ], [ -48.2244, -15.9026 ], [ -48.2248, -15.9022 ], [ -48.2241, -15.9007 ], [ -48.2247, -15.9013 ], [ -48.2264, -15.901 ], [ -48.2264, -15.8999 ], [ -48.2289, -15.9002 ], [ -48.2279, -15.9013 ], [ -48.2294, -15.9018 ], [ -48.2307, -15.9015 ], [ -48.2305, -15.9005 ], [ -48.2316, -15.9016 ], [ -48.2319, -15.9007 ], [ -48.2328, -15.9005 ], [ -48.2344, -15.901 ], [ -48.2351, -15.9007 ], [ -48.235, -15.899 ], [ -48.2356, -15.8999 ], [ -48.2371, -15.8991 ], [ -48.2364, -15.9 ], [ -48.2369, -15.9016 ], [ -48.2358, -15.9028 ], [ -48.2365, -15.9034 ], [ -48.2386, -15.9038 ], [ -48.2404, -15.9027 ], [ -48.24, -15.9035 ], [ -48.2407, -15.9046 ], [ -48.2431, -15.905 ], [ -48.2464, -15.9075 ], [ -48.2472, -15.9071 ], [ -48.2469, -15.9093 ], [ -48.2474, -15.9087 ], [ -48.2481, -15.9095 ], [ -48.2487, -15.9085 ], [ -48.2505, -15.9086 ], [ -48.2528, -15.91 ], [ -48.2525, -15.9106 ], [ -48.2533, -15.9116 ], [ -48.2537, -15.9108 ], [ -48.2549, -15.9115 ], [ -48.2555, -15.9126 ], [ -48.2548, -15.9132 ], [ -48.2544, -15.9153 ], [ -48.255, -15.9152 ], [ -48.2552, -15.9161 ], [ -48.2537, -15.9168 ], [ -48.2564, -15.9171 ], [ -48.2562, -15.9178 ], [ -48.2583, -15.9183 ], [ -48.2579, -15.9191 ], [ -48.2595, -15.9215 ], [ -48.2585, -15.9232 ], [ -48.2593, -15.9248 ], [ -48.2583, -15.9249 ], [ -48.2593, -15.9277 ], [ -48.2592, -15.9292 ], [ -48.2607, -15.9293 ], [ -48.2613, -15.9288 ], [ -48.2607, -15.928 ], [ -48.2612, -15.9279 ], [ -48.2622, -15.9285 ], [ -48.2642, -15.9284 ], [ -48.2651, -15.9316 ], [ -48.2683, -15.9332 ], [ -48.2697, -15.9317 ], [ -48.2713, -15.932 ], [ -48.2739, -15.9311 ], [ -48.2758, -15.9316 ], [ -48.2764, -15.9312 ], [ -48.2746, -15.9278 ], [ -48.2771, -15.9266 ], [ -48.2767, -15.9256 ], [ -48.2758, -15.9259 ], [ -48.276, -15.9249 ], [ -48.2752, -15.9245 ], [ -48.2769, -15.9239 ], [ -48.2753, -15.9234 ], [ -48.2763, -15.9228 ], [ -48.2752, -15.9219 ], [ -48.2744, -15.9231 ], [ -48.2728, -15.9217 ], [ -48.2721, -15.9222 ], [ -48.2716, -15.9211 ], [ -48.2731, -15.9199 ], [ -48.2719, -15.9203 ], [ -48.27, -15.9195 ], [ -48.27, -15.9189 ], [ -48.2708, -15.9189 ], [ -48.271, -15.9175 ], [ -48.27, -15.9177 ], [ -48.2695, -15.9169 ], [ -48.2704, -15.917 ], [ -48.2701, -15.9162 ], [ -48.2708, -15.916 ], [ -48.2701, -15.9136 ], [ -48.2693, -15.9131 ], [ -48.2705, -15.9122 ], [ -48.2696, -15.9115 ], [ -48.2702, -15.9104 ], [ -48.2721, -15.9108 ], [ -48.2747, -15.9094 ], [ -48.275, -15.9075 ], [ -48.2773, -15.9074 ], [ -48.2743, -15.9042 ], [ -48.2743, -15.9031 ], [ -48.2764, -15.9029 ], [ -48.2758, -15.9015 ], [ -48.2767, -15.9 ], [ -48.2759, -15.8992 ], [ -48.2746, -15.9 ], [ -48.2738, -15.8986 ], [ -48.2742, -15.8976 ], [ -48.2759, -15.8974 ], [ -48.2761, -15.8969 ], [ -48.2753, -15.8956 ], [ -48.2729, -15.8956 ], [ -48.2736, -15.8942 ], [ -48.2756, -15.8936 ], [ -48.2765, -15.8926 ], [ -48.2753, -15.8906 ], [ -48.2737, -15.8903 ], [ -48.2739, -15.8877 ], [ -48.2719, -15.8848 ], [ -48.2717, -15.8832 ], [ -48.2732, -15.8823 ], [ -48.2743, -15.8788 ], [ -48.2751, -15.879 ], [ -48.2749, -15.8805 ], [ -48.2755, -15.8807 ], [ -48.2757, -15.8779 ], [ -48.2749, -15.8764 ], [ -48.2771, -15.8759 ], [ -48.2776, -15.8726 ], [ -48.2784, -15.8719 ], [ -48.2771, -15.8716 ], [ -48.2758, -15.8702 ], [ -48.2779, -15.8686 ], [ -48.2804, -15.8691 ], [ -48.2791, -15.8673 ], [ -48.2805, -15.8669 ], [ -48.279, -15.8635 ], [ -48.2802, -15.8627 ], [ -48.2789, -15.8617 ], [ -48.2792, -15.86 ], [ -48.2803, -15.8605 ], [ -48.2802, -15.8616 ], [ -48.2807, -15.8614 ], [ -48.2815, -15.86 ], [ -48.2815, -15.8584 ], [ -48.2803, -15.8582 ], [ -48.2806, -15.8569 ], [ -48.2816, -15.8575 ], [ -48.2818, -15.8558 ], [ -48.2834, -15.8561 ], [ -48.2836, -15.8557 ], [ -48.2823, -15.8548 ], [ -48.2844, -15.8536 ], [ -48.2839, -15.8531 ], [ -48.2826, -15.8536 ], [ -48.2824, -15.8529 ], [ -48.2831, -15.8507 ], [ -48.2841, -15.8498 ], [ -48.2844, -15.8468 ], [ -48.2853, -15.8465 ], [ -48.2848, -15.845 ], [ -48.2859, -15.8445 ], [ -48.2852, -15.8427 ], [ -48.2833, -15.8422 ], [ -48.2852, -15.8401 ], [ -48.2846, -15.838 ], [ -48.2851, -15.8366 ], [ -48.2825, -15.8334 ], [ -48.2818, -15.8316 ], [ -48.2809, -15.8281 ], [ -48.2816, -15.827 ], [ -48.2805, -15.8257 ], [ -48.2807, -15.8239 ], [ -48.2783, -15.822 ], [ -48.2764, -15.8192 ], [ -48.2763, -15.8179 ], [ -48.2717, -15.8153 ], [ -48.2712, -15.8128 ], [ -48.2699, -15.8135 ], [ -48.2698, -15.8119 ], [ -48.2682, -15.8129 ], [ -48.268, -15.8086 ], [ -48.2671, -15.8082 ], [ -48.2668, -15.8095 ], [ -48.2662, -15.809 ], [ -48.2667, -15.8068 ], [ -48.2647, -15.8089 ], [ -48.2641, -15.8066 ], [ -48.2634, -15.8069 ], [ -48.2622, -15.8059 ], [ -48.262, -15.8065 ], [ -48.2612, -15.8065 ], [ -48.2612, -15.8056 ], [ -48.2597, -15.804 ], [ -48.2588, -15.8041 ], [ -48.2592, -15.803 ], [ -48.2577, -15.8031 ], [ -48.2566, -15.8017 ], [ -48.2503, -15.8021 ], [ -48.25, -15.8012 ], [ -48.2489, -15.8007 ], [ -48.2488, -15.8015 ], [ -48.2494, -15.8018 ], [ -48.2485, -15.8024 ], [ -48.2481, -15.8007 ], [ -48.2491, -15.7996 ], [ -48.2488, -15.7986 ], [ -48.2471, -15.7989 ], [ -48.2467, -15.7994 ], [ -48.2471, -15.8002 ], [ -48.2465, -15.8003 ], [ -48.2459, -15.7995 ], [ -48.2468, -15.7978 ], [ -48.2462, -15.797 ], [ -48.2455, -15.7977 ], [ -48.2447, -15.7969 ], [ -48.2429, -15.7973 ], [ -48.2423, -15.7995 ], [ -48.2413, -15.7995 ], [ -48.2404, -15.7984 ], [ -48.2411, -15.7929 ], [ -48.2407, -15.7926 ], [ -48.2402, -15.794 ], [ -48.2392, -15.7934 ], [ -48.2369, -15.7892 ], [ -48.2379, -15.7868 ], [ -48.2375, -15.7854 ], [ -48.2329, -15.7846 ], [ -48.2323, -15.7835 ], [ -48.2331, -15.781 ], [ -48.232, -15.7785 ], [ -48.2282, -15.777 ], [ -48.2135, -15.7667 ], [ -48.2127, -15.7632 ], [ -48.2067, -15.7551 ], [ -48.2056, -15.7503 ], [ -48.2056, -15.747 ], [ -48.2082, -15.7403 ], [ -48.2066, -15.7323 ], [ -48.2077, -15.7238 ], [ -48.2078, -15.7177 ], [ -48.2102, -15.7128 ], [ -48.2187, -15.709 ], [ -48.2214, -15.709 ], [ -48.2219, -15.7082 ], [ -48.2223, -15.7086 ], [ -48.2228, -15.7081 ], [ -48.2245, -15.7098 ], [ -48.2275, -15.709 ], [ -48.2274, -15.7084 ], [ -48.2306, -15.7097 ], [ -48.2314, -15.7092 ], [ -48.2315, -15.7097 ], [ -48.2326, -15.7095 ], [ -48.2334, -15.7085 ], [ -48.2348, -15.709 ], [ -48.2365, -15.7087 ], [ -48.2369, -15.7079 ], [ -48.2378, -15.7084 ], [ -48.2413, -15.7054 ], [ -48.2415, -15.7038 ], [ -48.2405, -15.7034 ] ], [ [ -48.2398, -15.7001 ], [ -48.2399, -15.7002 ], [ -48.2398, -15.7002 ], [ -48.2398, -15.7001 ] ] ] } },
{ "type": "Feature", "properties": { "RS": "Sudoeste", "Regioes_Ad": "Águas Claras, Arniqueiras, Recanto das Emas, Samambaia, Taguatinga, Vicente Pires", "Macro": "Macrorregião 1" }, "geometry": { "type": "Polygon", "coordinates": [ [ [ -48.1944, -15.8755 ], [ -48.1949, -15.8752 ], [ -48.1931, -15.874 ], [ -48.1933, -15.8733 ], [ -48.1921, -15.8724 ], [ -48.1917, -15.8727 ], [ -48.1927, -15.8719 ], [ -48.1924, -15.8715 ], [ -48.1895, -15.8711 ], [ -48.1887, -15.8693 ], [ -48.1855, -15.8675 ], [ -48.1835, -15.8645 ], [ -48.1839, -15.8641 ], [ -48.1822, -15.8606 ], [ -48.1777, -15.862 ], [ -48.1782, -15.8608 ], [ -48.1769, -15.8573 ], [ -48.1757, -15.8575 ], [ -48.1742, -15.8556 ], [ -48.172, -15.8555 ], [ -48.1711, -15.8545 ], [ -48.1689, -15.854 ], [ -48.1689, -15.853 ], [ -48.1679, -15.8526 ], [ -48.1669, -15.8533 ], [ -48.165, -15.8532 ], [ -48.1636, -15.8517 ], [ -48.1625, -15.8528 ], [ -48.1614, -15.8525 ], [ -48.1585, -15.8549 ], [ -48.1552, -15.8545 ], [ -48.1536, -15.8551 ], [ -48.153, -15.8543 ], [ -48.1509, -15.8542 ], [ -48.1499, -15.8549 ], [ -48.1498, -15.8559 ], [ -48.1483, -15.8559 ], [ -48.1473, -15.8571 ], [ -48.1462, -15.8569 ], [ -48.1452, -15.8587 ], [ -48.1441, -15.8586 ], [ -48.1424, -15.861 ], [ -48.1383, -15.8625 ], [ -48.1368, -15.8638 ], [ -48.1337, -15.8641 ], [ -48.1326, -15.863 ], [ -48.131, -15.8646 ], [ -48.1303, -15.864 ], [ -48.1281, -15.8655 ], [ -48.1269, -15.8656 ], [ -48.1246, -15.8675 ], [ -48.1212, -15.8654 ], [ -48.1201, -15.867 ], [ -48.1176, -15.8669 ], [ -48.1169, -15.8676 ], [ -48.1138, -15.8678 ], [ -48.1106, -15.8665 ], [ -48.1094, -15.8633 ], [ -48.1099, -15.8624 ], [ -48.1055, -15.8573 ], [ -48.1027, -15.8574 ], [ -48.1021, -15.8565 ], [ -48.1005, -15.8564 ], [ -48.0993, -15.8552 ], [ -48.0982, -15.8553 ], [ -48.0932, -15.8532 ], [ -48.0919, -15.8534 ], [ -48.0912, -15.8527 ], [ -48.0889, -15.8523 ], [ -48.0877, -15.8512 ], [ -48.0907, -15.8459 ], [ -48.0907, -15.8415 ], [ -48.0919, -15.8419 ], [ -48.0933, -15.8377 ], [ -48.0879, -15.8359 ], [ -48.0933, -15.8218 ], [ -48.0925, -15.8215 ], [ -48.094, -15.8168 ], [ -48.0967, -15.8117 ], [ -48.1013, -15.8055 ], [ -48.1076, -15.7988 ], [ -48.1086, -15.7995 ], [ -48.1124, -15.7945 ], [ -48.111, -15.794 ], [ -48.1083, -15.7901 ], [ -48.1072, -15.7905 ], [ -48.1071, -15.7898 ], [ -48.103, -15.7861 ], [ -48.1029, -15.7833 ], [ -48.1036, -15.7809 ], [ -48.1026, -15.7803 ], [ -48.1025, -15.7792 ], [ -48.1038, -15.7756 ], [ -48.1051, -15.7753 ], [ -48.1053, -15.7736 ], [ -48.1068, -15.7719 ], [ -48.1088, -15.772 ], [ -48.1113, -15.7712 ], [ -48.1119, -15.7704 ], [ -48.1087, -15.769 ], [ -48.1077, -15.7693 ], [ -48.1053, -15.7676 ], [ -48.0993, -15.7653 ], [ -48.0972, -15.7659 ], [ -48.0945, -15.765 ], [ -48.0885, -15.7615 ], [ -48.0829, -15.7593 ], [ -48.0815, -15.7593 ], [ -48.0799, -15.7579 ], [ -48.077, -15.7571 ], [ -48.0728, -15.759 ], [ -48.0713, -15.7587 ], [ -48.0688, -15.7594 ], [ -48.0664, -15.7569 ], [ -48.0657, -15.7539 ], [ -48.0671, -15.7515 ], [ -48.0668, -15.7502 ], [ -48.0677, -15.7497 ], [ -48.0684, -15.7471 ], [ -48.0725, -15.7414 ], [ -48.0722, -15.7401 ], [ -48.0737, -15.7376 ], [ -48.0729, -15.7365 ], [ -48.0619, -15.7385 ], [ -48.0559, -15.7415 ], [ -48.0524, -15.7446 ], [ -48.0506, -15.7471 ], [ -48.0476, -15.7537 ], [ -48.0169, -15.7516 ], [ -48.0047, -15.7548 ], [ -48.0053, -15.7589 ], [ -48.0062, -15.7592 ], [ -48.0068, -15.7608 ], [ -48.0073, -15.7649 ], [ -48.0066, -15.7661 ], [ -48.0068, -15.7692 ], [ -48.0061, -15.7706 ], [ -48.0068, -15.7751 ], [ -48.0061, -15.7762 ], [ -48.0059, -15.7797 ], [ -48.0041, -15.783 ], [ -48.0042, -15.7846 ], [ -48.003, -15.7862 ], [ -47.9957, -15.7863 ], [ -47.9898, -15.7873 ], [ -47.9929, -15.811 ], [ -47.9961, -15.8113 ], [ -48.0049, -15.8146 ], [ -48.0045, -15.8155 ], [ -48.0009, -15.8178 ], [ -48.0031, -15.8181 ], [ -48.0041, -15.8193 ], [ -48.0107, -15.8221 ], [ -48.0112, -15.8212 ], [ -48.0137, -15.8222 ], [ -48.0086, -15.8344 ], [ -48.0078, -15.8354 ], [ -48.0053, -15.8343 ], [ -48.0036, -15.8381 ], [ -48.0109, -15.8411 ], [ -48.0064, -15.8502 ], [ -48.0025, -15.8486 ], [ -47.9999, -15.8464 ], [ -47.9988, -15.8487 ], [ -48.0006, -15.8505 ], [ -47.9961, -15.855 ], [ -47.9965, -15.8554 ], [ -47.995, -15.8569 ], [ -47.9946, -15.8566 ], [ -47.9879, -15.8624 ], [ -47.9883, -15.8628 ], [ -47.9865, -15.8648 ], [ -47.9919, -15.8662 ], [ -47.9914, -15.868 ], [ -47.9939, -15.869 ], [ -47.9921, -15.8765 ], [ -48.0129, -15.8782 ], [ -48.0438, -15.8738 ], [ -48.0462, -15.8746 ], [ -48.0547, -15.8802 ], [ -48.0603, -15.8824 ], [ -48.0428, -15.9371 ], [ -48.0382, -15.9454 ], [ -48.0407, -15.9492 ], [ -48.0431, -15.9512 ], [ -48.0493, -15.9533 ], [ -48.0543, -15.9525 ], [ -48.0756, -15.9395 ], [ -48.0784, -15.9387 ], [ -48.0797, -15.939 ], [ -48.0828, -15.9417 ], [ -48.0912, -15.935 ], [ -48.0921, -15.9335 ], [ -48.0944, -15.9322 ], [ -48.0964, -15.9329 ], [ -48.1022, -15.9372 ], [ -48.1038, -15.942 ], [ -48.1051, -15.9429 ], [ -48.1055, -15.9444 ], [ -48.1065, -15.9447 ], [ -48.1073, -15.9467 ], [ -48.1115, -15.9509 ], [ -48.1126, -15.9516 ], [ -48.1143, -15.9511 ], [ -48.1164, -15.953 ], [ -48.1169, -15.9526 ], [ -48.1188, -15.9538 ], [ -48.1202, -15.9537 ], [ -48.1198, -15.954 ], [ -48.1203, -15.9548 ], [ -48.1212, -15.9547 ], [ -48.1211, -15.9553 ], [ -48.1221, -15.9557 ], [ -48.1223, -15.953 ], [ -48.1238, -15.9497 ], [ -48.1255, -15.948 ], [ -48.1257, -15.947 ], [ -48.1264, -15.947 ], [ -48.127, -15.944 ], [ -48.1267, -15.9422 ], [ -48.1275, -15.9428 ], [ -48.1308, -15.9428 ], [ -48.1341, -15.9452 ], [ -48.1377, -15.9448 ], [ -48.1426, -15.9431 ], [ -48.147, -15.9434 ], [ -48.1534, -15.9471 ], [ -48.1531, -15.9344 ], [ -48.1534, -15.9338 ], [ -48.1556, -15.937 ], [ -48.1568, -15.9371 ], [ -48.1602, -15.9403 ], [ -48.1631, -15.9469 ], [ -48.1728, -15.9463 ], [ -48.1731, -15.9471 ], [ -48.1762, -15.9463 ], [ -48.1792, -15.9467 ], [ -48.1817, -15.9459 ], [ -48.1871, -15.9457 ], [ -48.1866, -15.9491 ], [ -48.1869, -15.9534 ], [ -48.1885, -15.9569 ], [ -48.1921, -15.9607 ], [ -48.1924, -15.9633 ], [ -48.1931, -15.9639 ], [ -48.1957, -15.9627 ], [ -48.1986, -15.964 ], [ -48.2008, -15.9623 ], [ -48.2016, -15.9631 ], [ -48.2053, -15.9644 ], [ -48.2059, -15.9641 ], [ -48.2063, -15.9647 ], [ -48.2067, -15.9643 ], [ -48.2082, -15.9651 ], [ -48.2111, -15.9651 ], [ -48.2122, -15.9662 ], [ -48.2138, -15.9659 ], [ -48.2148, -15.9674 ], [ -48.2158, -15.9674 ], [ -48.2171, -15.9685 ], [ -48.2179, -15.9683 ], [ -48.2185, -15.9695 ], [ -48.219, -15.969 ], [ -48.2198, -15.9697 ], [ -48.2207, -15.9694 ], [ -48.2214, -15.9706 ], [ -48.2232, -15.9707 ], [ -48.224, -15.9698 ], [ -48.2252, -15.9713 ], [ -48.2284, -15.9713 ], [ -48.2295, -15.9705 ], [ -48.2325, -15.972 ], [ -48.2358, -15.9719 ], [ -48.2382, -15.9726 ], [ -48.2385, -15.9717 ], [ -48.2402, -15.9708 ], [ -48.24, -15.9719 ], [ -48.2413, -15.9717 ], [ -48.2432, -15.9731 ], [ -48.2445, -15.9733 ], [ -48.2447, -15.9727 ], [ -48.2461, -15.9723 ], [ -48.2456, -15.9731 ], [ -48.2473, -15.9756 ], [ -48.2537, -15.9759 ], [ -48.2536, -15.9772 ], [ -48.2565, -15.9771 ], [ -48.2582, -15.9777 ], [ -48.2585, -15.9772 ], [ -48.2579, -15.9764 ], [ -48.2591, -15.9764 ], [ -48.2597, -15.9742 ], [ -48.258, -15.9728 ], [ -48.2606, -15.9689 ], [ -48.2603, -15.9669 ], [ -48.2577, -15.9649 ], [ -48.2573, -15.9635 ], [ -48.256, -15.9633 ], [ -48.2564, -15.9624 ], [ -48.2575, -15.9621 ], [ -48.2576, -15.9613 ], [ -48.2552, -15.9623 ], [ -48.2552, -15.9606 ], [ -48.2563, -15.9598 ], [ -48.2545, -15.9589 ], [ -48.2547, -15.9571 ], [ -48.2534, -15.9559 ], [ -48.2513, -15.9554 ], [ -48.2521, -15.9488 ], [ -48.2534, -15.9486 ], [ -48.2536, -15.9468 ], [ -48.2531, -15.9464 ], [ -48.2517, -15.9478 ], [ -48.2502, -15.9478 ], [ -48.2508, -15.9438 ], [ -48.2517, -15.944 ], [ -48.252, -15.9449 ], [ -48.2529, -15.9442 ], [ -48.2522, -15.9415 ], [ -48.2527, -15.9402 ], [ -48.2513, -15.9376 ], [ -48.2523, -15.9358 ], [ -48.2546, -15.9368 ], [ -48.2558, -15.9322 ], [ -48.2585, -15.9318 ], [ -48.2592, -15.9293 ], [ -48.2593, -15.9277 ], [ -48.2583, -15.9249 ], [ -48.2593, -15.9248 ], [ -48.2585, -15.9232 ], [ -48.2595, -15.9215 ], [ -48.2579, -15.9191 ], [ -48.2583, -15.9183 ], [ -48.2562, -15.9178 ], [ -48.2564, -15.9171 ], [ -48.2537, -15.9168 ], [ -48.2552, -15.9161 ], [ -48.2544, -15.9149 ], [ -48.2555, -15.9124 ], [ -48.2539, -15.9108 ], [ -48.2533, -15.9116 ], [ -48.2525, -15.9106 ], [ -48.2528, -15.91 ], [ -48.2505, -15.9086 ], [ -48.2487, -15.9085 ], [ -48.2481, -15.9095 ], [ -48.2474, -15.9087 ], [ -48.2469, -15.9093 ], [ -48.2472, -15.9071 ], [ -48.2464, -15.9075 ], [ -48.2431, -15.905 ], [ -48.2407, -15.9046 ], [ -48.24, -15.9035 ], [ -48.2404, -15.9027 ], [ -48.2386, -15.9038 ], [ -48.2365, -15.9034 ], [ -48.2358, -15.9028 ], [ -48.2369, -15.9016 ], [ -48.2364, -15.9 ], [ -48.2371, -15.8991 ], [ -48.2356, -15.8999 ], [ -48.235, -15.899 ], [ -48.2351, -15.9007 ], [ -48.2344, -15.901 ], [ -48.2328, -15.9005 ], [ -48.2319, -15.9007 ], [ -48.2316, -15.9016 ], [ -48.2305, -15.9005 ], [ -48.2307, -15.9015 ], [ -48.2294, -15.9018 ], [ -48.2279, -15.9013 ], [ -48.2289, -15.9002 ], [ -48.2264, -15.8999 ], [ -48.2264, -15.901 ], [ -48.2247, -15.9013 ], [ -48.2241, -15.9007 ], [ -48.2248, -15.9022 ], [ -48.2244, -15.9026 ], [ -48.2232, -15.9019 ], [ -48.2232, -15.9007 ], [ -48.2226, -15.9003 ], [ -48.2214, -15.9011 ], [ -48.2205, -15.9007 ], [ -48.22, -15.8998 ], [ -48.2205, -15.8988 ], [ -48.2198, -15.8978 ], [ -48.2185, -15.8991 ], [ -48.2182, -15.8976 ], [ -48.2175, -15.8973 ], [ -48.213, -15.8976 ], [ -48.2121, -15.8956 ], [ -48.2106, -15.8962 ], [ -48.2109, -15.8968 ], [ -48.2102, -15.897 ], [ -48.2095, -15.8957 ], [ -48.2084, -15.8957 ], [ -48.2077, -15.8946 ], [ -48.2083, -15.893 ], [ -48.2068, -15.8937 ], [ -48.2058, -15.8926 ], [ -48.2059, -15.8914 ], [ -48.2045, -15.8914 ], [ -48.204, -15.8921 ], [ -48.2036, -15.8915 ], [ -48.2023, -15.8916 ], [ -48.2021, -15.8894 ], [ -48.2002, -15.8878 ], [ -48.2008, -15.8858 ], [ -48.1999, -15.8848 ], [ -48.2003, -15.8843 ], [ -48.1991, -15.8829 ], [ -48.1979, -15.8833 ], [ -48.1978, -15.8806 ], [ -48.1961, -15.8792 ], [ -48.1967, -15.8785 ], [ -48.1944, -15.8755 ] ] ] } },
{ "type": "Feature", "properties": { "RS": "Sul", "Regioes_Ad": "Gama, Santa Maria", "Macro": "Macrorregiāo 2" }, "geometry": { "type": "Polygon", "coordinates": [ [ [ -48.0941, -15.9324 ], [ -48.0921, -15.9335 ], [ -48.0912, -15.935 ], [ -48.0828, -15.9417 ], [ -48.0797, -15.939 ], [ -48.0784, -15.9387 ], [ -48.0756, -15.9395 ], [ -48.0624, -15.9479 ], [ -48.0524, -15.9531 ], [ -48.0485, -15.9532 ], [ -48.0436, -15.9515 ], [ -48.0407, -15.9492 ], [ -48.0382, -15.9454 ], [ -48.0149, -15.9726 ], [ -48.0091, -15.9764 ], [ -48.003, -15.9781 ], [ -47.9966, -15.978 ], [ -47.9784, -15.9746 ], [ -47.9712, -15.9746 ], [ -47.9663, -15.9756 ], [ -47.9455, -15.9829 ], [ -47.9365, -15.984 ], [ -47.9291, -15.9827 ], [ -47.8924, -15.9693 ], [ -47.8915, -15.9713 ], [ -47.8902, -15.9711 ], [ -47.8893, -15.9721 ], [ -47.889, -15.9741 ], [ -47.8875, -15.9767 ], [ -47.8847, -15.9778 ], [ -47.8835, -15.9818 ], [ -47.881, -15.9863 ], [ -47.8805, -15.9901 ], [ -47.8783, -15.9939 ], [ -47.8779, -15.9971 ], [ -47.8785, -16.0 ], [ -47.8756, -16.0076 ], [ -47.8741, -16.0105 ], [ -47.8724, -16.0109 ], [ -47.8716, -16.0123 ], [ -47.8705, -16.0128 ], [ -47.8715, -16.0139 ], [ -47.875, -16.0153 ], [ -47.877, -16.0183 ], [ -47.8771, -16.0208 ], [ -47.8758, -16.0227 ], [ -47.8749, -16.0249 ], [ -47.8749, -16.0272 ], [ -47.8735, -16.0286 ], [ -47.8726, -16.0317 ], [ -47.8716, -16.0321 ], [ -47.8685, -16.0375 ], [ -47.8725, -16.0385 ], [ -47.873, -16.0394 ], [ -47.8737, -16.0389 ], [ -47.8756, -16.0392 ], [ -47.8765, -16.0404 ], [ -47.8789, -16.0416 ], [ -47.8791, -16.0429 ], [ -47.8808, -16.0442 ], [ -47.8816, -16.0461 ], [ -47.8853, -16.0472 ], [ -47.8885, -16.0503 ], [ -48.2778, -16.0496 ], [ -48.2777, -16.0472 ], [ -48.2787, -16.0447 ], [ -48.2774, -16.044 ], [ -48.2786, -16.0416 ], [ -48.2769, -16.0411 ], [ -48.2772, -16.0394 ], [ -48.2757, -16.0367 ], [ -48.2733, -16.0354 ], [ -48.2741, -16.0349 ], [ -48.2741, -16.034 ], [ -48.2718, -16.0316 ], [ -48.273, -16.0305 ], [ -48.2722, -16.0276 ], [ -48.2714, -16.0273 ], [ -48.2722, -16.0256 ], [ -48.2712, -16.0252 ], [ -48.2726, -16.0242 ], [ -48.2698, -16.0222 ], [ -48.2706, -16.0199 ], [ -48.2701, -16.0166 ], [ -48.2717, -16.0154 ], [ -48.2711, -16.0147 ], [ -48.2723, -16.0129 ], [ -48.2714, -16.0096 ], [ -48.2724, -16.009 ], [ -48.2711, -16.008 ], [ -48.2697, -16.0053 ], [ -48.27, -16.0039 ], [ -48.2689, -16.0024 ], [ -48.2678, -16.002 ], [ -48.2674, -16.001 ], [ -48.2663, -16.0014 ], [ -48.2654, -15.9966 ], [ -48.2636, -15.9961 ], [ -48.2625, -15.9948 ], [ -48.264, -15.9924 ], [ -48.2627, -15.9916 ], [ -48.2615, -15.9896 ], [ -48.2625, -15.9896 ], [ -48.2629, -15.9889 ], [ -48.2618, -15.9855 ], [ -48.2595, -15.9847 ], [ -48.2582, -15.9834 ], [ -48.2591, -15.9824 ], [ -48.2586, -15.9805 ], [ -48.2599, -15.9802 ], [ -48.2606, -15.9791 ], [ -48.2587, -15.9773 ], [ -48.2577, -15.9777 ], [ -48.2565, -15.9771 ], [ -48.2536, -15.9772 ], [ -48.2537, -15.9759 ], [ -48.2473, -15.9756 ], [ -48.2456, -15.9731 ], [ -48.2461, -15.9723 ], [ -48.2447, -15.9727 ], [ -48.2445, -15.9733 ], [ -48.2432, -15.9731 ], [ -48.2413, -15.9717 ], [ -48.24, -15.9719 ], [ -48.2402, -15.9708 ], [ -48.2385, -15.9717 ], [ -48.2382, -15.9726 ], [ -48.2358, -15.9719 ], [ -48.2325, -15.972 ], [ -48.2295, -15.9705 ], [ -48.2284, -15.9713 ], [ -48.2252, -15.9713 ], [ -48.224, -15.9698 ], [ -48.2232, -15.9707 ], [ -48.2214, -15.9706 ], [ -48.2207, -15.9694 ], [ -48.2198, -15.9697 ], [ -48.219, -15.969 ], [ -48.2185, -15.9695 ], [ -48.2179, -15.9683 ], [ -48.2171, -15.9685 ], [ -48.2158, -15.9674 ], [ -48.2148, -15.9674 ], [ -48.2138, -15.9659 ], [ -48.2122, -15.9662 ], [ -48.2111, -15.9651 ], [ -48.2082, -15.9651 ], [ -48.2067, -15.9643 ], [ -48.2063, -15.9647 ], [ -48.2059, -15.9641 ], [ -48.2053, -15.9644 ], [ -48.2016, -15.9631 ], [ -48.2008, -15.9623 ], [ -48.1986, -15.964 ], [ -48.1957, -15.9627 ], [ -48.1931, -15.9639 ], [ -48.1924, -15.9633 ], [ -48.1921, -15.9607 ], [ -48.1885, -15.9569 ], [ -48.1869, -15.9534 ], [ -48.1866, -15.9491 ], [ -48.1871, -15.9457 ], [ -48.1817, -15.9459 ], [ -48.1792, -15.9467 ], [ -48.1762, -15.9463 ], [ -48.1731, -15.9471 ], [ -48.1728, -15.9463 ], [ -48.1631, -15.9469 ], [ -48.1602, -15.9403 ], [ -48.1568, -15.9371 ], [ -48.1556, -15.937 ], [ -48.1534, -15.9338 ], [ -48.1534, -15.9471 ], [ -48.147, -15.9434 ], [ -48.1426, -15.9431 ], [ -48.1377, -15.9448 ], [ -48.1341, -15.9452 ], [ -48.1308, -15.9428 ], [ -48.1275, -15.9428 ], [ -48.1267, -15.9422 ], [ -48.127, -15.944 ], [ -48.1264, -15.947 ], [ -48.1257, -15.947 ], [ -48.1255, -15.948 ], [ -48.1238, -15.9497 ], [ -48.1223, -15.953 ], [ -48.122, -15.9557 ], [ -48.1211, -15.9553 ], [ -48.1212, -15.9547 ], [ -48.1203, -15.9548 ], [ -48.1198, -15.954 ], [ -48.1202, -15.9537 ], [ -48.1188, -15.9538 ], [ -48.1169, -15.9526 ], [ -48.1164, -15.953 ], [ -48.1143, -15.9511 ], [ -48.1126, -15.9516 ], [ -48.1115, -15.9509 ], [ -48.1073, -15.9467 ], [ -48.1065, -15.9447 ], [ -48.1055, -15.9444 ], [ -48.1051, -15.9429 ], [ -48.1038, -15.942 ], [ -48.1022, -15.9372 ], [ -48.0964, -15.9329 ], [ -48.0941, -15.9324 ] ] ] } }
]
}
